{"type":"FeatureCollection","features":[{"type":"Feature","id":"basin-RH30A","properties":{"id":"basin-RH30A","sourceId":"RH30A","name":"R. USUMACINTA","nameJa":"R. USUMACINTA","sourceName":"R. USUMACINTA","basinType":"EXORREICA","sourceArea":"13267.86 km²","sourcePerimeter":"1098.71 km","unit":"domestic basin boundary","observedPeriod":null},"geometry":{"type":"Polygon","coordinates":[[[-92.463894,18.652296],[-92.462962,18.646964],[-92.450975,18.63389],[-92.434108,18.625649],[-92.396476,18.616833],[-92.353139,18.594069],[-92.349693,18.585297],[-92.35126,18.579031],[-92.358696,18.574498],[-92.378774,18.572742],[-92.38951,18.566496],[-92.394212,18.561584],[-92.394984,18.552672],[-92.357792,18.498919],[-92.314144,18.459271],[-92.303126,18.437026],[-92.291197,18.426219],[-92.27225,18.398641],[-92.264741,18.395553],[-92.263759,18.38615],[-92.269162,18.369659],[-92.262496,18.362922],[-92.261443,18.350361],[-92.251478,18.340186],[-92.247446,18.328116],[-92.24002,18.326435],[-92.23124,18.328816],[-92.224394,18.335215],[-92.202963,18.336852],[-92.212042,18.314975],[-92.212042,18.307981],[-92.199473,18.27185],[-92.193916,18.268026],[-92.190729,18.260721],[-92.196464,18.238154],[-92.190453,18.223092],[-92.194531,18.208349],[-92.194531,18.19424],[-92.19179,18.190329],[-92.182696,18.188724],[-92.163974,18.176521],[-92.161434,18.167795],[-92.151605,18.159237],[-92.146725,18.157412],[-92.143108,18.159956],[-92.137968,18.180562],[-92.125476,18.200476],[-92.122035,18.239816],[-92.11429,18.257594],[-92.097308,18.256809],[-92.088599,18.263212],[-92.10269,18.292957],[-92.113005,18.299428],[-92.118466,18.317278],[-92.117681,18.328771],[-92.103828,18.338051],[-92.092142,18.371519],[-92.066414,18.386321],[-92.056288,18.39841],[-92.056737,18.407347],[-92.070096,18.407361],[-92.07722,18.413664],[-92.079326,18.421802],[-92.076971,18.428048],[-92.037517,18.46269],[-92.02908,18.464544],[-92.024574,18.444287],[-92.008417,18.423824],[-91.996948,18.388013],[-91.995901,18.366383],[-91.971012,18.36003],[-91.950025,18.347586],[-91.935368,18.343969],[-91.931513,18.335498],[-91.930942,18.322863],[-91.922661,18.312822],[-91.89456,18.318747],[-91.881687,18.318889],[-91.876357,18.31582],[-91.873644,18.28177],[-91.866839,18.270515],[-91.850944,18.258046],[-91.831837,18.222878],[-91.825365,18.201487],[-91.830552,18.162678],[-91.841212,18.145046],[-91.841807,18.124273],[-91.837453,18.102977],[-91.825365,18.082014],[-91.816989,18.074162],[-91.804759,18.069974],[-91.773826,18.06876],[-91.762976,18.057767],[-91.715886,18.036019],[-91.706939,18.022361],[-91.688879,18.011344],[-91.6572,18.004762],[-91.63591,17.927715],[-91.625442,17.913297],[-91.603047,17.895581],[-91.59024,17.890365],[-91.570392,17.898041],[-91.53933,17.883233],[-91.496371,17.87888],[-91.492419,17.86025],[-91.476394,17.85053],[-91.459593,17.850485],[-91.450023,17.865744],[-91.42069,17.863378],[-91.405716,17.871691],[-91.39705,17.870195],[-91.377018,17.859332],[-91.371848,17.864614],[-91.363212,17.863803],[-91.329256,17.885462],[-91.318459,17.91],[-91.308017,17.912291],[-91.300053,17.923349],[-91.299918,17.935416],[-91.29248,17.939725],[-91.293651,17.944518],[-91.291221,17.946308],[-91.284947,17.94549],[-91.277003,17.937713],[-91.27548,17.932712],[-91.281258,17.929232],[-91.281873,17.925361],[-91.260478,17.903195],[-91.246535,17.905163],[-91.245606,17.909154],[-91.241388,17.90961],[-91.229203,17.92043],[-91.209528,17.924458],[-91.198699,17.915415],[-91.190495,17.921759],[-91.178808,17.911016],[-91.171159,17.915373],[-91.158142,17.912874],[-91.154967,17.915711],[-91.142955,17.9144],[-91.140022,17.906665],[-91.13541,17.90477],[-91.132464,17.908214],[-91.13613,17.914531],[-91.130261,17.922826],[-91.120358,17.924685],[-91.118307,17.93023],[-91.099375,17.942338],[-91.096224,17.967482],[-91.080372,17.973448],[-91.072509,17.983172],[-91.054211,17.984936],[-91.047023,17.988498],[-91.037962,17.999282],[-91.029325,17.971672],[-91.020964,17.959375],[-91.020368,17.935359],[-91.035704,17.922771],[-91.03621,17.899678],[-91.051593,17.884285],[-91.051816,17.860484],[-91.03818,17.855493],[-91.033799,17.845898],[-91.028509,17.842058],[-91.00469,17.83971],[-91.004078,17.815534],[-90.993445,17.807201],[-90.998901,17.783977],[-90.995103,17.781192],[-90.987691,17.783869],[-90.987264,17.251323],[-91.439078,17.250903],[-91.439335,17.248212],[-91.42701,17.216732],[-91.418168,17.209335],[-91.404683,17.205225],[-91.375886,17.205094],[-91.3545,17.190987],[-91.347008,17.177145],[-91.350656,17.164235],[-91.34872,17.160027],[-91.338647,17.159582],[-91.332476,17.177119],[-91.325979,17.183095],[-91.285616,17.178523],[-91.279222,17.182934],[-91.276869,17.181266],[-91.262468,17.165639],[-91.263672,17.154292],[-91.270964,17.145466],[-91.272889,17.138002],[-91.267078,17.108229],[-91.255778,17.101233],[-91.233716,17.101202],[-91.224575,17.09363],[-91.207043,17.049647],[-91.193719,17.04058],[-91.175107,17.016028],[-91.154673,17.005316],[-91.132926,17.00721],[-91.122294,17.003334],[-91.119933,16.977724],[-91.102389,16.968933],[-91.092585,16.951385],[-91.080853,16.944724],[-91.063138,16.924562],[-91.073814,16.912176],[-91.064648,16.902611],[-91.007088,16.886555],[-90.993958,16.877825],[-90.987309,16.864126],[-90.981073,16.873506],[-90.987363,16.892722],[-90.985822,16.898182],[-90.973069,16.904272],[-90.962784,16.90155],[-90.956135,16.895928],[-90.953912,16.883627],[-90.957358,16.878132],[-90.971658,16.870332],[-90.973681,16.864561],[-90.968551,16.861619],[-90.951222,16.866768],[-90.933212,16.860245],[-90.930665,16.855458],[-90.932813,16.842533],[-90.925462,16.834427],[-90.920454,16.822225],[-90.884402,16.827503],[-90.861033,16.813438],[-90.85483,16.79872],[-90.841624,16.796251],[-90.803359,16.799423],[-90.800194,16.7949],[-90.803351,16.782114],[-90.801313,16.775868],[-90.760653,16.76215],[-90.755569,16.750296],[-90.711477,16.725637],[-90.705883,16.715981],[-90.708879,16.705273],[-90.681083,16.689245],[-90.674403,16.658781],[-90.658334,16.64383],[-90.655976,16.636667],[-90.661412,16.628788],[-90.654206,16.609592],[-90.653799,16.598123],[-90.664248,16.600653],[-90.676195,16.610045],[-90.693893,16.613815],[-90.695779,16.619858],[-90.709611,16.619948],[-90.714605,16.623146],[-90.718199,16.623035],[-90.728918,16.611556],[-90.733314,16.61177],[-90.744304,16.62506],[-90.74058,16.63059],[-90.740614,16.642078],[-90.749906,16.644477],[-90.761699,16.655155],[-90.77313,16.676384],[-90.801039,16.686523],[-90.816387,16.689067],[-90.824423,16.686395],[-90.834376,16.680044],[-90.845927,16.66175],[-90.853896,16.656971],[-90.883278,16.651208],[-90.915458,16.649505],[-90.918436,16.654571],[-90.923012,16.653941],[-90.925631,16.659105],[-90.937256,16.666697],[-90.96939,16.658459],[-90.995451,16.665797],[-90.996284,16.672242],[-91.002577,16.677178],[-90.998061,16.680332],[-91.001337,16.686426],[-91.007112,16.687681],[-91.015374,16.697026],[-91.029005,16.701648],[-91.031682,16.711721],[-91.037551,16.718636],[-91.041582,16.717788],[-91.044229,16.720836],[-91.042865,16.72475],[-91.051808,16.737238],[-91.050204,16.740527],[-91.064499,16.753854],[-91.064584,16.758404],[-91.070541,16.760712],[-91.076508,16.782617],[-91.074425,16.784384],[-91.079946,16.787743],[-91.079311,16.793901],[-91.095913,16.803539],[-91.096537,16.809888],[-91.091021,16.819193],[-91.10305,16.824308],[-91.115244,16.841917],[-91.130309,16.855696],[-91.132188,16.861849],[-91.128691,16.867037],[-91.140942,16.878099],[-91.148033,16.892309],[-91.166623,16.900864],[-91.169281,16.905981],[-91.180165,16.902171],[-91.189315,16.910922],[-91.208756,16.899929],[-91.224186,16.89869],[-91.226138,16.905465],[-91.233858,16.905754],[-91.240936,16.914032],[-91.248809,16.917663],[-91.253889,16.927852],[-91.267322,16.93575],[-91.268303,16.939443],[-91.257758,16.947911],[-91.262604,16.955503],[-91.269651,16.956139],[-91.272421,16.951453],[-91.283286,16.949253],[-91.287002,16.955124],[-91.296487,16.958758],[-91.296396,16.961904],[-91.317689,16.98188],[-91.32354,16.984123],[-91.331814,16.99393],[-91.331462,16.997527],[-91.338709,16.997186],[-91.338191,17.000451],[-91.341832,17.002825],[-91.35775,16.995562],[-91.344409,16.983064],[-91.348786,16.978401],[-91.351534,16.966715],[-91.342961,16.956386],[-91.353442,16.952506],[-91.372319,16.935426],[-91.381686,16.938561],[-91.39381,16.931775],[-91.396182,16.935588],[-91.402108,16.926093],[-91.40858,16.931779],[-91.416039,16.931387],[-91.413232,16.940036],[-91.417039,16.951274],[-91.40814,16.96201],[-91.409067,16.967633],[-91.422559,16.978914],[-91.424344,16.98284],[-91.42109,16.985878],[-91.424273,16.989457],[-91.442142,16.997514],[-91.458062,17.010287],[-91.456271,17.01795],[-91.462472,17.022992],[-91.459652,17.027757],[-91.464007,17.036216],[-91.495623,17.054074],[-91.502134,17.048884],[-91.507667,17.051035],[-91.524756,17.067996],[-91.53241,17.071223],[-91.534427,17.076113],[-91.553594,17.086941],[-91.551341,17.091908],[-91.553486,17.094513],[-91.587644,17.120307],[-91.612182,17.129259],[-91.613509,17.133835],[-91.622354,17.129777],[-91.623607,17.137109],[-91.626209,17.137058],[-91.625316,17.142426],[-91.632295,17.148629],[-91.628248,17.154501],[-91.636749,17.14954],[-91.637844,17.153223],[-91.648623,17.155578],[-91.656047,17.161814],[-91.667326,17.16242],[-91.667968,17.16524],[-91.689651,17.174713],[-91.698848,17.184106],[-91.728859,17.198487],[-91.727536,17.209398],[-91.762732,17.236155],[-91.773801,17.237434],[-91.776199,17.24321],[-91.786676,17.244129],[-91.789739,17.247957],[-91.801279,17.24911],[-91.80056,17.266467],[-91.813999,17.27021],[-91.821037,17.279976],[-91.80923,17.306023],[-91.817515,17.30842],[-91.821233,17.314887],[-91.815623,17.317113],[-91.811888,17.314495],[-91.808825,17.317336],[-91.811008,17.322024],[-91.804824,17.323681],[-91.802116,17.327868],[-91.800918,17.342573],[-91.813938,17.352846],[-91.817337,17.350425],[-91.822304,17.354245],[-91.824285,17.361883],[-91.829876,17.360828],[-91.830733,17.364583],[-91.836935,17.362874],[-91.844914,17.369318],[-91.848293,17.367034],[-91.849721,17.371769],[-91.857386,17.3712],[-91.866258,17.380031],[-91.887816,17.381929],[-91.891282,17.390141],[-91.912657,17.399746],[-91.913057,17.411021],[-91.916866,17.411761],[-91.917771,17.415393],[-91.931181,17.417032],[-91.93833,17.425772],[-91.959183,17.427599],[-91.975718,17.435656],[-91.999706,17.427579],[-92.005424,17.421454],[-92.022902,17.429675],[-92.034832,17.429023],[-92.039016,17.422781],[-92.043604,17.426548],[-92.057924,17.428409],[-92.070692,17.424656],[-92.0792,17.439306],[-92.090669,17.439134],[-92.096782,17.451215],[-92.115847,17.453445],[-92.117691,17.461955],[-92.12096,17.460078],[-92.121736,17.465752],[-92.127668,17.468679],[-92.126359,17.472867],[-92.1187,17.474231],[-92.115452,17.480282],[-92.119955,17.493599],[-92.116913,17.496547],[-92.10078,17.49226],[-92.086022,17.478062],[-92.073234,17.477887],[-92.049199,17.468091],[-92.032314,17.467652],[-92.012544,17.457323],[-92.006085,17.459832],[-91.997452,17.475053],[-91.99743,17.479593],[-92.001726,17.483735],[-92.000318,17.494851],[-91.995989,17.499124],[-91.998277,17.504019],[-91.991052,17.508419],[-91.991692,17.526743],[-91.994246,17.529204],[-91.991504,17.540148],[-91.997664,17.544351],[-92.00742,17.561316],[-92.024647,17.565694],[-92.035212,17.582684],[-92.035813,17.590114],[-92.04216,17.596151],[-92.051369,17.596175],[-92.053486,17.600696],[-92.066502,17.606121],[-92.070221,17.615946],[-92.095006,17.613548],[-92.108405,17.623019],[-92.111281,17.635991],[-92.124744,17.647141],[-92.120952,17.654982],[-92.124813,17.679849],[-92.119785,17.692865],[-92.127685,17.708934],[-92.121222,17.715577],[-92.130827,17.733083],[-92.112873,17.758219],[-92.11817,17.774737],[-92.101921,17.792152],[-92.104704,17.802117],[-92.101293,17.805708],[-92.09851,17.822674],[-92.158477,17.907867],[-92.162516,17.914869],[-92.164402,17.947276],[-92.171314,17.957869],[-92.183433,17.966128],[-92.195373,17.988661],[-92.192769,17.998895],[-92.180111,18.013438],[-92.158656,18.027442],[-92.148422,18.06335],[-92.150936,18.090461],[-92.164042,18.096117],[-92.182984,18.096386],[-92.189897,18.099887],[-92.216469,18.129152],[-92.210737,18.141273],[-92.214224,18.147915],[-92.245914,18.168382],[-92.2592,18.183733],[-92.262342,18.196391],[-92.272845,18.210395],[-92.296006,18.212639],[-92.312075,18.226823],[-92.317282,18.246393],[-92.340622,18.247471],[-92.37267,18.256807],[-92.376351,18.263001],[-92.393587,18.274312],[-92.399422,18.271799],[-92.41576,18.251331],[-92.421775,18.249894],[-92.425276,18.254832],[-92.445025,18.259221],[-92.446911,18.265155],[-92.480755,18.259051],[-92.49808,18.264976],[-92.51406,18.274133],[-92.52327,18.287054],[-92.533899,18.286521],[-92.557419,18.277903],[-92.580794,18.27897],[-92.591678,18.276519],[-92.597373,18.279114],[-92.600621,18.288258],[-92.617989,18.288557],[-92.624982,18.299586],[-92.64257,18.302109],[-92.649707,18.309534],[-92.650212,18.322149],[-92.641705,18.369653],[-92.64913,18.382989],[-92.649202,18.389621],[-92.645148,18.395674],[-92.645742,18.403245],[-92.631541,18.425447],[-92.627865,18.462931],[-92.623684,18.47223],[-92.600112,18.492486],[-92.566807,18.512499],[-92.580963,18.538623],[-92.581217,18.548455],[-92.578505,18.55159],[-92.513923,18.615918],[-92.481208,18.631852],[-92.477733,18.638208],[-92.479379,18.648476],[-92.463894,18.652296]]]}},{"type":"Feature","id":"basin-RH30B","properties":{"id":"basin-RH30B","sourceId":"RH30B","name":"R. CHIXOY","nameJa":"R. CHIXOY","sourceName":"R. CHIXOY","basinType":"EXORREICA","sourceArea":"1144.70 km²","sourcePerimeter":"272.74 km","unit":"domestic basin boundary","observedPeriod":null},"geometry":{"type":"Polygon","coordinates":[[[-90.62575,16.578564],[-90.626888,16.574377],[-90.638315,16.569087],[-90.647189,16.558771],[-90.64829,16.545207],[-90.642385,16.533225],[-90.645449,16.519221],[-90.637578,16.514236],[-90.617141,16.522965],[-90.60908,16.515204],[-90.605695,16.50343],[-90.608222,16.494363],[-90.61768,16.488138],[-90.633736,16.488239],[-90.631605,16.479453],[-90.620983,16.478348],[-90.614204,16.489156],[-90.60506,16.488085],[-90.595224,16.49154],[-90.59171,16.488004],[-90.593906,16.476195],[-90.588985,16.470664],[-90.547745,16.48341],[-90.542904,16.479812],[-90.548155,16.469422],[-90.528714,16.458174],[-90.526064,16.467121],[-90.515671,16.470954],[-90.501384,16.467397],[-90.49635,16.454104],[-90.486808,16.46164],[-90.480285,16.46158],[-90.477607,16.457257],[-90.479823,16.450916],[-90.477912,16.444552],[-90.487513,16.429447],[-90.485614,16.423508],[-90.473987,16.425979],[-90.460303,16.421758],[-90.422885,16.426215],[-90.416903,16.4228],[-90.409408,16.405086],[-90.403926,16.407755],[-90.399696,16.416942],[-90.394778,16.416646],[-90.386986,16.409387],[-90.390775,16.402398],[-90.402318,16.397763],[-90.400939,16.390304],[-90.38783,16.379077],[-90.371857,16.373639],[-90.37066,16.365251],[-90.376405,16.358856],[-90.383144,16.360765],[-90.387343,16.369316],[-90.395155,16.374218],[-90.411037,16.362509],[-90.412811,16.353526],[-90.410124,16.346592],[-90.408099,16.348329],[-90.410141,16.358091],[-90.404551,16.362032],[-90.401149,16.358179],[-90.401493,16.3513],[-90.3926,16.347523],[-90.389099,16.350479],[-90.381866,16.340146],[-90.388264,16.333831],[-90.399004,16.339347],[-90.404149,16.331552],[-90.411898,16.328378],[-90.408944,16.315471],[-90.411071,16.307377],[-90.43963,16.301962],[-90.440151,16.299304],[-90.432265,16.292976],[-90.441531,16.286702],[-90.440514,16.27931],[-90.429566,16.272611],[-90.422809,16.259432],[-90.430392,16.253653],[-90.441915,16.261407],[-90.446311,16.26127],[-90.45544,16.248779],[-90.455365,16.243702],[-90.450727,16.241551],[-90.441223,16.248419],[-90.439156,16.241249],[-90.428541,16.23356],[-90.430936,16.229832],[-90.439403,16.231533],[-90.451328,16.225345],[-90.457533,16.210325],[-90.454015,16.18725],[-90.432671,16.178873],[-90.425295,16.168884],[-90.426394,16.161933],[-90.448089,16.154445],[-90.451091,16.149973],[-90.448918,16.144492],[-90.434298,16.143322],[-90.429412,16.139623],[-90.43107,16.118245],[-90.437936,16.116955],[-90.452601,16.124709],[-90.457863,16.112144],[-90.455732,16.093854],[-90.448107,16.094676],[-90.434744,16.107234],[-90.429788,16.107571],[-90.425353,16.103661],[-90.427321,16.096684],[-90.436033,16.096347],[-90.446076,16.084011],[-90.441281,16.073945],[-90.779832,16.073867],[-90.779144,16.082086],[-90.769715,16.082513],[-90.764532,16.09109],[-90.752048,16.093487],[-90.747345,16.101208],[-90.747461,16.106569],[-90.753345,16.112437],[-90.757627,16.124154],[-90.755915,16.143068],[-90.733548,16.147934],[-90.705065,16.139335],[-90.690872,16.14175],[-90.685812,16.150484],[-90.688407,16.159516],[-90.682133,16.160011],[-90.673954,16.16903],[-90.63668,16.18971],[-90.627607,16.202065],[-90.62666,16.211464],[-90.619345,16.220235],[-90.626973,16.227615],[-90.639647,16.249533],[-90.639931,16.253424],[-90.634841,16.255525],[-90.636665,16.263042],[-90.663539,16.303846],[-90.646598,16.33405],[-90.641075,16.350152],[-90.637784,16.36238],[-90.640582,16.37266],[-90.63807,16.386337],[-90.644751,16.401042],[-90.645836,16.421749],[-90.649719,16.427077],[-90.652403,16.475767],[-90.654916,16.489027],[-90.661826,16.50022],[-90.660113,16.510134],[-90.665709,16.531229],[-90.665481,16.541999],[-90.678016,16.559326],[-90.676929,16.567928],[-90.670449,16.572639],[-90.666689,16.580547],[-90.655525,16.578062],[-90.644266,16.581141],[-90.642977,16.596935],[-90.635988,16.59392],[-90.62575,16.578564]]]}},{"type":"Feature","id":"basin-RH30D","properties":{"id":"basin-RH30D","sourceId":"RH30D","name":"R. GRIJALVA - VILLAHERMOSA","nameJa":"R. GRIJALVA - VILLAHERMOSA","sourceName":"R. GRIJALVA - VILLAHERMOSA","basinType":"EXORREICA","sourceArea":"22805.97 km²","sourcePerimeter":"973.36 km","unit":"domestic basin boundary","observedPeriod":null},"geometry":{"type":"Polygon","coordinates":[[[-92.481208,18.631852],[-92.513923,18.615918],[-92.578505,18.55159],[-92.581217,18.548455],[-92.580963,18.538623],[-92.566807,18.512499],[-92.600112,18.492486],[-92.623684,18.47223],[-92.627865,18.462931],[-92.631541,18.425447],[-92.645742,18.403245],[-92.645148,18.395674],[-92.649202,18.389621],[-92.64913,18.382989],[-92.641705,18.369653],[-92.650212,18.322149],[-92.649707,18.309534],[-92.64257,18.302109],[-92.624982,18.299586],[-92.617989,18.288557],[-92.600621,18.288258],[-92.597373,18.279114],[-92.591678,18.276519],[-92.580794,18.27897],[-92.557419,18.277903],[-92.533899,18.286521],[-92.52327,18.287054],[-92.51406,18.274133],[-92.49808,18.264976],[-92.480755,18.259051],[-92.446911,18.265155],[-92.445025,18.259221],[-92.425276,18.254832],[-92.421775,18.249894],[-92.41576,18.251331],[-92.399422,18.271799],[-92.393587,18.274312],[-92.376351,18.263001],[-92.37267,18.256807],[-92.340622,18.247471],[-92.317282,18.246393],[-92.312075,18.226823],[-92.296006,18.212639],[-92.272845,18.210395],[-92.262342,18.196391],[-92.2592,18.183733],[-92.245914,18.168382],[-92.214224,18.147915],[-92.210737,18.141273],[-92.216469,18.129152],[-92.189897,18.099887],[-92.182984,18.096386],[-92.164042,18.096117],[-92.150936,18.090461],[-92.148422,18.06335],[-92.158656,18.027442],[-92.180111,18.013438],[-92.192769,17.998895],[-92.195373,17.988661],[-92.183433,17.966128],[-92.171314,17.957869],[-92.164402,17.947276],[-92.162516,17.914869],[-92.158477,17.907867],[-92.09851,17.822674],[-92.101293,17.805708],[-92.104704,17.802117],[-92.101921,17.792152],[-92.11817,17.774737],[-92.112873,17.758219],[-92.130827,17.733083],[-92.121222,17.715577],[-92.127685,17.708934],[-92.119785,17.692865],[-92.124813,17.679849],[-92.120952,17.654982],[-92.124744,17.647141],[-92.111281,17.635991],[-92.108405,17.623019],[-92.095006,17.613548],[-92.070221,17.615946],[-92.066502,17.606121],[-92.053486,17.600696],[-92.051369,17.596175],[-92.04216,17.596151],[-92.035813,17.590114],[-92.035212,17.582684],[-92.024647,17.565694],[-92.00742,17.561316],[-91.997664,17.544351],[-91.991504,17.540148],[-91.994246,17.529204],[-91.991692,17.526743],[-91.991052,17.508419],[-91.998277,17.504019],[-91.995989,17.499124],[-92.000318,17.494851],[-92.001726,17.483735],[-91.99743,17.479593],[-91.997452,17.475053],[-92.006085,17.459832],[-92.012544,17.457323],[-92.032314,17.467652],[-92.049199,17.468091],[-92.073234,17.477887],[-92.086022,17.478062],[-92.10078,17.49226],[-92.115201,17.496603],[-92.119955,17.494697],[-92.115452,17.480282],[-92.1187,17.474231],[-92.126359,17.472867],[-92.127549,17.46837],[-92.121736,17.465752],[-92.12096,17.460078],[-92.117691,17.461955],[-92.115377,17.453037],[-92.097159,17.451414],[-92.090669,17.439134],[-92.0792,17.439306],[-92.070692,17.424656],[-92.057924,17.428409],[-92.043604,17.426548],[-92.039016,17.422781],[-92.034832,17.429023],[-92.022902,17.429675],[-92.005424,17.421454],[-91.999706,17.427579],[-91.975718,17.435656],[-91.959183,17.427599],[-91.93833,17.425772],[-91.931181,17.417032],[-91.917771,17.415393],[-91.916866,17.411761],[-91.913057,17.411021],[-91.912657,17.399746],[-91.891282,17.390141],[-91.887816,17.381929],[-91.866258,17.380031],[-91.857386,17.3712],[-91.849721,17.371769],[-91.848293,17.367034],[-91.844914,17.369318],[-91.836935,17.362874],[-91.830733,17.364583],[-91.829876,17.360828],[-91.824285,17.361883],[-91.822304,17.354245],[-91.817337,17.350425],[-91.813938,17.352846],[-91.800918,17.342573],[-91.802116,17.327868],[-91.804824,17.323681],[-91.811008,17.322024],[-91.808825,17.317336],[-91.811888,17.314495],[-91.815623,17.317113],[-91.821233,17.314887],[-91.817515,17.30842],[-91.80923,17.306023],[-91.821037,17.279976],[-91.813999,17.27021],[-91.80056,17.266467],[-91.799511,17.256554],[-91.802986,17.250997],[-91.789739,17.247957],[-91.786676,17.244129],[-91.776461,17.243353],[-91.773801,17.237434],[-91.762732,17.236155],[-91.726358,17.207828],[-91.728859,17.198487],[-91.735497,17.200894],[-91.744367,17.191215],[-91.748183,17.192026],[-91.751663,17.187558],[-91.765682,17.183841],[-91.76604,17.174476],[-91.78759,17.172995],[-91.786497,17.166689],[-91.790596,17.16572],[-91.794384,17.157926],[-91.803524,17.157728],[-91.802648,17.152223],[-91.811232,17.150184],[-91.813211,17.156818],[-91.817244,17.154782],[-91.816235,17.151015],[-91.82829,17.132199],[-91.816217,17.113732],[-91.821437,17.106713],[-91.832324,17.10301],[-91.838546,17.104577],[-91.856582,17.097129],[-91.869407,17.099889],[-91.872834,17.096534],[-91.873381,17.091716],[-91.863991,17.088655],[-91.861218,17.080285],[-91.852167,17.073405],[-91.852795,17.070266],[-91.864618,17.072803],[-91.871424,17.066822],[-91.870216,17.063602],[-91.827671,17.047255],[-91.825695,17.041389],[-91.821866,17.041703],[-91.821243,17.030787],[-91.813377,17.027014],[-91.815945,17.022551],[-91.81102,17.020814],[-91.812067,17.016698],[-91.82394,17.016698],[-91.82879,17.012563],[-91.836428,17.01618],[-91.83718,17.013639],[-91.843452,17.014345],[-91.859705,17.007954],[-91.861365,17.012325],[-91.894641,17.0201],[-91.90981,17.005591],[-91.924277,17.013657],[-91.933153,17.010374],[-91.946502,17.011992],[-91.955591,17.020629],[-91.969178,17.024389],[-91.98405,17.025436],[-91.98631,17.022937],[-91.991378,17.026411],[-91.994876,17.02308],[-91.997306,17.025476],[-92.004481,17.02302],[-92.005376,17.016326],[-92.011849,17.015612],[-92.017458,17.010844],[-92.023993,16.99301],[-92.033729,16.989521],[-92.037484,16.991678],[-92.048992,16.982293],[-92.058058,16.983316],[-92.06245,16.97771],[-92.062793,16.963328],[-92.079806,16.965684],[-92.093059,16.974512],[-92.105512,16.971666],[-92.109002,16.976725],[-92.122208,16.978866],[-92.124659,16.983316],[-92.145574,16.985909],[-92.15877,16.990792],[-92.169868,17.000234],[-92.180713,16.998747],[-92.197088,17.007219],[-92.209136,17.004965],[-92.214175,17.00709],[-92.232764,17.001032],[-92.247717,17.004191],[-92.252347,16.99849],[-92.241592,16.988235],[-92.254419,16.98205],[-92.251992,16.972389],[-92.256797,16.963369],[-92.254061,16.95654],[-92.260699,16.947141],[-92.252349,16.945097],[-92.248493,16.936719],[-92.239595,16.937601],[-92.238475,16.931175],[-92.240878,16.928986],[-92.235096,16.92456],[-92.23838,16.92023],[-92.236811,16.914806],[-92.223413,16.907309],[-92.224712,16.898109],[-92.211444,16.884324],[-92.215133,16.880207],[-92.215014,16.867263],[-92.218987,16.855389],[-92.236809,16.837995],[-92.247774,16.835186],[-92.252183,16.83695],[-92.254251,16.833712],[-92.261582,16.834244],[-92.270978,16.82964],[-92.273786,16.810846],[-92.301472,16.792922],[-92.307829,16.80219],[-92.309264,16.812524],[-92.305327,16.815067],[-92.309034,16.816441],[-92.308354,16.819715],[-92.321822,16.815908],[-92.351222,16.821214],[-92.399777,16.819097],[-92.395113,16.806589],[-92.382954,16.80942],[-92.383597,16.801616],[-92.376563,16.786626],[-92.358988,16.786149],[-92.364894,16.782519],[-92.365324,16.774305],[-92.376762,16.768937],[-92.377975,16.773054],[-92.386113,16.775957],[-92.391229,16.774434],[-92.405422,16.785307],[-92.433321,16.770674],[-92.449114,16.778599],[-92.463317,16.776734],[-92.468647,16.782087],[-92.486192,16.773094],[-92.519707,16.785858],[-92.527654,16.784026],[-92.535435,16.787095],[-92.54895,16.781796],[-92.558183,16.788166],[-92.572174,16.81127],[-92.578257,16.812793],[-92.580616,16.816845],[-92.584398,16.812016],[-92.583327,16.808257],[-92.592704,16.802131],[-92.599018,16.792867],[-92.615875,16.793224],[-92.623523,16.787906],[-92.646242,16.80713],[-92.65562,16.810137],[-92.661398,16.804465],[-92.66967,16.809518],[-92.673265,16.806491],[-92.67879,16.813041],[-92.677366,16.816812],[-92.682771,16.818369],[-92.688735,16.814547],[-92.69016,16.819042],[-92.693305,16.819155],[-92.704175,16.813589],[-92.707204,16.808192],[-92.710612,16.808923],[-92.709301,16.823521],[-92.723131,16.830547],[-92.722536,16.834375],[-92.729687,16.837842],[-92.730056,16.848585],[-92.737308,16.849142],[-92.769039,16.840539],[-92.770338,16.857848],[-92.775694,16.86049],[-92.776156,16.877321],[-92.772713,16.884916],[-92.77794,16.886305],[-92.783253,16.895429],[-92.776599,16.904542],[-92.782705,16.909765],[-92.78817,16.90779],[-92.798132,16.911055],[-92.793702,16.934481],[-92.797588,16.950732],[-92.801019,16.953185],[-92.799353,16.960428],[-92.806626,16.963207],[-92.806919,16.973711],[-92.824068,16.982028],[-92.820868,17.004994],[-92.832015,17.007807],[-92.842419,17.025174],[-92.824883,17.05043],[-92.822875,17.060586],[-92.817369,17.067391],[-92.823464,17.074649],[-92.827008,17.089666],[-92.830713,17.091762],[-92.830304,17.101001],[-92.838862,17.110464],[-92.835722,17.11831],[-92.838629,17.12457],[-92.851733,17.131484],[-92.862145,17.142783],[-92.86392,17.155516],[-92.859634,17.159468],[-92.86355,17.165424],[-92.872741,17.169171],[-92.879563,17.177673],[-92.885699,17.176328],[-92.885846,17.179709],[-92.893343,17.183471],[-92.903412,17.19695],[-92.906657,17.212509],[-92.904165,17.21701],[-92.908434,17.220648],[-92.914905,17.242551],[-92.946341,17.230624],[-92.946169,17.222274],[-92.950909,17.221199],[-92.950314,17.215902],[-92.974211,17.198263],[-92.973405,17.189702],[-92.987397,17.189606],[-93.000276,17.183138],[-93.011466,17.186958],[-93.024537,17.200144],[-93.0421,17.203925],[-93.046917,17.208474],[-93.074787,17.205288],[-93.088694,17.21301],[-93.103006,17.209175],[-93.117134,17.189962],[-93.125369,17.183764],[-93.139628,17.186979],[-93.157743,17.180531],[-93.184995,17.193088],[-93.194457,17.192223],[-93.197884,17.195966],[-93.206636,17.194044],[-93.21424,17.208213],[-93.224442,17.208545],[-93.231311,17.21685],[-93.243371,17.22208],[-93.249718,17.216279],[-93.268856,17.209038],[-93.272298,17.211422],[-93.287785,17.207853],[-93.302205,17.197628],[-93.334851,17.198164],[-93.338746,17.191839],[-93.343528,17.194193],[-93.344497,17.189678],[-93.350776,17.193389],[-93.363465,17.194357],[-93.365521,17.197918],[-93.375701,17.194342],[-93.394135,17.196842],[-93.397761,17.202959],[-93.408245,17.205958],[-93.416217,17.220036],[-93.424596,17.225221],[-93.436436,17.222584],[-93.43806,17.219171],[-93.445278,17.222315],[-93.461927,17.217781],[-93.465929,17.211195],[-93.479695,17.211802],[-93.48418,17.201579],[-93.496779,17.189937],[-93.515424,17.181531],[-93.528499,17.189343],[-93.543313,17.1857],[-93.547153,17.190551],[-93.553045,17.186148],[-93.569015,17.186859],[-93.573671,17.183765],[-93.580066,17.196177],[-93.578206,17.199519],[-93.586261,17.206578],[-93.602352,17.209602],[-93.611486,17.21507],[-93.621856,17.227951],[-93.632596,17.229287],[-93.638116,17.23379],[-93.647661,17.250671],[-93.646093,17.255719],[-93.651297,17.268511],[-93.650115,17.279387],[-93.660993,17.302001],[-93.649176,17.301366],[-93.631386,17.315987],[-93.629138,17.328381],[-93.620927,17.330304],[-93.618466,17.337235],[-93.624568,17.345899],[-93.622882,17.354405],[-93.628748,17.358732],[-93.6262,17.364372],[-93.628666,17.370312],[-93.611344,17.367677],[-93.609604,17.379096],[-93.593738,17.381463],[-93.576226,17.400368],[-93.568937,17.4006],[-93.562789,17.407232],[-93.567498,17.423911],[-93.565456,17.43512],[-93.560428,17.440226],[-93.562352,17.444988],[-93.543576,17.460745],[-93.52916,17.462719],[-93.520689,17.467843],[-93.518456,17.476066],[-93.523616,17.487431],[-93.538355,17.496924],[-93.534673,17.508245],[-93.5317,17.509827],[-93.528663,17.506917],[-93.524652,17.514759],[-93.536685,17.532529],[-93.537047,17.544099],[-93.531122,17.557603],[-93.53434,17.56505],[-93.531176,17.5728],[-93.52572,17.576428],[-93.535354,17.58965],[-93.531606,17.593842],[-93.530919,17.608718],[-93.524614,17.612547],[-93.524187,17.619173],[-93.505081,17.620407],[-93.501413,17.625163],[-93.498269,17.641812],[-93.490368,17.644392],[-93.473558,17.66499],[-93.465254,17.670473],[-93.469366,17.683533],[-93.468102,17.690864],[-93.480186,17.696437],[-93.479519,17.717662],[-93.462653,17.737497],[-93.457259,17.756584],[-93.457778,17.769344],[-93.446781,17.77754],[-93.43869,17.789885],[-93.439312,17.804823],[-93.451242,17.823496],[-93.446296,17.857993],[-93.454972,17.878501],[-93.45089,17.902814],[-93.436681,17.90953],[-93.428949,17.947121],[-93.415353,17.969249],[-93.396957,17.986844],[-93.395437,17.998888],[-93.382331,18.016496],[-93.391221,18.065968],[-93.386628,18.086229],[-93.349635,18.114117],[-93.335034,18.118792],[-93.306636,18.152512],[-93.288892,18.162822],[-93.254457,18.227554],[-93.249828,18.248945],[-93.251862,18.257992],[-93.243797,18.274193],[-93.241552,18.290815],[-93.244779,18.308278],[-93.256959,18.327831],[-93.260418,18.358774],[-93.239028,18.373501],[-93.219912,18.440464],[-93.214591,18.441419],[-93.214596,18.445839],[-93.213982,18.447051],[-93.21423,18.440525],[-93.20793,18.438272],[-93.195507,18.440129],[-93.192812,18.443639],[-93.194449,18.433307],[-93.186852,18.431118],[-93.183734,18.437764],[-93.190325,18.43802],[-93.189436,18.44733],[-93.198449,18.453313],[-93.18974,18.448423],[-93.188886,18.446725],[-93.188862,18.44282],[-93.185045,18.441613],[-93.097666,18.443287],[-93.055435,18.432964],[-93.033693,18.431623],[-92.953523,18.434792],[-92.89848,18.442571],[-92.825591,18.469416],[-92.794303,18.487415],[-92.769488,18.506538],[-92.730487,18.548017],[-92.700485,18.598687],[-92.701493,18.60322],[-92.687536,18.619459],[-92.669817,18.610038],[-92.628091,18.613739],[-92.570964,18.62308],[-92.479379,18.648476],[-92.477733,18.638208],[-92.481208,18.631852]]]}},{"type":"Feature","id":"basin-RH30E","properties":{"id":"basin-RH30E","sourceId":"RH30E","name":"R. GRIJALVA - TUXTLA GUTIÉRREZ","nameJa":"R. GRIJALVA - TUXTLA GUTIÉRREZ","sourceName":"R. GRIJALVA - TUXTLA GUTIÉRREZ","basinType":"EXORREICA","sourceArea":"16734.80 km²","sourcePerimeter":"795.04 km","unit":"domestic basin boundary","observedPeriod":null},"geometry":{"type":"Polygon","coordinates":[[[-93.678591,17.253357],[-93.658411,17.246936],[-93.655207,17.242532],[-93.64621,17.249811],[-93.644118,17.242535],[-93.632875,17.229414],[-93.621856,17.227951],[-93.611486,17.21507],[-93.599621,17.208571],[-93.586261,17.206578],[-93.578206,17.199519],[-93.580066,17.196177],[-93.573805,17.18382],[-93.569015,17.186859],[-93.553045,17.186148],[-93.547153,17.190551],[-93.543313,17.1857],[-93.528499,17.189343],[-93.51566,17.18147],[-93.496779,17.189937],[-93.48418,17.201579],[-93.479695,17.211802],[-93.465929,17.211195],[-93.461927,17.217781],[-93.445278,17.222315],[-93.43806,17.219171],[-93.436436,17.222584],[-93.425073,17.225221],[-93.416485,17.220349],[-93.408245,17.205958],[-93.397761,17.202959],[-93.394135,17.196842],[-93.375701,17.194342],[-93.365521,17.197918],[-93.363465,17.194357],[-93.350776,17.193389],[-93.344497,17.189678],[-93.343528,17.194193],[-93.338746,17.191839],[-93.334851,17.198164],[-93.302205,17.197628],[-93.287785,17.207853],[-93.272298,17.211422],[-93.268856,17.209038],[-93.249718,17.216279],[-93.243371,17.22208],[-93.231311,17.21685],[-93.224442,17.208545],[-93.21424,17.208213],[-93.206636,17.194044],[-93.197884,17.195966],[-93.194457,17.192223],[-93.184995,17.193088],[-93.157743,17.180531],[-93.139628,17.186979],[-93.125369,17.183764],[-93.117134,17.189962],[-93.103006,17.209175],[-93.088694,17.21301],[-93.074787,17.205288],[-93.046917,17.208474],[-93.0421,17.203925],[-93.024537,17.200144],[-93.011466,17.186958],[-93.000276,17.183138],[-92.987397,17.189606],[-92.973405,17.189702],[-92.974211,17.198263],[-92.950314,17.215902],[-92.950909,17.221199],[-92.946169,17.222274],[-92.946341,17.230624],[-92.914905,17.242551],[-92.908434,17.220648],[-92.904165,17.21701],[-92.906657,17.212509],[-92.903412,17.19695],[-92.893343,17.183471],[-92.885846,17.179709],[-92.885699,17.176328],[-92.879563,17.177673],[-92.872741,17.169171],[-92.86355,17.165424],[-92.859634,17.159468],[-92.86392,17.155516],[-92.862145,17.142783],[-92.851733,17.131484],[-92.838629,17.12457],[-92.835722,17.11831],[-92.838862,17.110464],[-92.830304,17.101001],[-92.830713,17.091762],[-92.827008,17.089666],[-92.823464,17.074649],[-92.817369,17.067391],[-92.822875,17.060586],[-92.824883,17.05043],[-92.842419,17.025174],[-92.832015,17.007807],[-92.820868,17.004994],[-92.824068,16.982028],[-92.806919,16.973711],[-92.806626,16.963207],[-92.799353,16.960428],[-92.801019,16.953185],[-92.797588,16.950732],[-92.793702,16.934481],[-92.798132,16.911055],[-92.78817,16.90779],[-92.782705,16.909765],[-92.776599,16.904542],[-92.783253,16.895429],[-92.77794,16.886305],[-92.772713,16.884916],[-92.776156,16.877321],[-92.775694,16.86049],[-92.770149,16.857283],[-92.769351,16.840847],[-92.730056,16.848585],[-92.729687,16.837842],[-92.722536,16.834375],[-92.723131,16.830547],[-92.709301,16.823521],[-92.710612,16.808923],[-92.707204,16.808192],[-92.704175,16.813589],[-92.693305,16.819155],[-92.69016,16.819042],[-92.688735,16.814547],[-92.682771,16.818369],[-92.677366,16.816812],[-92.67879,16.813041],[-92.673265,16.806491],[-92.66967,16.809518],[-92.661398,16.804465],[-92.65562,16.810137],[-92.646242,16.80713],[-92.623523,16.787906],[-92.615875,16.793224],[-92.599018,16.792867],[-92.592704,16.802131],[-92.583327,16.808257],[-92.584398,16.812016],[-92.580616,16.816845],[-92.578257,16.812793],[-92.572174,16.81127],[-92.558183,16.788166],[-92.54895,16.781796],[-92.535435,16.787095],[-92.527654,16.784026],[-92.519707,16.785858],[-92.486192,16.773094],[-92.4849,16.764696],[-92.491185,16.752261],[-92.485441,16.732747],[-92.487193,16.71596],[-92.501416,16.714967],[-92.50631,16.709892],[-92.518041,16.717491],[-92.531865,16.718739],[-92.540036,16.706764],[-92.535481,16.670762],[-92.528728,16.662186],[-92.537878,16.656277],[-92.533437,16.635923],[-92.53697,16.635797],[-92.540765,16.630504],[-92.539695,16.626429],[-92.550759,16.614746],[-92.54374,16.606537],[-92.545857,16.599684],[-92.541313,16.596519],[-92.54205,16.592807],[-92.529225,16.581719],[-92.52747,16.554986],[-92.531359,16.550427],[-92.525434,16.538929],[-92.528749,16.5305],[-92.522627,16.522905],[-92.527142,16.522115],[-92.538157,16.506698],[-92.538676,16.498956],[-92.534918,16.493962],[-92.535574,16.485268],[-92.529668,16.473785],[-92.528126,16.459972],[-92.531477,16.453027],[-92.537831,16.449581],[-92.533438,16.444718],[-92.536554,16.439172],[-92.53566,16.429485],[-92.541507,16.418154],[-92.552276,16.407531],[-92.556129,16.3974],[-92.554071,16.394919],[-92.539082,16.394095],[-92.53685,16.389195],[-92.531029,16.386916],[-92.530544,16.376729],[-92.521328,16.375565],[-92.522683,16.370537],[-92.512305,16.363583],[-92.515216,16.353445],[-92.520746,16.34777],[-92.519671,16.33916],[-92.524004,16.329005],[-92.522444,16.315886],[-92.536263,16.309397],[-92.561086,16.289711],[-92.563793,16.281045],[-92.571794,16.274578],[-92.578218,16.25333],[-92.591289,16.253497],[-92.596343,16.257906],[-92.606447,16.257842],[-92.611998,16.262681],[-92.621888,16.260338],[-92.647384,16.276966],[-92.677428,16.288102],[-92.681002,16.294432],[-92.691523,16.298476],[-92.697035,16.305386],[-92.734029,16.324484],[-92.747446,16.348514],[-92.766339,16.357711],[-92.776039,16.374101],[-92.787319,16.365233],[-92.791487,16.370946],[-92.791679,16.383135],[-92.778649,16.396052],[-92.777237,16.399856],[-92.780978,16.40278],[-92.78685,16.397077],[-92.809532,16.392921],[-92.823058,16.398339],[-92.824017,16.402488],[-92.828776,16.402274],[-92.850269,16.38584],[-92.860726,16.38514],[-92.866576,16.39278],[-92.870733,16.392712],[-92.872821,16.403064],[-92.881589,16.409432],[-92.889948,16.402575],[-92.892376,16.405753],[-92.90702,16.406653],[-92.928033,16.414191],[-92.937924,16.412899],[-92.948313,16.423421],[-92.953431,16.424233],[-92.955965,16.430352],[-92.961689,16.429376],[-92.959099,16.433448],[-92.961532,16.43614],[-92.971666,16.438036],[-92.976227,16.447915],[-92.980259,16.441685],[-92.98622,16.44552],[-93.00347,16.446641],[-93.011183,16.455436],[-93.02036,16.458814],[-93.027522,16.450646],[-93.01555,16.44319],[-93.019853,16.43681],[-93.017492,16.423951],[-92.999494,16.387396],[-92.992134,16.380278],[-92.9952,16.371996],[-93.007034,16.362703],[-93.006563,16.356659],[-93.009924,16.352403],[-93.005041,16.34991],[-93.011756,16.337908],[-93.011034,16.328127],[-93.020879,16.325458],[-93.026851,16.315388],[-93.02821,16.304239],[-93.038675,16.289402],[-93.046484,16.290121],[-93.050181,16.271805],[-93.055353,16.270292],[-93.059755,16.280183],[-93.067571,16.287789],[-93.08852,16.278117],[-93.091994,16.27084],[-93.108176,16.268585],[-93.112967,16.259242],[-93.105525,16.248111],[-93.10801,16.238232],[-93.115337,16.226743],[-93.126515,16.222257],[-93.131921,16.215954],[-93.125322,16.195304],[-93.131092,16.188652],[-93.141214,16.184972],[-93.174131,16.185132],[-93.190883,16.168378],[-93.200895,16.172268],[-93.211978,16.170627],[-93.210515,16.165975],[-93.219537,16.159785],[-93.208918,16.148072],[-93.211012,16.143703],[-93.21909,16.142489],[-93.218126,16.13743],[-93.22204,16.130718],[-93.215901,16.124839],[-93.223134,16.107942],[-93.228626,16.106836],[-93.244303,16.116045],[-93.249233,16.111544],[-93.250744,16.100238],[-93.256554,16.091159],[-93.283047,16.090933],[-93.285757,16.082847],[-93.292336,16.077303],[-93.2891,16.073482],[-93.290123,16.069102],[-93.303473,16.062436],[-93.322743,16.063423],[-93.326436,16.051868],[-93.337192,16.040572],[-93.338644,16.032907],[-93.349132,16.030322],[-93.35508,16.022884],[-93.362831,16.020386],[-93.36877,16.005509],[-93.367021,15.97882],[-93.371245,15.965906],[-93.386362,15.958153],[-93.394483,15.959498],[-93.399598,15.954704],[-93.412443,15.951613],[-93.428177,15.962271],[-93.444036,15.966888],[-93.447034,15.972281],[-93.477587,15.966767],[-93.483686,15.988045],[-93.503622,16.01575],[-93.515421,16.010887],[-93.545146,16.018046],[-93.547149,16.0231],[-93.54435,16.029703],[-93.548389,16.044608],[-93.561908,16.055608],[-93.571838,16.056129],[-93.577317,16.066274],[-93.584893,16.068518],[-93.587248,16.075166],[-93.584587,16.082922],[-93.590562,16.091947],[-93.601103,16.099139],[-93.596137,16.123077],[-93.602368,16.13712],[-93.610943,16.139206],[-93.606917,16.157277],[-93.609279,16.16844],[-93.604302,16.171924],[-93.615546,16.187162],[-93.610887,16.1955],[-93.626298,16.202118],[-93.659924,16.199898],[-93.664428,16.193877],[-93.69795,16.199064],[-93.705007,16.196653],[-93.710922,16.206088],[-93.716776,16.205917],[-93.720924,16.211721],[-93.722396,16.224031],[-93.732109,16.229461],[-93.73278,16.246995],[-93.741489,16.259638],[-93.726129,16.277805],[-93.726052,16.286692],[-93.721296,16.289113],[-93.718898,16.295145],[-93.724534,16.301214],[-93.73183,16.302333],[-93.746516,16.324516],[-93.752101,16.32757],[-93.763254,16.327212],[-93.793293,16.344774],[-93.826323,16.346242],[-93.83705,16.342059],[-93.863645,16.34342],[-93.879871,16.349962],[-93.885057,16.343539],[-93.900672,16.347185],[-93.92589,16.363004],[-93.92983,16.361365],[-93.946062,16.3693],[-93.954052,16.368252],[-93.968583,16.373683],[-93.97473,16.385725],[-93.989116,16.387871],[-93.99324,16.394878],[-94.005853,16.398832],[-94.01869,16.410353],[-94.033536,16.415004],[-94.032745,16.419171],[-94.039768,16.424559],[-94.036545,16.431091],[-94.045711,16.440773],[-94.049473,16.453282],[-94.079079,16.460036],[-94.083972,16.468705],[-94.087623,16.46713],[-94.092068,16.472964],[-94.095051,16.472287],[-94.094733,16.466075],[-94.103688,16.461667],[-94.109623,16.464464],[-94.114485,16.462997],[-94.12389,16.471429],[-94.136063,16.475389],[-94.14728,16.486482],[-94.154041,16.496289],[-94.154648,16.502841],[-94.160082,16.506854],[-94.165833,16.530233],[-94.180792,16.535451],[-94.186699,16.5444],[-94.200277,16.550575],[-94.212931,16.573806],[-94.211905,16.585893],[-94.221953,16.601625],[-94.226228,16.640918],[-94.231968,16.651333],[-94.233307,16.668617],[-94.230423,16.679388],[-94.232911,16.685449],[-94.217629,16.694934],[-94.210886,16.707432],[-94.204159,16.704787],[-94.201127,16.711889],[-94.204876,16.723481],[-94.194257,16.732045],[-94.189693,16.731738],[-94.185612,16.737519],[-94.198555,16.762139],[-94.195001,16.771893],[-94.212498,16.784427],[-94.216759,16.799621],[-94.22385,16.805],[-94.219841,16.810257],[-94.219114,16.818675],[-94.225966,16.840545],[-94.218015,16.854564],[-94.216937,16.868378],[-94.220575,16.873027],[-94.219076,16.878782],[-94.227857,16.884294],[-94.226058,16.893586],[-94.233212,16.902639],[-94.227932,16.90594],[-94.221477,16.904195],[-94.204775,16.90845],[-94.208168,16.917164],[-94.190562,16.918229],[-94.192773,16.932156],[-94.183346,16.940072],[-94.181247,16.938246],[-94.174694,16.947213],[-94.167412,16.947847],[-94.167338,16.955142],[-94.161858,16.95977],[-94.179287,16.979278],[-94.177047,16.986574],[-94.167843,16.991821],[-94.135729,16.989939],[-94.10855,16.977584],[-94.099891,16.977848],[-94.092622,16.982746],[-94.080188,16.978944],[-94.076057,16.98032],[-94.076538,16.985682],[-94.069326,16.98581],[-94.067113,16.98982],[-94.056812,16.992141],[-94.051733,16.986121],[-94.048477,16.988601],[-94.033296,16.982285],[-94.021793,16.990046],[-94.002177,16.98174],[-94.000089,16.977615],[-93.992651,16.97741],[-93.982906,16.987346],[-93.988733,16.996471],[-94.000614,17.004268],[-94.008253,17.016636],[-94.006677,17.023136],[-94.016889,17.031971],[-94.010982,17.038417],[-94.016867,17.055],[-94.015563,17.060797],[-94.022883,17.064378],[-94.021595,17.07193],[-94.025565,17.078719],[-94.040641,17.08981],[-94.045386,17.10043],[-94.044913,17.106865],[-94.050481,17.112666],[-94.049429,17.129557],[-94.038091,17.137925],[-94.037051,17.144934],[-94.026768,17.147851],[-94.016324,17.146238],[-94.011491,17.150518],[-94.005496,17.148371],[-93.99676,17.150478],[-93.990978,17.147252],[-93.9786,17.16294],[-93.962813,17.171512],[-93.952434,17.164784],[-93.936394,17.165405],[-93.934683,17.168149],[-93.94118,17.174971],[-93.934637,17.183977],[-93.935875,17.186453],[-93.928772,17.18535],[-93.923654,17.188717],[-93.922342,17.177844],[-93.915376,17.18041],[-93.90778,17.177784],[-93.905305,17.173525],[-93.899085,17.175819],[-93.884509,17.172882],[-93.87875,17.167552],[-93.875776,17.158725],[-93.844596,17.168097],[-93.839259,17.173038],[-93.827405,17.171961],[-93.827521,17.177296],[-93.823452,17.181199],[-93.825906,17.1907],[-93.816549,17.195918],[-93.810811,17.194066],[-93.796968,17.196641],[-93.79052,17.20635],[-93.784381,17.209312],[-93.786641,17.218747],[-93.784643,17.220008],[-93.768942,17.215397],[-93.759795,17.222997],[-93.752877,17.218663],[-93.746333,17.221852],[-93.736316,17.216974],[-93.725517,17.227528],[-93.723288,17.241684],[-93.716618,17.241905],[-93.712461,17.236327],[-93.714005,17.231964],[-93.703375,17.229698],[-93.693898,17.234019],[-93.678591,17.253357]]]}},{"type":"Feature","id":"basin-RH30F","properties":{"id":"basin-RH30F","sourceId":"RH30F","name":"R. GRIJALVA - LA CONCORDIA","nameJa":"R. GRIJALVA - LA CONCORDIA","sourceName":"R. GRIJALVA - LA CONCORDIA","basinType":"EXORREICA","sourceArea":"13044.12 km²","sourcePerimeter":"728.95 km","unit":"domestic basin boundary","observedPeriod":null},"geometry":{"type":"Polygon","coordinates":[[[-92.524373,16.655197],[-92.515617,16.65377],[-92.510025,16.638422],[-92.503886,16.637518],[-92.498056,16.630451],[-92.489657,16.628809],[-92.48021,16.632973],[-92.475094,16.63107],[-92.481091,16.619957],[-92.475951,16.614687],[-92.467789,16.623075],[-92.470002,16.631093],[-92.467028,16.635805],[-92.451656,16.626242],[-92.44547,16.632331],[-92.432074,16.630736],[-92.431327,16.626496],[-92.425997,16.628471],[-92.414632,16.6122],[-92.417821,16.589096],[-92.411658,16.588691],[-92.406828,16.603896],[-92.402997,16.60066],[-92.402711,16.593093],[-92.395311,16.59552],[-92.395454,16.586835],[-92.371017,16.576723],[-92.362974,16.570298],[-92.355717,16.55714],[-92.348364,16.563136],[-92.349411,16.570917],[-92.343867,16.571535],[-92.345295,16.579911],[-92.340584,16.582695],[-92.329924,16.580316],[-92.3225,16.57056],[-92.313053,16.574058],[-92.30946,16.572582],[-92.308056,16.565325],[-92.299205,16.569204],[-92.29761,16.561922],[-92.294017,16.559448],[-92.278551,16.559448],[-92.276222,16.554928],[-92.261633,16.555855],[-92.269461,16.538342],[-92.267082,16.536462],[-92.26851,16.532917],[-92.258978,16.529512],[-92.261155,16.525518],[-92.255489,16.520198],[-92.255537,16.509776],[-92.244805,16.510918],[-92.246162,16.504256],[-92.242949,16.49983],[-92.22527,16.496546],[-92.225627,16.488765],[-92.219916,16.484696],[-92.210969,16.492977],[-92.203926,16.49312],[-92.205187,16.487861],[-92.200833,16.486291],[-92.200357,16.475631],[-92.192172,16.47506],[-92.188861,16.470359],[-92.185343,16.47268],[-92.180584,16.469468],[-92.171441,16.470921],[-92.17238,16.466071],[-92.167204,16.465784],[-92.166802,16.460454],[-92.156507,16.461815],[-92.155631,16.452307],[-92.162191,16.448282],[-92.16056,16.443911],[-92.166794,16.438008],[-92.161435,16.433738],[-92.155764,16.433427],[-92.148248,16.438675],[-92.142177,16.435005],[-92.145724,16.427804],[-92.152197,16.427399],[-92.149596,16.421547],[-92.153095,16.417041],[-92.149031,16.41522],[-92.146789,16.402717],[-92.150644,16.399219],[-92.145861,16.396078],[-92.142737,16.382486],[-92.146313,16.376685],[-92.14905,16.378137],[-92.148431,16.374258],[-92.162827,16.355484],[-92.159615,16.342802],[-92.154856,16.337781],[-92.160471,16.332832],[-92.160495,16.329049],[-92.165563,16.329834],[-92.170679,16.31984],[-92.171131,16.303945],[-92.157663,16.300376],[-92.154047,16.293975],[-92.164088,16.281935],[-92.169133,16.28046],[-92.169394,16.276772],[-92.160733,16.265779],[-92.143672,16.254],[-92.141102,16.240342],[-92.130062,16.228064],[-92.121853,16.225185],[-92.119497,16.218927],[-92.112002,16.217523],[-92.094251,16.223424],[-92.085518,16.20772],[-92.076881,16.205793],[-92.06791,16.197274],[-92.055846,16.173432],[-92.036359,16.157275],[-92.033765,16.143213],[-92.009494,16.131791],[-91.998692,16.131482],[-91.993814,16.12451],[-91.980441,16.122726],[-91.981274,16.107354],[-91.974183,16.100192],[-91.966521,16.102357],[-91.957439,16.097891],[-91.944289,16.097979],[-91.927982,16.101529],[-91.887736,16.093128],[-91.88983,16.104645],[-91.902156,16.112592],[-91.896849,16.118969],[-91.896944,16.134388],[-91.890353,16.136577],[-91.880693,16.13415],[-91.867534,16.12882],[-91.859635,16.12123],[-91.804717,16.103336],[-91.766003,16.076639],[-91.753558,16.078566],[-91.742113,16.074307],[-91.74228,16.069738],[-91.736884,16.064895],[-92.210564,15.260369],[-92.225877,15.268765],[-92.236849,15.282176],[-92.236818,15.305408],[-92.248199,15.308611],[-92.25413,15.317885],[-92.266072,15.318861],[-92.273974,15.331405],[-92.29069,15.348139],[-92.301011,15.352422],[-92.302348,15.361386],[-92.330492,15.368707],[-92.334224,15.372351],[-92.335828,15.38555],[-92.326381,15.409471],[-92.34191,15.426229],[-92.360277,15.432635],[-92.385465,15.427339],[-92.404459,15.436209],[-92.427625,15.431681],[-92.434122,15.440039],[-92.462953,15.445827],[-92.48258,15.466021],[-92.500034,15.473733],[-92.51169,15.482866],[-92.536347,15.486513],[-92.54127,15.488927],[-92.543259,15.494728],[-92.549059,15.496168],[-92.566105,15.496456],[-92.570836,15.494453],[-92.573675,15.48676],[-92.589788,15.486267],[-92.598167,15.497566],[-92.614499,15.503587],[-92.624675,15.500624],[-92.633726,15.503326],[-92.650552,15.515339],[-92.654104,15.511444],[-92.678964,15.515165],[-92.684348,15.506977],[-92.691406,15.520667],[-92.695724,15.522795],[-92.7034,15.521956],[-92.709008,15.513862],[-92.71723,15.51528],[-92.728165,15.524145],[-92.722281,15.52834],[-92.719569,15.536256],[-92.705701,15.536678],[-92.711775,15.541946],[-92.704838,15.549239],[-92.703175,15.560389],[-92.698451,15.563376],[-92.695653,15.574503],[-92.700554,15.580985],[-92.698268,15.591215],[-92.700877,15.600999],[-92.705836,15.596794],[-92.734575,15.593309],[-92.743702,15.596117],[-92.749834,15.594003],[-92.759958,15.599552],[-92.765708,15.599009],[-92.769495,15.604958],[-92.775789,15.607725],[-92.776988,15.619448],[-92.782279,15.62286],[-92.782513,15.629072],[-92.787732,15.630456],[-92.788648,15.639281],[-92.799224,15.641107],[-92.812411,15.648427],[-92.825667,15.662475],[-92.839254,15.656767],[-92.86483,15.667746],[-92.873697,15.663877],[-92.88171,15.668306],[-92.898172,15.669597],[-92.908913,15.675449],[-92.930832,15.672902],[-92.938022,15.67947],[-92.94874,15.678982],[-92.954085,15.683422],[-92.968387,15.685187],[-92.971475,15.690272],[-92.987779,15.693641],[-92.997499,15.701617],[-92.995633,15.708147],[-93.007722,15.718575],[-93.012596,15.727933],[-93.034647,15.741087],[-93.034741,15.745931],[-93.050864,15.754214],[-93.060138,15.752696],[-93.068082,15.755522],[-93.078112,15.749993],[-93.082471,15.751237],[-93.08742,15.763889],[-93.087214,15.776196],[-93.093485,15.783687],[-93.092662,15.788814],[-93.098444,15.793931],[-93.087039,15.814065],[-93.09441,15.824774],[-93.104011,15.830291],[-93.107257,15.841949],[-93.117711,15.843198],[-93.119361,15.848343],[-93.127611,15.852611],[-93.132065,15.860586],[-93.130388,15.866287],[-93.13762,15.878543],[-93.146025,15.874305],[-93.15414,15.876976],[-93.162556,15.873949],[-93.172993,15.86097],[-93.186861,15.859466],[-93.195837,15.861841],[-93.20224,15.854873],[-93.212631,15.852842],[-93.219802,15.855017],[-93.227497,15.851826],[-93.23314,15.854477],[-93.245537,15.853751],[-93.256677,15.86986],[-93.269647,15.870832],[-93.277118,15.885985],[-93.285783,15.887565],[-93.2951,15.895313],[-93.30358,15.894534],[-93.308999,15.886687],[-93.3328,15.874158],[-93.341843,15.878256],[-93.336305,15.89514],[-93.347118,15.91164],[-93.354025,15.914447],[-93.374005,15.910398],[-93.384428,15.912686],[-93.406213,15.942555],[-93.405777,15.95276],[-93.394483,15.959498],[-93.386362,15.958153],[-93.370888,15.966418],[-93.367021,15.97882],[-93.36877,16.005509],[-93.362831,16.020386],[-93.35508,16.022884],[-93.349132,16.030322],[-93.338644,16.032907],[-93.337192,16.040572],[-93.326436,16.051868],[-93.322743,16.063423],[-93.303473,16.062436],[-93.290123,16.069102],[-93.2891,16.073482],[-93.292336,16.077303],[-93.285757,16.082847],[-93.283047,16.090933],[-93.256554,16.091159],[-93.250744,16.100238],[-93.249233,16.111544],[-93.244303,16.116045],[-93.228626,16.106836],[-93.223134,16.107942],[-93.215901,16.124839],[-93.22204,16.130718],[-93.218126,16.13743],[-93.21909,16.142489],[-93.211012,16.143703],[-93.208918,16.148072],[-93.219537,16.159785],[-93.210515,16.165975],[-93.211978,16.170627],[-93.200895,16.172268],[-93.190883,16.168378],[-93.174131,16.185132],[-93.141214,16.184972],[-93.131092,16.188652],[-93.125322,16.195304],[-93.131921,16.215954],[-93.126515,16.222257],[-93.115337,16.226743],[-93.10801,16.238232],[-93.105525,16.248111],[-93.112967,16.259242],[-93.108176,16.268585],[-93.091994,16.27084],[-93.08852,16.278117],[-93.067571,16.287789],[-93.059755,16.280183],[-93.055353,16.270292],[-93.050181,16.271805],[-93.046484,16.290121],[-93.038675,16.289402],[-93.02821,16.304239],[-93.026851,16.315388],[-93.020879,16.325458],[-93.011034,16.328127],[-93.011756,16.337908],[-93.005041,16.34991],[-93.009924,16.352403],[-93.006563,16.356659],[-93.007034,16.362703],[-92.9952,16.371996],[-92.992134,16.380278],[-92.999494,16.387396],[-93.017492,16.423951],[-93.019853,16.43681],[-93.01555,16.44319],[-93.027522,16.450646],[-93.02036,16.458814],[-93.011183,16.455436],[-93.00347,16.446641],[-92.98622,16.44552],[-92.980259,16.441685],[-92.976227,16.447915],[-92.971666,16.438036],[-92.961532,16.43614],[-92.959099,16.433448],[-92.961689,16.429376],[-92.955965,16.430352],[-92.953431,16.424233],[-92.948313,16.423421],[-92.937924,16.412899],[-92.928033,16.414191],[-92.90702,16.406653],[-92.892376,16.405753],[-92.889948,16.402575],[-92.881589,16.409432],[-92.872821,16.403064],[-92.870733,16.392712],[-92.866576,16.39278],[-92.860726,16.38514],[-92.850269,16.38584],[-92.828776,16.402274],[-92.824017,16.402488],[-92.823058,16.398339],[-92.809532,16.392921],[-92.78685,16.397077],[-92.781239,16.402903],[-92.777077,16.399264],[-92.791451,16.38432],[-92.790565,16.368685],[-92.786826,16.364971],[-92.776039,16.374101],[-92.766339,16.357711],[-92.747446,16.348514],[-92.734029,16.324484],[-92.697035,16.305386],[-92.691523,16.298476],[-92.681002,16.294432],[-92.677428,16.288102],[-92.647384,16.276966],[-92.624825,16.261565],[-92.617538,16.260004],[-92.611998,16.262681],[-92.606447,16.257842],[-92.596343,16.257906],[-92.591289,16.253497],[-92.577599,16.253829],[-92.571794,16.274578],[-92.563793,16.281045],[-92.561657,16.289069],[-92.536263,16.309397],[-92.522444,16.315886],[-92.524004,16.329005],[-92.519671,16.33916],[-92.520503,16.348885],[-92.512111,16.361497],[-92.522683,16.370537],[-92.521328,16.375565],[-92.530544,16.376729],[-92.531029,16.386916],[-92.53685,16.389195],[-92.539082,16.394095],[-92.554071,16.394919],[-92.556129,16.3974],[-92.552276,16.407531],[-92.541507,16.418154],[-92.53566,16.429485],[-92.536554,16.439172],[-92.533438,16.444718],[-92.537831,16.449581],[-92.531477,16.453027],[-92.528126,16.459972],[-92.529668,16.473785],[-92.535574,16.485268],[-92.534918,16.493962],[-92.538676,16.498956],[-92.538157,16.506698],[-92.527142,16.522115],[-92.522627,16.522905],[-92.528749,16.5305],[-92.525434,16.538929],[-92.531359,16.550427],[-92.52747,16.554986],[-92.529225,16.581719],[-92.54205,16.592807],[-92.541313,16.596519],[-92.545857,16.599684],[-92.54374,16.606537],[-92.550759,16.614746],[-92.539695,16.626429],[-92.540765,16.630504],[-92.53697,16.635797],[-92.533437,16.635923],[-92.53771,16.657169],[-92.528728,16.662186],[-92.524373,16.655197]]]}},{"type":"Feature","id":"basin-RH30G","properties":{"id":"basin-RH30G","sourceId":"RH30G","name":"R. LACANTÚN","nameJa":"R. LACANTÚN","sourceName":"R. LACANTÚN","basinType":"EXORREICA","sourceArea":"15804.35 km²","sourcePerimeter":"765.75 km","unit":"domestic basin boundary","observedPeriod":null},"geometry":{"type":"Polygon","coordinates":[[[-91.735497,17.200894],[-91.698848,17.184106],[-91.689651,17.174713],[-91.667968,17.16524],[-91.667326,17.16242],[-91.656047,17.161814],[-91.648623,17.155578],[-91.637844,17.153223],[-91.636749,17.14954],[-91.628248,17.154501],[-91.632295,17.148629],[-91.625316,17.142426],[-91.626209,17.137058],[-91.623607,17.137109],[-91.622354,17.129777],[-91.613509,17.133835],[-91.612182,17.129259],[-91.587644,17.120307],[-91.553486,17.094513],[-91.551341,17.091908],[-91.553594,17.086941],[-91.534427,17.076113],[-91.53241,17.071223],[-91.524756,17.067996],[-91.507667,17.051035],[-91.502134,17.048884],[-91.495623,17.054074],[-91.464007,17.036216],[-91.459652,17.027757],[-91.462472,17.022992],[-91.456271,17.01795],[-91.458062,17.010287],[-91.442142,16.997514],[-91.424273,16.989457],[-91.42109,16.985878],[-91.424344,16.98284],[-91.422559,16.978914],[-91.409067,16.967633],[-91.40814,16.96201],[-91.417039,16.951274],[-91.413232,16.940036],[-91.416039,16.931387],[-91.40858,16.931779],[-91.402108,16.926093],[-91.396182,16.935588],[-91.39381,16.931775],[-91.381686,16.938561],[-91.372319,16.935426],[-91.353442,16.952506],[-91.342961,16.956386],[-91.351534,16.966715],[-91.348786,16.978401],[-91.344409,16.983064],[-91.35775,16.995562],[-91.341832,17.002825],[-91.338191,17.000451],[-91.338709,16.997186],[-91.331462,16.997527],[-91.331814,16.99393],[-91.32354,16.984123],[-91.317689,16.98188],[-91.296396,16.961904],[-91.296487,16.958758],[-91.287002,16.955124],[-91.283286,16.949253],[-91.272421,16.951453],[-91.269651,16.956139],[-91.262604,16.955503],[-91.257758,16.947911],[-91.268303,16.939443],[-91.267322,16.93575],[-91.253889,16.927852],[-91.248809,16.917663],[-91.240936,16.914032],[-91.233858,16.905754],[-91.226138,16.905465],[-91.224186,16.89869],[-91.208756,16.899929],[-91.189315,16.910922],[-91.180165,16.902171],[-91.169281,16.905981],[-91.166623,16.900864],[-91.148033,16.892309],[-91.140942,16.878099],[-91.128691,16.867037],[-91.132188,16.861849],[-91.130309,16.855696],[-91.115244,16.841917],[-91.10305,16.824308],[-91.091021,16.819193],[-91.096537,16.809888],[-91.095913,16.803539],[-91.079311,16.793901],[-91.079946,16.787743],[-91.074425,16.784384],[-91.076508,16.782617],[-91.070541,16.760712],[-91.064584,16.758404],[-91.064499,16.753854],[-91.050204,16.740527],[-91.051808,16.737238],[-91.042865,16.72475],[-91.044229,16.720836],[-91.041582,16.717788],[-91.037551,16.718636],[-91.031682,16.711721],[-91.029005,16.701648],[-91.015374,16.697026],[-91.007112,16.687681],[-91.001337,16.686426],[-90.998061,16.680332],[-91.002577,16.677178],[-90.996284,16.672242],[-90.995451,16.665797],[-90.96939,16.658459],[-90.937256,16.666697],[-90.925631,16.659105],[-90.923012,16.653941],[-90.918436,16.654571],[-90.915458,16.649505],[-90.883278,16.651208],[-90.853896,16.656971],[-90.845927,16.66175],[-90.834376,16.680044],[-90.824423,16.686395],[-90.816387,16.689067],[-90.801039,16.686523],[-90.77313,16.676384],[-90.761699,16.655155],[-90.749906,16.644477],[-90.740614,16.642078],[-90.74058,16.63059],[-90.744304,16.62506],[-90.733314,16.61177],[-90.728918,16.611556],[-90.718199,16.623035],[-90.714605,16.623146],[-90.709611,16.619948],[-90.695779,16.619858],[-90.693893,16.613815],[-90.676195,16.610045],[-90.664248,16.600653],[-90.653799,16.598123],[-90.655081,16.591633],[-90.66726,16.588268],[-90.665457,16.581255],[-90.676929,16.567928],[-90.678016,16.559326],[-90.665481,16.541999],[-90.665709,16.531229],[-90.660113,16.510134],[-90.661826,16.50022],[-90.654916,16.489027],[-90.652403,16.475767],[-90.649719,16.427077],[-90.645836,16.421749],[-90.644751,16.401042],[-90.63807,16.386337],[-90.640582,16.37266],[-90.637784,16.36238],[-90.641075,16.350152],[-90.646598,16.33405],[-90.663539,16.303846],[-90.63577,16.261104],[-90.635012,16.255097],[-90.640036,16.253118],[-90.638156,16.246402],[-90.626973,16.227615],[-90.619065,16.222205],[-90.627139,16.210569],[-90.627671,16.201938],[-90.63668,16.18971],[-90.673954,16.16903],[-90.682133,16.160011],[-90.688407,16.159516],[-90.685812,16.150484],[-90.690872,16.14175],[-90.705065,16.139335],[-90.733548,16.147934],[-90.755534,16.143377],[-90.757627,16.124154],[-90.753345,16.112437],[-90.747461,16.106569],[-90.747345,16.101208],[-90.752048,16.093487],[-90.764532,16.09109],[-90.769715,16.082513],[-90.779144,16.082086],[-90.779832,16.073867],[-91.73155,16.0739],[-91.736884,16.064895],[-91.74228,16.069738],[-91.742113,16.074307],[-91.753558,16.078566],[-91.766003,16.076639],[-91.815662,16.108809],[-91.841622,16.114448],[-91.849712,16.119707],[-91.859635,16.12123],[-91.868581,16.129391],[-91.890353,16.136577],[-91.898229,16.132485],[-91.896849,16.118969],[-91.902156,16.112069],[-91.88983,16.104645],[-91.887284,16.093128],[-91.927982,16.101529],[-91.944289,16.097979],[-91.957439,16.097891],[-91.966521,16.102357],[-91.974612,16.100359],[-91.981274,16.107354],[-91.980441,16.122726],[-91.993814,16.12451],[-91.998692,16.131482],[-92.009494,16.131791],[-92.033765,16.143213],[-92.036359,16.157275],[-92.055846,16.173432],[-92.06791,16.197274],[-92.076881,16.205793],[-92.085518,16.20772],[-92.094251,16.223424],[-92.117308,16.217714],[-92.121853,16.225185],[-92.134963,16.232157],[-92.141364,16.240985],[-92.143672,16.254],[-92.160733,16.265779],[-92.169394,16.276772],[-92.169133,16.28046],[-92.164088,16.281935],[-92.154047,16.293975],[-92.157663,16.300376],[-92.171131,16.303945],[-92.170679,16.31984],[-92.165563,16.329834],[-92.160495,16.329049],[-92.160471,16.332832],[-92.154856,16.337781],[-92.159615,16.342802],[-92.162827,16.355484],[-92.148431,16.374258],[-92.14905,16.378137],[-92.146313,16.376685],[-92.142737,16.382486],[-92.145861,16.396078],[-92.150644,16.399219],[-92.146789,16.402717],[-92.149031,16.41522],[-92.153095,16.417041],[-92.149596,16.421547],[-92.152197,16.427399],[-92.145724,16.427804],[-92.142177,16.435005],[-92.148248,16.438675],[-92.155764,16.433427],[-92.161435,16.433738],[-92.166794,16.438008],[-92.16056,16.443911],[-92.162191,16.448282],[-92.155631,16.452307],[-92.156507,16.461815],[-92.166802,16.460454],[-92.167204,16.465784],[-92.17238,16.466071],[-92.171441,16.470921],[-92.180584,16.469468],[-92.185343,16.47268],[-92.188861,16.470359],[-92.192172,16.47506],[-92.200357,16.475631],[-92.200833,16.486291],[-92.205187,16.487861],[-92.203926,16.49312],[-92.210969,16.492977],[-92.219916,16.484696],[-92.225627,16.488765],[-92.22527,16.496546],[-92.242949,16.49983],[-92.246162,16.504256],[-92.244805,16.510918],[-92.255537,16.509776],[-92.255489,16.520198],[-92.261155,16.525518],[-92.258978,16.529512],[-92.26851,16.532917],[-92.267082,16.536462],[-92.269461,16.538342],[-92.261633,16.555855],[-92.276222,16.554928],[-92.278551,16.559448],[-92.294017,16.559448],[-92.29761,16.561922],[-92.299205,16.569204],[-92.308056,16.565325],[-92.30946,16.572582],[-92.313053,16.574058],[-92.3225,16.57056],[-92.329924,16.580316],[-92.340584,16.582695],[-92.345295,16.579911],[-92.343867,16.571535],[-92.349411,16.570917],[-92.348364,16.563136],[-92.355717,16.55714],[-92.362974,16.570298],[-92.371017,16.576723],[-92.395454,16.586835],[-92.395311,16.59552],[-92.402711,16.593093],[-92.402997,16.60066],[-92.406828,16.603896],[-92.411658,16.588691],[-92.417821,16.589096],[-92.414632,16.6122],[-92.425736,16.628304],[-92.431598,16.626591],[-92.432074,16.630736],[-92.446995,16.63213],[-92.451656,16.626242],[-92.467409,16.635686],[-92.470002,16.631093],[-92.467789,16.623075],[-92.476284,16.614794],[-92.481091,16.619957],[-92.475094,16.63107],[-92.48052,16.632949],[-92.493987,16.628714],[-92.500293,16.631617],[-92.503886,16.637518],[-92.510025,16.638422],[-92.515617,16.65377],[-92.524659,16.655269],[-92.532732,16.664921],[-92.534882,16.680526],[-92.539042,16.686861],[-92.537281,16.693945],[-92.541197,16.702584],[-92.540036,16.706764],[-92.531865,16.718739],[-92.518041,16.717491],[-92.50631,16.709892],[-92.501416,16.714967],[-92.487193,16.71596],[-92.485441,16.732747],[-92.491067,16.755413],[-92.4849,16.764696],[-92.486192,16.773094],[-92.474343,16.780121],[-92.468647,16.782087],[-92.459924,16.77629],[-92.45066,16.778807],[-92.447002,16.775952],[-92.44254,16.777231],[-92.433321,16.770674],[-92.405422,16.785307],[-92.391229,16.774434],[-92.386113,16.775957],[-92.377975,16.773054],[-92.376762,16.768937],[-92.365324,16.774305],[-92.364894,16.782519],[-92.358988,16.786149],[-92.376563,16.786626],[-92.383597,16.801616],[-92.382954,16.80942],[-92.395113,16.806589],[-92.399777,16.819097],[-92.351222,16.821214],[-92.321822,16.815908],[-92.308354,16.819715],[-92.309034,16.816441],[-92.305327,16.815067],[-92.309264,16.812524],[-92.307829,16.80219],[-92.301472,16.792922],[-92.273786,16.810846],[-92.270978,16.82964],[-92.261582,16.834244],[-92.254251,16.833712],[-92.252183,16.83695],[-92.247774,16.835186],[-92.236809,16.837995],[-92.224015,16.849004],[-92.218987,16.855389],[-92.215014,16.867263],[-92.215133,16.880207],[-92.211444,16.884324],[-92.224712,16.898109],[-92.223413,16.907309],[-92.236811,16.914806],[-92.23838,16.92023],[-92.235096,16.92456],[-92.240878,16.928986],[-92.238475,16.931175],[-92.239595,16.937601],[-92.248493,16.936719],[-92.252349,16.945097],[-92.260699,16.947141],[-92.254061,16.95654],[-92.256797,16.963369],[-92.251992,16.972389],[-92.254419,16.98205],[-92.241592,16.988235],[-92.252347,16.99849],[-92.247717,17.004191],[-92.232764,17.001032],[-92.214175,17.00709],[-92.209136,17.004965],[-92.197088,17.007219],[-92.180713,16.998747],[-92.169868,17.000234],[-92.15877,16.990792],[-92.145574,16.985909],[-92.124659,16.983316],[-92.122208,16.978866],[-92.109002,16.976725],[-92.105512,16.971666],[-92.093059,16.974512],[-92.079806,16.965684],[-92.062793,16.963328],[-92.06245,16.97771],[-92.058058,16.983316],[-92.048992,16.982293],[-92.037484,16.991678],[-92.033729,16.989521],[-92.023993,16.99301],[-92.017458,17.010844],[-92.011849,17.015612],[-92.005376,17.016326],[-92.004481,17.02302],[-91.997306,17.025476],[-91.994876,17.02308],[-91.991378,17.026411],[-91.98631,17.022937],[-91.98405,17.025436],[-91.969178,17.024389],[-91.955591,17.020629],[-91.946502,17.011992],[-91.933153,17.010374],[-91.924277,17.013657],[-91.90981,17.005591],[-91.894641,17.0201],[-91.861365,17.012325],[-91.859705,17.007954],[-91.843452,17.014345],[-91.83718,17.013639],[-91.836428,17.01618],[-91.82879,17.012563],[-91.82394,17.016698],[-91.812067,17.016698],[-91.81102,17.020814],[-91.815945,17.022551],[-91.813377,17.027014],[-91.821243,17.030787],[-91.821866,17.041703],[-91.825695,17.041389],[-91.827671,17.047255],[-91.870216,17.063602],[-91.871424,17.066822],[-91.864618,17.072803],[-91.852795,17.070266],[-91.852167,17.073405],[-91.861218,17.080285],[-91.863991,17.088655],[-91.873381,17.091716],[-91.872834,17.096534],[-91.869407,17.099889],[-91.856582,17.097129],[-91.838546,17.104577],[-91.832324,17.10301],[-91.821437,17.106713],[-91.816217,17.113732],[-91.82829,17.132199],[-91.816235,17.151015],[-91.817244,17.154782],[-91.813211,17.156818],[-91.811289,17.150222],[-91.805946,17.150508],[-91.801668,17.153335],[-91.803435,17.157805],[-91.794384,17.157926],[-91.790596,17.16572],[-91.786497,17.166689],[-91.78759,17.172995],[-91.766681,17.174156],[-91.765682,17.183841],[-91.751663,17.187558],[-91.748183,17.192026],[-91.744367,17.191215],[-91.735497,17.200894]]]}}]}
