{"type":"FeatureCollection","features":[{"type":"Feature","id":"uc-5929","properties":{"id":"uc-5929","name":"東京","country":"JPN"},"geometry":{"type":"Polygon","coordinates":[[[139.75738138042303,36.2053811002797],[139.76877991083495,36.2053811002797],[139.74923434451844,36.1878342935886],[139.7606312809354,36.1878342935886],[139.75086413654458,36.179061444538675],[139.76226027648886,36.179061444538675],[139.75249662365093,36.170288964824074],[139.74110127982968,36.170288964824074],[139.71183841451455,36.14397374023067],[139.72323137206283,36.14397374023067],[139.71348485010765,36.135202736396025],[139.72487701292974,36.135202736396025],[139.71513397402126,36.126432101166316],[139.7037426055766,36.126432101166316],[139.6842709403269,36.10889193593806],[139.6956607210624,36.10889193593806],[139.685930502786,36.10012240564793],[139.6973194901894,36.10012240564793],[139.6875927482496,36.09135324337945],[139.7217573315078,36.09135324337945],[139.73148645239965,36.10012240564793],[139.74287543980304,36.10012240564793],[139.7331455259272,36.09135324337945],[139.74453372034657,36.09135324337945],[139.73480728278597,36.08258444898699],[139.74619468456928,36.08258444898699],[139.71703859078548,36.056280271609964],[139.72842361674628,36.056280271609964],[139.71871265282363,36.04751294726615],[139.73009688753828,36.04751294726615],[139.72038939218464,36.03874599007096],[139.75453972363132,36.03874599007096],[139.74483411433573,36.02997939987908],[139.7562167675991,36.02997939987908],[139.7465146247538,36.021213176545295],[139.75789648781168,36.021213176545295],[139.74819781001182,36.01244731992442],[139.77095995640974,36.01244731992442],[139.7612639527391,36.00368182987133],[139.7726442364255,36.00368182987133],[139.76295169534032,35.99491670624099],[139.83122866246066,35.99491670624099],[139.84092593854393,36.00368182987133],[139.85230622223034,36.00368182987133],[139.8426081569807,35.99491670624099],[139.86536714602084,35.99491670624099],[139.85567175555698,35.986151948888384],[139.87842916695647,35.986151948888384],[139.8687364505684,35.97738755766859],[139.88011436779368,35.97738755766859],[139.87042511290085,35.968623532436744],[139.90455650019047,35.968623532436744],[139.88518600628797,35.95109657935764],[139.89656156016343,35.95109657935764],[139.88688189426918,35.942333651220956],[139.92100619461743,35.942333651220956],[139.93068822178975,35.95109657935764],[139.9420637756652,35.95109657935764],[139.96144214567317,35.968623532436744],[139.95006501657664,35.968623532436744],[139.95975978837077,35.97738755766859],[139.9370039539202,35.97738755766859],[139.94670140115494,35.986151948888384],[139.96945881255442,35.986151948888384],[139.9791620912214,35.99491670624099],[139.99054158574145,35.99491670624099],[139.98083751825416,35.986151948888384],[139.9922162239539,35.986151948888384],[139.98251562282135,35.97738755766859],[139.99389354004666,35.97738755766859],[139.98419640386626,35.968623532436744],[139.99557353296282,35.968623532436744],[139.9858798603331,35.959859873047996],[140.00863254295973,35.959859873047996],[139.99894154504238,35.95109657935764],[140.01031709891782,35.95109657935764],[140.0006295620967,35.942333651220956],[140.0233790956622,35.942333651220956],[140.01369423179128,35.93357108849331],[140.0478161718965,35.93357108849331],[140.03813319386543,35.92480889103011],[140.06087958112994,35.92480889103011],[140.05119927497927,35.916047058686885],[140.08531649770157,35.916047058686885],[140.07563807701123,35.907285591319145],[140.09838132073213,35.907285591319145],[140.07903406113357,35.889763750932666],[140.09040411259957,35.889763750932666],[140.0807360562742,35.88100337762531],[140.09210532305906,35.88100337762531],[140.0824407187374,35.872243368716234],[140.12791464852756,35.872243368716234],[140.1182511428382,35.86348372406129],[140.16372193665381,35.86348372406129],[140.14440135708531,35.84596552693745],[140.12166909409146,35.84596552693745],[140.13132570066082,35.85472444351637],[140.06312421183833,35.85472444351637],[140.0534723051099,35.84596552693745],[140.04210617361298,35.84596552693745],[140.02281660881698,35.82844878510174],[140.03418117472955,35.82844878510174],[140.0245419469362,35.81969095955721],[140.03590573057096,35.81969095955721],[140.02626994301536,35.81093349740311],[140.04899594641435,35.81093349740311],[140.03936281612204,35.8021763984957],[140.0848116965492,35.8021763984957],[140.07517966032333,35.79341966269136],[140.08654109917973,35.79341966269136],[140.07691250041827,35.784663289846414],[140.08827315836638,35.784663289846414],[140.07864799569026,35.77590727981733],[140.11272762783582,35.77590727981733],[140.10310433941802,35.76715163246059],[140.13718163089027,35.76715163246059],[140.1275602167205,35.75839634763277],[140.13891853399508,35.75839634763277],[140.1293005531458,35.74964142519046],[140.14065809087907,35.74964142519046],[140.13104354197478,35.740886864990365],[140.21054085170766,35.740886864990365],[140.20092506022095,35.73213266688922],[140.257704958593,35.73213266688922],[140.26732464437399,35.740886864990365],[140.2900381614405,35.740886864990365],[140.28041691794178,35.73213266688922],[140.29177289761617,35.73213266688922],[140.28215508774767,35.72337883074379],[140.27079988659113,35.72337883074379],[140.23237384157503,35.688367102857406],[140.22102175108353,35.688367102857406],[140.17308760258348,35.644610569843316],[140.18443581239586,35.644610569843316],[140.1748607897119,35.635860345391905],[140.2089030937975,35.635860345391905],[140.1993299363994,35.62711048132484],[140.21067659631655,35.62711048132484],[140.19154129673922,35.609611833773855],[140.20288640811708,35.609611833773855],[140.19332426288054,35.600863050005096],[140.2046686004969,35.600863050005096],[140.17600493640919,35.57461885701807],[140.18734695477121,35.57461885701807],[140.17779998519669,35.56587151165478],[140.2118237230572,35.56587151165478],[140.20227861299117,35.55712452553748],[140.23630003463953,35.55712452553748],[140.21721770721535,35.53963163047278],[140.2058787764611,35.53963163047278],[140.18681467748945,35.52214017068838],[140.1641398995392,35.52214017068838],[140.15461564276058,35.513394978671705],[140.1432790241694,35.513394978671705],[140.12424454212658,35.4959056696806],[140.13557962096027,35.4959056696806],[140.1260678519036,35.48716155242291],[140.09206492352408,35.48716155242291],[140.08255962012143,35.478417793134966],[140.07122607969907,35.478417793134966],[140.05222947450665,35.46093134790245],[140.04089747115086,35.46093134790245],[140.03140616433166,35.452188661674995],[140.0200749290052,35.452188661674995],[140.00110629486514,35.43470436129106],[139.9897765945904,35.43470436129106],[139.9802992622515,35.42596274685206],[139.96897032899943,35.42596274685206],[139.95949790548005,35.41722148939347],[139.94816973891545,35.41722148939347],[139.9576413957474,35.42596274685206],[139.94631246249534,35.42596274685206],[139.9557874937662,35.43470436129106],[139.9444577934915,35.43470436129106],[139.9539362005333,35.44344633285164],[139.9426057329005,35.44344633285164],[139.95208751704646,35.452188661674995],[139.94075628172,35.452188661674995],[139.969224215898,35.478417793134966],[140.00322483716505,35.478417793134966],[140.01272475730525,35.48716155242291],[140.00139044784544,35.48716155242291],[140.04894856627226,35.53088572124148],[140.03761040657616,35.53088572124148],[140.05666125183438,35.54837789852414],[140.06800095398415,35.54837789852414],[140.08707001756872,35.56587151165478],[140.06438752566174,35.56587151165478],[140.07392677115084,35.57461885701807],[140.0625847527888,35.57461885701807],[140.08167422307213,35.59211462605104],[140.05898709468553,35.59211462605104],[140.06853654910066,35.600863050005096],[140.05719221148433,35.600863050005096],[140.06674507158226,35.609611833773855],[140.04405484882645,35.609611833773855],[140.05361034186245,35.61836097749963],[140.03091857090618,35.61836097749963],[140.0404766975592,35.62711048132484],[140.02913003764203,35.62711048132484],[140.0386915733696,35.635860345391905],[140.0159967039792,35.635860345391905],[140.02556087502248,35.644610569843316],[140.00286445539768,35.644610569843316],[140.01243126243753,35.65336115482166],[139.97838430663083,35.65336115482166],[139.98795297455268,35.66211210046952],[139.95390369135794,35.66211210046952],[139.96347422016444,35.67086340692961],[139.95212368296387,35.67086340692961],[139.94255393029306,35.66211210046952],[139.93120416922815,35.66211210046952],[139.92163938028634,35.65336115482166],[139.94433735082413,35.65336115482166],[139.9347751965234,35.644610569843316],[139.94612340633577,35.644610569843316],[139.92701009838763,35.62711048132484],[139.91566343847046,35.62711048132484],[139.8965684009137,35.609611833773855],[139.88522328953584,35.609611833773855],[139.8947679451688,35.61836097749963],[139.8607302887345,35.61836097749963],[139.87027679880183,35.62711048132484],[139.85893013888466,35.62711048132484],[139.8684800529417,35.635860345391905],[139.84578518355133,35.635860345391905],[139.83623681905036,35.62711048132484],[139.84758347896752,35.62711048132484],[139.83803851777822,35.61836097749963],[139.81534674682203,35.61836097749963],[139.8248901591332,35.62711048132484],[139.81354349921605,35.62711048132484],[139.7944623985126,35.609611833773855],[139.8171526212684,35.609611833773855],[139.78855762218603,35.58336656176945],[139.7999004132946,35.58336656176945],[139.79037631209994,35.57461885701807],[139.80171833046197,35.57461885701807],[139.79219762277788,35.56587151165478],[139.80353886873135,35.56587151165478],[139.79402155321054,35.55712452553748],[139.81670250097616,35.55712452553748],[139.78817089326188,35.53088572124148],[139.79950905295797,35.53088572124148],[139.7900060633599,35.52214017068838],[139.81268084131017,35.52214017068838],[139.78419217711576,35.4959056696806],[139.77285709828206,35.4959056696806],[139.76336994918896,35.48716155242291],[139.75203563972912,35.48716155242291],[139.74255340745123,35.478417793134966],[139.75388694787358,35.478417793134966],[139.7444080923275,35.4696743916753],[139.73307532060645,35.4696743916753],[139.72360137718806,35.46093134790245],[139.71226937383224,35.46093134790245],[139.69333544497854,35.44344633285164],[139.70466591261135,35.44344633285164],[139.68574699769835,35.42596274685206],[139.69707593095038,35.42596274685206],[139.68762190792995,35.41722148939347],[139.71027824105911,35.41722148939347],[139.6819363584313,35.39099985748932],[139.67061048991928,35.39099985748932],[139.66117221659468,35.38226002654184],[139.67249731975852,35.38226002654184],[139.66306240553303,35.3735205518698],[139.67438674368316,35.3735205518698],[139.65552775158952,35.3560426707888],[139.6668505607148,35.3560426707888],[139.6574264798727,35.34730426409837],[139.66874852498657,35.34730426409837],[139.64991118578462,35.32982851771441],[139.67255222196908,35.32982851771441],[139.65372828550818,35.31235419305598],[139.66504727791258,35.31235419305598],[139.65564071367825,35.30361756352269],[139.68959540385907,35.30361756352269],[139.68019066217863,35.29488128899949],[139.69150813022776,35.29488128899949],[139.6821067344773,35.2861453693461],[139.70474014721884,35.2861453693461],[139.69534133474147,35.27740980442226],[139.70665727976657,35.27740980442226],[139.69726181093029,35.26867459408778],[139.75383773098977,35.26867459408778],[139.74444256176187,35.2599397382025],[139.75575698509292,35.2599397382025],[139.72759380567837,35.23373729584148],[139.73890594895926,35.23373729584148],[139.7295256600034,35.22500385635285],[139.74083704393118,35.22500385635285],[139.7220872327978,35.20753803848395],[139.68815763414975,35.20753803848395],[139.66007042394014,35.181341962355404],[139.648762831808,35.181341962355404],[139.6394093584008,35.17261064326729],[139.62810252363494,35.17261064326729],[139.6561729267569,35.198805659824146],[139.64486381889986,35.198805659824146],[139.65422803550166,35.20753803848395],[139.6316083030696,35.20753803848395],[139.62224560318577,35.198805659824146],[139.6109364953287,35.198805659824146],[139.6015786407468,35.1900736344945],[139.59027029091766,35.1900736344945],[139.59962738747166,35.198805659824146],[139.5883182796146,35.198805659824146],[139.60704321747073,35.216270770613605],[139.5844219676583,35.216270770613605],[139.59378905286988,35.22500385635285],[139.58247766894212,35.22500385635285],[139.6012225968141,35.24247108921935],[139.6125354997798,35.24247108921935],[139.63129832845138,35.2599397382025],[139.61998390512036,35.2599397382025],[139.62937070685888,35.26867459408778],[139.60674033883507,35.26867459408778],[139.59735505845825,35.2599397382025],[139.5860406351272,35.2599397382025],[139.5766602134817,35.251205236626376],[139.56534655049933,35.251205236626376],[139.57472621179616,35.2599397382025],[139.55209736513407,35.2599397382025],[139.57086593946548,35.27740980442226],[139.5482340494153,35.27740980442226],[139.55762296439877,35.2861453693461],[139.53498955165722,35.2861453693461],[139.54438104558926,35.29488128899949],[139.53306357754016,35.29488128899949],[139.54245841307556,35.30361756352269],[139.53114018301528,35.30361756352269],[139.52174610949103,35.29488128899949],[139.4991111733928,35.29488128899949],[139.50850372289474,35.30361756352269],[139.49718549283446,35.30361756352269],[139.48779370534368,35.29488128899949],[139.46515876924545,35.29488128899949],[139.47454903271392,35.30361756352269],[139.46323080265367,35.30361756352269],[139.47262440703776,35.31235419305598],[139.37075347539812,35.31235419305598],[139.3613667321112,35.30361756352269],[139.35004850205092,35.30361756352269],[139.35943448299372,35.31235419305598],[139.33679649818495,35.31235419305598],[139.32741204193042,35.30361756352269],[139.30477558180988,35.30361756352269],[139.29539674850875,35.29488128899949],[139.2614443443614,35.29488128899949],[139.25207189238785,35.2861453693461],[139.24075518601708,35.2861453693461],[139.23138758871275,35.27740980442226],[139.22007164368767,35.27740980442226],[139.21070889841852,35.26867459408778],[139.19939371440663,35.26867459408778],[139.1806820090988,35.251205236626376],[139.1693683461164,35.251205236626376],[139.15067449835246,35.23373729584148],[139.13936235507154,35.23373729584148],[139.14870647818583,35.24247108921935],[139.12608067225443,35.24247108921935],[139.1447781252164,35.2599397382025],[139.13346370188535,35.2599397382025],[139.14281779434714,35.26867459408778],[139.13150261033522,35.26867459408778],[139.14086002851204,35.27740980442226],[139.12954408348693,35.27740980442226],[139.13890482868007,35.2861453693461],[139.11627141593854,35.2861453693461],[139.12563472777202,35.29488128899949],[139.1143172597229,35.29488128899949],[139.12368390084555,35.30361756352269],[139.101047440725,35.30361756352269],[139.11041665009688,35.31235419305598],[139.08777866528808,35.31235419305598],[139.0971504435483,35.32109117773976],[139.08583068846664,35.32109117773976],[139.10458500725318,35.33856621312043],[139.11590628868942,35.33856621312043],[139.1252903595197,35.34730426409837],[139.15925649486138,35.34730426409837],[139.1498701329982,35.33856621312043],[139.16119141443446,35.33856621312043],[139.1518083897264,35.32982851771441],[139.17444942591084,35.32982851771441],[139.16506897403832,35.32109117773976],[139.17638872912,35.32109117773976],[139.1670116121189,35.31235419305598],[139.1783306045233,35.31235419305598],[139.16895682108662,35.30361756352269],[139.2142297413277,35.30361756352269],[139.22360657414092,35.31235419305598],[139.23492556654531,35.31235419305598],[139.24430725961,35.32109117773976],[139.25562701469167,35.32109117773976],[139.2650135706487,35.32982851771441],[139.27633408874092,35.32982851771441],[139.2951210362281,35.34730426409837],[139.28379899111422,35.34730426409837],[139.29319785957955,35.3560426707888],[139.236583813953,35.3560426707888],[139.22718876554475,35.34730426409837],[139.21586672043085,35.34730426409837],[139.22526100482767,35.3560426707888],[139.20261538657707,35.3560426707888],[139.21201224840837,35.36478143333236],[139.16671795452572,35.36478143333236],[139.17611586507752,35.3735205518698],[139.16479152692736,35.3735205518698],[139.17419278054913,35.38226002654184],[139.1628676773853,35.38226002654184],[139.19109380753838,35.408480588774175],[139.20242120775058,35.408480588774175],[139.19300761897526,35.39974004485311],[139.21566088736472,35.39974004485311],[139.20624988092752,35.39099985748932],[139.25155335497547,35.39099985748932],[139.26096742414362,35.39974004485311],[139.27229405833833,35.39974004485311],[139.30056326712887,35.42596274685206],[139.28923433387683,35.42596274685206],[139.29866487783173,35.43470436129106],[139.287335177557,35.43470436129106],[139.32509553864847,35.4696743916753],[139.31376276692743,35.4696743916753],[139.32321241182464,35.478417793134966],[139.3118788714023,35.478417793134966],[139.3213318802555,35.48716155242291],[139.30999757079567,35.48716155242291],[139.32891445539926,35.50465014504966],[139.31757860685516,35.50465014504966],[139.3270424856044,35.513394978671705],[139.31570586701324,35.513394978671705],[139.32517311537953,35.52214017068838],[139.3138357264044,35.52214017068838],[139.32330634572162,35.53088572124148],[139.31196818602552,35.53088572124148],[139.33092031424897,35.54837789852414],[139.3195806120992,35.54837789852414],[139.32906212401596,35.55712452553748],[139.31772165013317,35.55712452553748],[139.32720653868458,35.56587151165478],[139.30452404677757,35.56587151165478],[139.3140115408944,35.57461885701807],[139.27998548580828,35.57461885701807],[139.2705003089171,35.56587151165478],[139.24781781701012,35.56587151165478],[139.25730144908422,35.57461885701807],[139.2459594307222,35.57461885701807],[139.25544644008258,35.58336656176945],[139.22141806675685,35.58336656176945],[139.23090690857455,35.59211462605104],[139.26493760115446,35.59211462605104],[139.27443291595603,35.600863050005096],[139.28577725357238,35.600863050005096],[139.30478190030678,35.61836097749963],[139.29343601482867,35.61836097749963],[139.30294380294396,35.62711048132484],[139.2689038231925,35.62711048132484],[139.2784134487917,35.635860345391905],[139.2670660140965,35.635860345391905],[139.27657902740503,35.644610569843316],[139.26523081759265,35.644610569843316],[139.27474721995895,35.65336115482166],[139.26339823469004,35.65336115482166],[139.2729180274636,35.66211210046952],[139.26156826639868,35.66211210046952],[139.27109145093002,35.67086340692961],[139.24839037652887,35.67086340692961],[139.28651861495274,35.705872243747635],[139.2751649698097,35.705872243747635],[139.2847066890987,35.714625356410956],[139.25064342016032,35.714625356410956],[139.26018698366013,35.72337883074379],[139.20341097787747,35.72337883074379],[139.2129548285476,35.73213266688922],[139.224310808222,35.73213266688922],[139.23385961784672,35.740886864990365],[139.24521637638,35.740886864990365],[139.25477014768364,35.74964142519046],[139.2661276854169,35.74964142519046],[139.28524934408495,35.76715163246059],[139.27389024692755,35.76715163246059],[139.2834565789602,35.77590727981733],[139.2266571920509,35.77590727981733],[139.2457946238075,35.79341966269136],[139.26851750152028,35.79341966269136],[139.27809406896745,35.8021763984957],[139.28945628907422,35.8021763984957],[139.29903783424695,35.81093349740311],[139.31040083594644,35.81093349740311],[139.32957808815001,35.82844878510174],[139.31821352223741,35.82844878510174],[139.3278076691691,35.837206974180546],[139.29371162356935,35.837206974180546],[139.30330762631286,35.84596552693745],[139.29194149481594,35.84596552693745],[139.31114455261093,35.86348372406129],[139.3225122510648,35.86348372406129],[139.34173371525821,35.88100337762531],[139.33036444847335,35.88100337762531],[139.3399807158435,35.889763750932666],[139.3172406129115,35.889763750932666],[139.34611000538538,35.916047058686885],[139.3347375978113,35.916047058686885],[139.3443683822983,35.92480889103011],[139.3216219950338,35.92480889103011],[139.33125542968668,35.93357108849331],[139.29713348958146,35.93357108849331],[139.3067687883489,35.942333651220956],[139.29539402156615,35.942333651220956],[139.30503275864055,35.95109657935764],[139.2936572047651,35.95109657935764],[139.30329938153423,35.959859873047996],[139.31467572284757,35.959859873047996],[139.32432291626677,35.968623532436744],[139.33570004536332,35.968623532436744],[139.3550087047682,35.986151948888384],[139.36638741046795,35.986151948888384],[139.35673017543007,35.97738755766859],[139.4477535132324,35.97738755766859],[139.43809420723218,35.968623532436744],[139.44947133632874,35.968623532436744],[139.43981547729402,35.959859873047996],[139.46256815992064,35.959859873047996],[139.45291495902126,35.95109657935764],[139.4642905128967,35.95109657935764],[139.45464075652464,35.942333651220956],[139.47739029009017,35.942333651220956],[139.4870416206476,35.95109657935764],[139.49841717452304,35.95109657935764],[139.5080735251739,35.959859873047996],[139.51944986648724,35.959859873047996],[139.5387768510348,35.97738755766859],[139.5273989338095,35.97738755766859],[139.53706799596415,35.986151948888384],[139.52568929026438,35.986151948888384],[139.53536180493919,35.99491670624099],[139.52398231041911,35.99491670624099],[139.533658279011,36.00368182987133],[139.5108977116382,36.00368182987133],[139.52057634603267,36.01244731992442],[139.5091952728337,36.01244731992442],[139.51887736359603,36.021213176545295],[139.50749550053814,36.021213176545295],[139.51718104906845,36.02997939987908],[139.50579839580507,36.02997939987908],[139.51548740350458,36.03874599007096],[139.50410395968902,36.03874599007096],[139.51379642796002,36.04751294726615],[139.49102795853074,36.04751294726615],[139.5007230975305,36.056280271609964],[139.48933807156973,36.056280271609964],[139.49903667360184,36.06504796324776],[139.4762650384935,36.06504796324776],[139.4859663130226,36.073816022324934],[139.4631930940327,36.073816022324934],[139.47289704177027,36.08258444898699],[139.46150963998696,36.08258444898699],[139.4712170542812,36.09135324337945],[139.43705247102304,36.09135324337945],[139.44676176731446,36.10012240564793],[139.43537277991103,36.10012240564793],[139.44508554488112,36.10889193593806],[139.42230598341013,36.10889193593806],[139.43202142478899,36.1176618343956],[139.4206308503731,36.1176618343956],[139.43034976290423,36.126432101166316],[139.39617565757018,36.126432101166316],[139.40589645391125,36.135202736396025],[139.41728861673334,36.135202736396025],[139.42701447580762,36.14397374023067],[139.4384074333559,36.14397374023067],[139.44813835797368,36.15274511281621],[139.4595321105971,36.15274511281621],[139.47900837194123,36.170288964824074],[139.49040371576248,36.170288964824074],[139.4806626516184,36.16151685429865],[139.49205719966608,36.16151685429865],[139.48231961584392,36.15274511281621],[139.50510712109076,36.15274511281621],[139.4661931480366,36.1176618343956],[139.4775837224525,36.1176618343956],[139.46786510635215,36.10889193593806],[139.4792548870877,36.10889193593806],[139.46953974212127,36.10012240564793],[139.50370670433148,36.10012240564793],[139.49399344312,36.09135324337945],[139.50538163753936,36.09135324337945],[139.49567184533683,36.08258444898699],[139.50705924712014,36.08258444898699],[139.49735292251754,36.073816022324934],[139.54289936049727,36.073816022324934],[139.5331941262643,36.06504796324776],[139.54457994381846,36.06504796324776],[139.53487817541287,36.056280271609964],[139.5462632013737,36.056280271609964],[139.53656489738933,36.04751294726615],[139.5593333668186,36.04751294726615],[139.56903325329523,36.056280271609964],[139.58041827925604,36.056280271609964],[139.59983240797197,36.073816022324934],[139.61121901746694,36.073816022324934],[139.62093326495307,36.08258444898699],[139.63232066673635,36.08258444898699],[139.66149137885589,36.10889193593806],[139.65010159812036,36.10889193593806],[139.65983291310658,36.1176618343956],[139.64844233869073,36.1176618343956],[139.65817713179786,36.126432101166316],[139.66956850024255,36.126432101166316],[139.70855361257193,36.16151685429865],[139.69715906452427,36.16151685429865],[139.706915248366,36.170288964824074],[139.69551990454474,36.170288964824074],[139.7052795767675,36.179061444538675],[139.69388343682326,36.179061444538675],[139.7036465988507,36.1878342935886],[139.69224966243377,36.1878342935886],[139.70201631569066,36.196607512120174],[139.69061858245124,36.196607512120174],[139.71016316588077,36.21415505821356],[139.7329618217499,36.21415505821356],[139.7231857891873,36.2053811002797],[139.74598285001113,36.2053811002797],[139.755760477619,36.21415505821356],[139.76715980555355,36.21415505821356],[139.75738138042303,36.2053811002797]],[[139.6687262551537,35.39974004485311],[139.65739962095896,35.39974004485311],[139.64795875289528,35.39099985748932],[139.6592846214073,35.39099985748932],[139.6687262551537,35.39974004485311]]]}},{"type":"Feature","id":"uc-4399","properties":{"id":"uc-4399","name":"大阪","country":"JPN"},"geometry":{"type":"Polygon","coordinates":[[[135.79697823329602,35.07658939480114],[135.8082767588167,35.07658939480114],[135.79922077442046,35.067862301458646],[135.81051854653145,35.067862301458646],[135.80146575992325,35.05913555935783],[135.8127627789533,35.05913555935783],[135.794667546606,35.04168312832612],[135.80596306045948,35.04168312832612],[135.79692061193524,35.03295743911784],[135.8082153736929,35.03295743911784],[135.7991761177145,35.024232100596414],[135.81047012770435,35.024232100596414],[135.7924019395946,35.00678247506],[135.8036944470324,35.00678247506],[135.79466551212454,34.99805818776806],[135.8285407820843,34.99805818776806],[135.83757196934582,35.00678247506],[135.84886447678363,35.00678247506],[135.8398325387376,34.99805818776806],[135.85112429539086,34.99805818776806],[135.8240498578802,34.97188742613665],[135.83533936414386,34.97188742613665],[135.81730791257496,34.95444200053671],[135.82859592021398,34.95444200053671],[135.81958534209727,34.94571981196854],[135.830872600914,34.94571981196854],[135.8128617326234,34.928276482605455],[135.824147494775,34.928276482605455],[135.80615083278633,34.910834549353616],[135.81743509957758,34.910834549353616],[135.80844190533932,34.90211410592472],[135.8310089445393,34.90211410592472],[135.79506938267056,34.86723581697488],[135.80634991676118,34.86723581697488],[135.78840213454922,34.84979876143255],[135.79968117783642,34.84979876143255],[135.79071240818394,34.8410807554132],[135.8019907065567,34.8410807554132],[135.79302510107806,34.832363097045175],[135.75919243972908,34.832363097045175],[135.75023297428132,34.82364578619112],[135.7389561647636,34.82364578619112],[135.6852857587761,34.77134921117593],[135.69655810950792,34.77134921117593],[135.64302340480918,34.71906511211385],[135.65429130839823,34.71906511211385],[135.6453817163242,34.710352306467996],[135.65664887985244,34.710352306467996],[135.64774242883198,34.70163984641902],[135.65900885262172,34.70163984641902],[135.6501055414672,34.6929277318304],[135.66137122584075,34.6929277318304],[135.6524710533656,34.68421596256567],[135.6637359986449,34.68421596256567],[135.64594580344126,34.666793459462234],[135.65720927149772,34.666793459462234],[135.64831924607907,34.65808272535086],[135.6595819760065,34.65808272535086],[135.64181206233567,34.64066229132751],[135.6530733169693,34.64066229132751],[135.64419342603324,34.63195259114319],[135.65545394350175,34.63195259114319],[135.63770428624488,34.61453422374879],[135.648963330346,34.61453422374879],[135.63122765413385,34.5971172327467],[135.6424852261503,34.5971172327467],[135.63362244334266,34.588409253052966],[135.6448792797974,34.588409253052966],[135.636019620221,34.57970161704967],[135.6472757214343,34.57970161704967],[135.63841918391515,34.570994324601045],[135.66092991649896,34.570994324601045],[135.62553643019302,34.53616858763957],[135.63678885999724,34.53616858763957],[135.62794938183316,34.527463010929566],[135.66170447127615,34.527463010929566],[135.63520251978846,34.50134833670496],[135.64645201821426,34.50134833670496],[135.63762499062742,34.49264413014742],[135.61512745787064,34.49264413014742],[135.60630573520106,34.483940265789805],[135.59505770055148,34.483940265789805],[135.57742723298256,34.46653356313358],[135.58867380512964,34.46653356313358],[135.57986359413164,34.457830724564786],[135.59110943550476,34.457830724564786],[135.5823023276806,34.44912822765546],[135.59354743859768,34.44912822765546],[135.58474343278834,34.44042607227067],[135.59598781356732,34.44042607227067],[135.5871869086146,34.4317242582755],[135.5984305595731,34.4317242582755],[135.5896327543198,34.42302278553506],[135.57838983286422,34.42302278553506],[135.56080716180716,34.40562086327924],[135.54956569840542,34.40562086327924],[135.55835439225493,34.414321653914556],[135.5471121999849,34.414321653914556],[135.55590398995307,34.42302278553506],[135.54466106849748,34.42302278553506],[135.5534559557391,34.4317242582755],[135.5422123047806,34.4317242582755],[135.55101029045144,34.44042607227067],[135.52852152889352,34.44042607227067],[135.54612607001232,34.457830724564786],[135.53488022863922,34.457830724564786],[135.54368751654135,34.46653356313358],[135.5211943722472,34.46653356313358],[135.51238854589303,34.457830724564786],[135.5011427045199,34.457830724564786],[135.49234144034364,34.44912822765546],[135.48109632942652,34.44912822765546],[135.4547176968528,34.42302278553506],[135.43223185394166,34.42302278553506],[135.42344808501437,34.414321653914556],[135.4122058927443,34.414321653914556],[135.39465127501447,34.3969204134944],[135.3834105401639,34.3969204134944],[135.37463968683872,34.388220304425374],[135.36339968022241,34.388220304425374],[135.3546333703229,34.379520535937594],[135.34339409162402,34.379520535937594],[135.33463232273468,34.37082110789649],[135.32339377163663,34.37082110789649],[135.30588312026757,34.35342327261642],[135.2946460234218,34.35342327261642],[135.28589713643626,34.344724865108624],[135.27466076624222,34.344724865108624],[135.26591641093893,34.33602679750986],[135.2322094793638,34.33602679750986],[135.22347110537555,34.32732906968585],[135.16729651618257,34.32732906968585],[135.15856557124945,34.318631681502374],[135.1136288027111,34.318631681502374],[135.1223568448282,34.32732906968585],[135.15606159834397,34.32732906968585],[135.1735334344957,34.344724865108624],[135.2072425450779,34.344724865108624],[135.24224058333434,34.379520535937594],[135.2534798620332,34.379520535937594],[135.2973167964747,34.42302278553506],[135.30855971793025,34.42302278553506],[135.32612267487212,34.44042607227067],[135.31487829409315,34.44042607227067],[135.33245508392338,34.457830724564786],[135.32120924255028,34.457830724564786],[135.34760093826097,34.483940265789805],[135.35884897291052,34.483940265789805],[135.36765459754605,34.49264413014742],[135.35640583116768,34.49264413014742],[135.39166375573242,34.527463010929566],[135.38041205925143,34.527463010929566],[135.39806259153735,34.5448745072262],[135.38680942809057,34.5448745072262],[135.40447386807216,34.56228737557135],[135.39321923638167,34.56228737557135],[135.40205649178483,34.570994324601045],[135.3908011254929,34.570994324601045],[135.39964149474176,34.57970161704967],[135.38838539352847,34.57970161704967],[135.3972288777928,34.588409253052966],[135.38597204133805,34.588409253052966],[135.40366909547876,34.605825556266666],[135.39241078758025,34.605825556266666],[135.40126436012127,34.61453422374879],[135.39000531602014,34.61453422374879],[135.39886200858552,34.623243235328964],[135.3876022279611,34.623243235328964],[135.39646204172536,34.63195259114319],[135.3852015242568,34.63195259114319],[135.3940644603953,34.64066229132751],[135.3828032057617,34.64066229132751],[135.4005391876754,34.65808272535086],[135.38927645774797,34.65808272535086],[135.3981495062001,34.666793459462234],[135.38688603814364,34.666793459462234],[135.39576221400264,34.675504538488404],[135.3507053879747,34.675504538488404],[135.35958247610372,34.68421596256567],[135.3483175308244,34.68421596256567],[135.3571977477559,34.6929277318304],[135.34593206338238,34.6929277318304],[135.35481541029793,34.70163984641902],[135.29848329134907,34.70163984641902],[135.28960364151482,34.6929277318304],[135.30086932588833,34.6929277318304],[135.29199280442793,34.68421596256567],[135.3032577497072,34.68421596256567],[135.29438435543972,34.675504538488404],[135.2493275294118,34.675504538488404],[135.2404609534102,34.666793459462234],[135.25172442146666,34.666793459462234],[135.24286096869125,34.65808272535086],[135.2541236986187,34.65808272535086],[135.2452633678921,34.64937233601801],[135.1889534072926,34.64937233601801],[135.18010062235595,34.64066229132751],[135.13505560382134,34.64066229132751],[135.12620962248036,34.63195259114319],[135.09242807007476,34.63195259114319],[135.08358815110194,34.623243235328964],[135.01602946735542,34.623243235328964],[135.02486496526353,34.63195259114319],[135.013604447795,34.63195259114319],[135.02244305748482,34.64066229132751],[134.98865929358385,34.64066229132751],[134.97982289538936,34.63195259114319],[134.96856237792082,34.63195259114319],[134.9773980389502,34.64066229132751],[134.94361427504924,34.64066229132751],[134.95245157277466,34.64937233601801],[134.92992758853487,34.64937233601801],[134.93876726065042,34.65808272535086],[134.91624180079552,34.65808272535086],[134.92508384783054,34.666793459462234],[134.89129344366128,34.666793459462234],[134.90013712769513,34.675504538488404],[134.88887292118815,34.675504538488404],[134.89771971965232,34.68421596256567],[134.8413949932558,34.68421596256567],[134.8502419509478,34.6929277318304],[134.8277105822008,34.6929277318304],[134.8365599159685,34.70163984641902],[134.80276064459918,34.70163984641902],[134.81161161523542,34.710352306467996],[134.78907728817896,34.710352306467996],[134.80678784119917,34.72777826349318],[134.7729819092821,34.72777826349318],[134.78184075267004,34.73649176074262],[134.7593019833134,34.73649176074262],[134.7681632054381,34.74520560399882],[134.74562295402396,34.74520560399882],[134.75448655541905,34.75391979339858],[134.74321568836024,34.75391979339858],[134.75208241123474,34.76263432907867],[134.71826758503366,34.76263432907867],[134.74488426803123,34.78878001516972],[134.75615810372972,34.78878001516972],[134.76503881027966,34.79749593734021],[134.84396086095077,34.79749593734021],[134.83507495361894,34.78878001516972],[134.86889646071435,34.78878001516972],[134.8777845969527,34.79749593734021],[134.88905917561996,34.79749593734021],[134.8801702964128,34.78878001516972],[134.90271796780974,34.78878001516972],[134.8849488568177,34.77134921117593],[134.8962212075495,34.77134921117593],[134.87846609306624,34.75391979339858],[134.88973696012508,34.75391979339858],[134.88086446250907,34.74520560399882],[134.89213458821618,34.74520560399882],[134.88326521477492,34.73649176074262],[134.90580398413152,34.73649176074262],[134.8969369929779,34.72777826349318],[134.95328021283967,34.72777826349318],[134.94441338228896,34.71906511211385],[134.955681285878,34.71906511211385],[134.94681757757414,34.710352306467996],[134.98061906815883,34.710352306467996],[134.98948499664513,34.71906511211385],[135.00075290023418,34.71906511211385],[135.0184978309147,34.73649176074262],[135.04103660027133,34.73649176074262],[135.0321607206461,34.72777826349318],[135.04342936461845,34.72777826349318],[135.03455661100125,34.71906511211385],[135.0458245145903,34.71906511211385],[135.03695488579996,34.710352306467996],[135.05948921285642,34.710352306467996],[135.05062196797414,34.70163984641902],[135.06188839176392,34.70163984641902],[135.05302426967106,34.6929277318304],[135.0868213227916,34.6929277318304],[135.09568766313322,34.70163984641902],[135.12948693450252,34.70163984641902],[135.12061837591213,34.6929277318304],[135.16568111340618,34.6929277318304],[135.1745526296616,34.70163984641902],[135.18581905345138,34.70163984641902],[135.2035751648368,34.71906511211385],[135.2148430684258,34.71906511211385],[135.2326161398027,34.73649176074262],[135.24388552448102,34.73649176074262],[135.2527786108432,34.74520560399882],[135.27531886225736,34.74520560399882],[135.28421730718426,34.75391979339858],[135.2954881742431,34.75391979339858],[135.33112372435136,34.78878001516972],[135.31984988865287,34.78878001516972],[135.32876774364485,34.79749593734021],[135.31749316497752,34.79749593734021],[135.32641416420543,34.80621220647586],[135.3151388422454,34.80621220647586],[135.32406298690296,34.81492882271377],[135.31278692132616,34.81492882271377],[135.32171421260804,34.82364578619112],[135.33299102212578,34.82364578619112],[135.34192294975816,34.832363097045175],[135.35320050354116,34.832363097045175],[135.38002189410307,34.85851711524064],[135.36874210557662,34.85851711524064],[135.386641038712,34.87595486677284],[135.37535975873212,34.87595486677284],[135.3843143334161,34.88467426477203],[135.39559635961055,34.88467426477203],[135.4135187193401,34.90211410592472],[135.42480223894006,34.90211410592472],[135.43377002867484,34.910834549353616],[135.45633856225734,34.910834549353616],[135.44736927814003,34.90211410592472],[135.45865279774,34.90211410592472],[135.44968667680578,34.893394011110104],[135.43840390407135,34.893394011110104],[135.4204848786517,34.87595486677284],[135.43176615863158,34.87595486677284],[135.42281175768068,34.86723581697488],[135.4453728258619,34.86723581697488],[135.43642083673515,34.85851711524064],[135.44770062526158,34.85851711524064],[135.42980686025518,34.8410807554132],[135.44108515862797,34.8410807554132],[135.43214338002213,34.832363097045175],[135.4546984875881,34.832363097045175],[135.46364175537352,34.8410807554132],[135.48619835211906,34.8410807554132],[135.49514700908213,34.84979876143255],[135.5064260523693,34.84979876143255],[135.51537935642008,34.85851711524064],[135.53793893347296,34.85851711524064],[135.54689763267731,34.86723581697488],[135.56945870085852,34.86723581697488],[135.5784227983702,34.87595486677284],[135.5897040783501,34.87595486677284],[135.5986728311107,34.88467426477203],[135.63251890969406,34.88467426477203],[135.64149381329105,34.893394011110104],[135.65277658602545,34.893394011110104],[135.67073963129124,34.910834549353616],[135.6594553645,34.910834549353616],[135.6774325868039,34.928276482605455],[135.66614682465226,34.928276482605455],[135.675140568954,34.93699797270411],[135.66385405863295,34.93699797270411],[135.67285097747933,34.94571981196854],[135.6615637186626,34.94571981196854],[135.6705638132678,34.95444200053671],[135.6479877979898,34.95444200053671],[135.6659967701892,34.97188742613665],[135.6547072639256,34.97188742613665],[135.6637168931017,34.98061066344468],[135.65242663703538,34.98061066344468],[135.67947686521657,35.00678247506],[135.66818435777876,35.00678247506],[135.67720821899655,35.015507112623304],[135.6659149604466,35.015507112623304],[135.67494200782636,35.024232100596414],[135.6862360178162,35.024232100596414],[135.6952677561166,35.03295743911784],[135.70656251787426,35.03295743911784],[135.74273191386538,35.067862301458646],[135.73143414175433,35.067862301458646],[135.7404856056925,35.07658939480114],[135.7743811822546,35.07658939480114],[135.7834388581927,35.08531683952413],[135.80603741671118,35.08531683952413],[135.79697823329602,35.07658939480114]]]}},{"type":"Feature","id":"uc-5213","properties":{"id":"uc-5213","name":"Nagoya","country":"JPN"},"geometry":{"type":"Polygon","coordinates":[[[136.78968438152333,35.50465014504966],[136.80102023006742,35.50465014504966],[136.79173136502052,35.4959056696806],[136.8030664438542,35.4959056696806],[136.7844993572205,35.478417793134966],[136.79583289764284,35.478417793134966],[136.7865546731322,35.4696743916753],[136.79788744485322,35.4696743916753],[136.78861250803217,35.46093134790245],[136.799944511388,35.46093134790245],[136.7906728609655,35.452188661674995],[136.80200409629197,35.452188661674995],[136.79273573097785,35.44344633285164],[136.80406619861068,35.44344633285164],[136.79480111711592,35.43470436129106],[136.8287902179401,35.43470436129106],[136.83805760150912,35.44344633285164],[136.86071853677475,35.44344633285164],[136.8421847514354,35.42596274685206],[136.85351368468744,35.42596274685206],[136.84425210021845,35.41722148939347],[136.8782365999122,35.41722148939347],[136.88750048444356,35.42596274685206],[136.89882941769562,35.42596274685206],[136.8895647664768,35.41722148939347],[136.90089293304138,35.41722148939347],[136.89163156446136,35.408480588774175],[136.93694116531017,35.408480588774175],[136.94620559929973,35.41722148939347],[136.95753376586433,35.41722148939347],[136.94826856552237,35.408480588774175],[136.95959596573456,35.408480588774175],[136.9503340484197,35.39974004485311],[136.96166068261445,35.39974004485311],[136.95240204704055,35.39099985748932],[136.96372791555254,35.39099985748932],[136.9544725604346,35.38226002654184],[136.9771227667623,35.38226002654184],[136.96786992580246,35.3735205518698],[136.9791942639526,35.3735205518698],[136.9699447012159,35.36478143333236],[136.98126827468656,35.36478143333236],[136.97202198889073,35.3560426707888],[136.98334479801605,35.3560426707888],[136.9463969780312,35.32109117773976],[136.95771673311287,35.32109117773976],[136.9484891008562,35.31235419305598],[137.02772204768698,35.31235419305598],[137.03695501868455,35.32109117773976],[137.04827477376622,35.32109117773976],[137.0390410400914,35.31235419305598],[137.0503600324958,35.31235419305598],[137.04112956975575,35.30361756352269],[137.0637660298763,35.30361756352269],[137.05453807478395,35.29488128899949],[137.07717301088218,35.29488128899949],[137.06794756282824,35.2861453693461],[137.079264269199,35.2861453693461],[137.05160980897267,35.2599397382025],[137.06292423230371,35.2599397382025],[137.0537133684135,35.251205236626376],[137.1329090092901,35.251205236626376],[137.12369684732445,35.24247108921935],[137.13500975029015,35.24247108921935],[137.09819827067955,35.20753803848395],[137.10950813689556,35.20753803848395],[137.10031455106278,35.198805659824146],[137.11162365891983,35.198805659824146],[137.10243332850658,35.1900736344945],[137.09112497867744,35.1900736344945],[137.08193941781443,35.181341962355404],[137.0706318256823,35.181341962355404],[137.0522742452319,35.16387967709061],[137.06358032296205,35.16387967709061],[137.05440678512977,35.15514906368595],[137.06571210615468,35.15514906368595],[137.0565418157838,35.146418802913864],[137.06784638043374,35.146418802913864],[137.0586793362667,35.13768889463504],[137.06998314487174,35.13768889463504],[137.06081934565196,35.12895933871018],[137.0721223985421,35.12895933871018],[137.06296184301394,35.12023013500005],[137.0855664380239,35.12023013500005],[137.09472850432232,35.12895933871018],[137.13994071588286,35.12895933871018],[137.14910980510712,35.13768889463504],[137.16041361371217,35.13768889463504],[137.18794717799406,35.16387967709061],[137.19925325572422,35.16387967709061],[137.18089202693304,35.146418802913864],[137.19219659158298,35.146418802913864],[137.18302123092226,35.13768889463504],[137.1943250395273,35.13768889463504],[137.18515292744334,35.12895933871018],[137.19645598033347,35.12895933871018],[137.1872871155688,35.12023013500005],[137.19858941307382,35.12023013500005],[137.18942379437223,35.11150128336547],[137.2007253368217,35.11150128336547],[137.19156296292778,35.10277278366733],[137.21416453837472,35.10277278366733],[137.19584876559674,35.08531683952413],[137.20714804485598,35.08531683952413],[137.19799539786283,35.07658939480114],[137.20929392338354,35.07658939480114],[137.20014451618653,35.067862301458646],[137.21144228829755,35.067862301458646],[137.2022961196463,35.05913555935783],[137.19099910061627,35.05913555935783],[137.1362103246933,35.00678247506],[137.1475028321311,35.00678247506],[137.13838455386266,34.99805818776806],[137.1609680671692,34.99805818776806],[137.1700878470067,35.00678247506],[137.1813803544445,35.00678247506],[137.17225982382246,34.99805818776806],[137.18355158047572,34.99805818776806],[137.17443427712166,34.98933425060906],[137.20830729571014,34.98933425060906],[137.19919171812353,34.98061066344468],[137.21048197418983,34.98061066344468],[137.192261243577,34.96316453854671],[137.2035500003649,34.96316453854671],[137.19444484453425,34.95444200053671],[137.20573285217324,34.95444200053671],[137.19663091774223,34.94571981196854],[137.207918176559,34.94571981196854],[137.19881946229137,34.93699797270411],[137.2213924829334,34.93699797270411],[137.20320396177894,34.91955534153459],[137.21448897608735,34.91955534153459],[137.20539991490227,34.910834549353616],[137.18283138131977,34.910834549353616],[137.17374777693672,34.90211410592472],[137.16246425733672,34.90211410592472],[137.15338535970437,34.893394011110104],[137.14210258696994,34.893394011110104],[137.13302839355606,34.88467426477203],[137.12174636736162,34.88467426477203],[137.11267687563583,34.87595486677284],[137.10139559565596,34.87595486677284],[137.09233080308982,34.86723581697488],[137.08105026899923,34.86723581697488],[137.04483357099085,34.832363097045175],[137.03355601720784,34.832363097045175],[137.0426035275617,34.8410807554132],[137.02004693081616,34.8410807554132],[137.01100090964187,34.832363097045175],[136.99972335585886,34.832363097045175],[137.00876863244338,34.8410807554132],[136.97493373732505,34.8410807554132],[136.96589069450985,34.832363097045175],[136.94333558694385,34.832363097045175],[136.9252642988053,34.81492882271377],[136.91398823322854,34.81492882271377],[136.92302116412392,34.82364578619112],[136.9004675450885,34.82364578619112],[136.90950292559486,34.832363097045175],[136.89822537181186,34.832363097045175],[136.9072639470884,34.8410807554132],[136.88470735034286,34.8410807554132],[136.90279334516987,34.85851711524064],[136.89151355664345,34.85851711524064],[136.9005617235496,34.86723581697488],[136.88928118945898,34.86723581697488],[136.89833255601786,34.87595486677284],[136.88705127603797,34.87595486677284],[136.89610584347258,34.88467426477203],[136.88482381727815,34.88467426477203],[136.91200897832957,34.910834549353616],[136.90072471153832,34.910834549353616],[136.91886642348237,34.928276482605455],[136.90758066133074,34.928276482605455],[136.92573670613993,34.94571981196854],[136.91444944732316,34.94571981196854],[136.92353266119798,34.95444200053671],[136.90095664591996,34.95444200053671],[136.91004232387903,34.96316453854671],[136.89875356709112,34.96316453854671],[136.90784245918985,34.97188742613665],[136.88526344666258,34.97188742613665],[136.87617605351528,34.96316453854671],[136.80844351278776,34.96316453854671],[136.8266132679344,34.98061066344468],[136.81532301186803,34.98061066344468],[136.85170710819045,35.015507112623304],[136.84041384964053,35.015507112623304],[136.86774136268716,35.04168312832612],[136.8564458488337,35.04168312832612],[136.83822503677885,35.024232100596414],[136.80434300680935,35.024232100596414],[136.79524081544076,35.015507112623304],[136.76136103979093,35.015507112623304],[136.79778462132893,35.05040916835989],[136.78648835505135,35.05040916835989],[136.7956034345654,35.05913555935783],[136.77300939650536,35.05913555935783],[136.7821269480789,35.067862301458646],[136.79342472018993,35.067862301458646],[136.82080352052725,35.094044635766565],[136.8095034872005,35.094044635766565],[136.81863696805326,35.10277278366733],[136.79603539260634,35.10277278366733],[136.8051713510895,35.11150128336547],[136.75996518129153,35.11150128336547],[136.75083224171243,35.10277278366733],[136.73953145398897,35.10277278366733],[136.73040325391307,35.094044635766565],[136.71910322058633,35.094044635766565],[136.70086027495202,35.07658939480114],[136.7121588004727,35.07658939480114],[136.7030425433018,35.067862301458646],[136.7143403154128,35.067862301458646],[136.6961182248308,35.05040916835989],[136.70741449110838,35.05040916835989],[136.6892067907877,35.03295743911784],[136.70050155254532,35.03295743911784],[136.69140290691107,35.024232100596414],[136.71399092689072,35.024232100596414],[136.70489474704124,35.015507112623304],[136.71618800559116,35.015507112623304],[136.69800604438547,34.99805818776806],[136.68671428773223,34.99805818776806],[136.67763000449074,34.98933425060906],[136.68892101068687,34.98933425060906],[136.65262047786172,34.95444200053671],[136.67519649313974,34.95444200053671],[136.6661297533544,34.94571981196854],[136.6774170121712,34.94571981196854],[136.66835347720354,34.93699797270411],[136.65706696688252,34.93699797270411],[136.64800813184343,34.928276482605455],[136.65929389399506,34.928276482605455],[136.65023826066633,34.91955534153459],[136.66152327497474,34.91955534153459],[136.65247084213064,34.910834549353616],[136.66375510892192,34.910834549353616],[136.6366192410002,34.88467426477203],[136.64790126719464,34.88467426477203],[136.62079863200935,34.85851711524064],[136.63207842053575,34.85851711524064],[136.5509761552175,34.78006443982729],[136.56224924827086,34.78006443982729],[136.53528355071484,34.75391979339858],[136.54655441777365,34.75391979339858],[136.52859537780915,34.73649176074262],[136.53986476248747,34.73649176074262],[136.53089036896841,34.72777826349318],[136.54215901294072,34.72777826349318],[136.53318778834296,34.71906511211385],[136.544455691932,34.71906511211385],[136.52652348443402,34.70163984641902],[136.5377899082238,34.70163984641902],[136.52882892260124,34.6929277318304],[136.54009460697475,34.6929277318304],[136.5311367851512,34.68421596256567],[136.5649316209891,34.68421596256567],[136.55597548422244,34.675504538488404],[136.56723969072942,34.675504538488404],[136.5582867160111,34.666793459462234],[136.51323284378546,34.666793459462234],[136.50428672056447,34.65808272535086],[136.49302399063703,34.65808272535086],[136.50196937572903,34.666793459462234],[136.45691550350338,34.666793459462234],[136.46586183216655,34.675504538488404],[136.4320692126456,34.675504538488404],[136.4410172229168,34.68421596256567],[136.4522821681961,34.68421596256567],[136.46123481636016,34.6929277318304],[136.47250050073364,34.6929277318304],[136.49041898094123,34.710352306467996],[136.479151817413,34.710352306467996],[136.49708443705134,34.72777826349318],[136.48581579307898,34.72777826349318],[136.4947872237742,34.73649176074262],[136.4835178390959,34.73649176074262],[136.49249243862363,34.74520560399882],[136.5037625643307,34.74520560399882],[136.53970306216416,34.78006443982729],[136.52842996911082,34.78006443982729],[136.5734400690747,34.82364578619112],[136.56216325955697,34.82364578619112],[136.57117631210494,34.832363097045175],[136.54862120453893,34.832363097045175],[136.55763669753244,34.8410807554132],[136.5463583991597,34.8410807554132],[136.55537707807852,34.84979876143255],[136.54409803479132,34.84979876143255],[136.55311990085082,34.85851711524064],[136.53056032379797,34.85851711524064],[136.52153994821694,34.84979876143255],[136.49898186164253,34.84979876143255],[136.53508100525016,34.88467426477203],[136.5463630314446,34.88467426477203],[136.5553984047797,34.893394011110104],[136.56668117751414,34.893394011110104],[136.5847652413831,34.910834549353616],[136.57348097459186,34.910834549353616],[136.58252817481576,34.91955534153459],[136.57124316050735,34.91955534153459],[136.58029355893368,34.928276482605455],[136.56900779678207,34.928276482605455],[136.57806139463537,34.93699797270411],[136.55548837399337,34.93699797270411],[136.5826683770294,34.96316453854671],[136.5713796202415,34.96316453854671],[136.58044677754424,34.97188742613665],[136.5465782587533,34.97188742613665],[136.55564712234232,34.98061066344468],[136.56693737840865,34.98061066344468],[136.6214382202419,35.03295743911784],[136.63273298199957,35.03295743911784],[136.65093315972055,35.05040916835989],[136.639636893443,35.05040916835989],[136.6487421871751,35.05913555935783],[136.603554111055,35.05913555935783],[136.59445182833272,35.05040916835989],[136.58315556205514,35.05040916835989],[136.61047207078641,35.07658939480114],[136.6217705963071,35.07658939480114],[136.64000298729894,35.094044635766565],[136.6513030206257,35.094044635766565],[136.64218408189438,35.08531683952413],[136.66478264041282,35.08531683952413],[136.67390308727923,35.094044635766565],[136.68520312060602,35.094044635766565],[136.71259062035924,35.12023013500005],[136.72389291786422,35.12023013500005],[136.74217269532522,35.13768889463504],[136.73086888672017,35.13768889463504],[136.7400140055857,35.146418802913864],[136.71740487628583,35.146418802913864],[136.70826126951005,35.13768889463504],[136.696957460905,35.13768889463504],[136.71524715438213,35.15514906368595],[136.7039418333572,35.15514906368595],[136.7130919133265,35.16387967709061],[136.70178583559635,35.16387967709061],[136.71093915404245,35.17261064326729],[136.6996323192766,35.17261064326729],[136.72711399178002,35.198805659824146],[136.73842309963706,35.198805659824146],[136.7475924179827,35.20753803848395],[136.7589022841987,35.20753803848395],[136.78643655264432,35.23373729584148],[136.77512440936343,35.23373729584148],[136.78430975835326,35.24247108921935],[136.76168395242183,35.24247108921935],[136.7708717938543,35.251205236626376],[136.7595581308719,35.251205236626376],[136.7687492256965,35.2599397382025],[136.73480595570337,35.2599397382025],[136.7439987838241,35.26867459408778],[136.7326835998122,35.26867459408778],[136.74187968319285,35.27740980442226],[136.71924779314267,35.27740980442226],[136.7100532317884,35.26867459408778],[136.69873804777652,35.26867459408778],[136.7263315013596,35.29488128899949],[136.7150140333105,35.29488128899949],[136.7242191280682,35.30361756352269],[136.66762797776684,35.30361756352269],[136.67683328315056,35.31235419305598],[136.66551429074616,35.31235419305598],[136.7115973790086,35.3560426707888],[136.70027456988328,35.3560426707888],[136.70950251139047,35.36478143333236],[136.68685536444912,35.36478143333236],[136.67762895163264,35.3560426707888],[136.65498333338203,35.3560426707888],[136.6457624795771,35.34730426409837],[136.63444043446322,35.34730426409837],[136.61601233706622,35.32982851771441],[136.60469181897398,35.32982851771441],[136.6139030912773,35.33856621312043],[136.59126052840477,35.33856621312043],[136.60047429912152,35.34730426409837],[136.58915225400762,35.34730426409837],[136.59836928775545,35.3560426707888],[136.57572366950484,35.3560426707888],[136.58494320321313,35.36478143333236],[136.56229605627178,35.36478143333236],[136.55307805125423,35.3560426707888],[136.53043243300357,35.3560426707888],[136.53964890933045,35.36478143333236],[136.50567818891844,35.36478143333236],[136.52411864020831,35.38226002654184],[136.546768846536,35.38226002654184],[136.55599664912071,35.39099985748932],[136.56732251763273,35.39099985748932],[136.57655511999377,35.39974004485311],[136.64451492516213,35.39974004485311],[136.6537561600051,35.408480588774175],[136.6650835602173,35.408480588774175],[136.68357968590678,35.42596274685206],[136.67225075265475,35.42596274685206],[136.6815041143686,35.43470436129106],[136.67017441409388,35.43470436129106],[136.69795648118568,35.46093134790245],[136.68662447782987,35.46093134790245],[136.69589249936374,35.4696743916753],[136.74122358624797,35.4696743916753],[136.7504987359535,35.478417793134966],[136.76183227637583,35.478417793134966],[136.78039628618683,35.4959056696806],[136.76906120735313,35.4959056696806],[136.78763992118004,35.513394978671705],[136.79897653977125,35.513394978671705],[136.78968438152333,35.50465014504966]],[[136.89076822559747,35.08531683952413],[136.87946894633825,35.08531683952413],[136.87033815776255,35.07658939480114],[136.88163668328323,35.07658939480114],[136.89076822559747,35.08531683952413]]]}}]}
