{"type":"FeatureCollection","features":[{"type":"Feature","id":78,"geometry":{"type":"Polygon","coordinates":[[[-126.52611542012687,59.542857591438249],[-126.5720534858161,59.506238374414146],[-126.65311023238353,59.48668388726766],[-126.7428650713987,59.479874960435453],[-126.83336033174284,59.476507314209393],[-126.92402723295488,59.474867076860292],[-127.01432189996852,59.469420144963919],[-127.09727805684756,59.451075564790287],[-127.16594364013453,59.421161546087987],[-127.22772164199014,59.387419590059395],[-127.2882593090828,59.353147347582592],[-127.34539623112626,59.317416294644346],[-127.39598705521867,59.279235659667187],[-127.44097932594491,59.239267802288879],[-127.47485736086884,59.205516830901935],[-127.4824444554808,59.197947940235373],[-127.48422158208285,59.152387730087788],[-127.46522082510079,59.107170334163541],[-127.4167318477963,59.068549680414158],[-127.384642957945,59.025576214138148],[-127.32091106461966,58.993237385674206],[-127.25918692550371,58.959908746980837],[-127.20391108396763,58.923713689152102],[-127.15439801595764,58.885376112854281],[-127.10741683950302,58.846215336124274],[-127.06199301284911,58.806582777759729],[-127.01787005319532,58.766576201352741],[-126.97449704235342,58.726365475029787],[-126.93181615775586,58.685972618818717],[-126.89050844602019,58.645211127916141],[-126.85082432488132,58.604029543202721],[-126.8121777302665,58.562594240129407],[-126.7737136747663,58.521128457544613],[-126.73453843005268,58.479859710894161],[-126.69381892609782,58.439018926898939],[-126.65133710280617,58.398691395506411],[-126.60761883048323,58.358747470814954],[-126.5631657390436,58.31904625540183],[-126.51828039603359,58.279499865987169],[-126.47323895066685,58.240020265541958],[-126.42832839071633,58.200519142386256],[-126.38383467902345,58.160906063726088],[-126.34005838343874,58.121089250873034],[-126.2972906968717,58.0809836896088],[-126.25567115050498,58.040557991676422],[-126.2150844894128,57.999855678200873],[-126.17528353424296,57.958949752093908],[-126.13602293938841,57.917913870777276],[-126.09706062372234,57.876811527025055],[-126.05815651437165,57.835709469457527],[-126.01907990513621,57.794670402019172],[-125.97955044477288,57.753769695586968],[-125.93931951453291,57.713081434220882],[-125.89853999941413,57.672565983855677],[-125.85755575718942,57.632127156393103],[-125.8164184241411,57.591750224617861],[-125.77488125921462,57.551508672462134],[-125.73267101714384,57.511487224371592],[-125.68953726195441,57.471770467337713],[-125.6452314150058,57.432448742877867],[-125.59947946929,57.39363226552129],[-125.55210525503682,57.355407233765817],[-125.50325562880218,57.317751768683117],[-125.45329253698345,57.280549839626886],[-125.40259345617231,57.243665830588291],[-125.35152247202251,57.206956655696544],[-125.30043250501055,57.170278935203733],[-125.24967867101573,57.133490431711749],[-125.19960220490337,57.096450673561151],[-125.15059545726783,57.05901436837177],[-125.10304435947435,57.021046184531123],[-125.05294124627613,56.979135629345663],[-125.00794131053145,56.94029499250496],[-124.96359149397081,56.901253048683031],[-124.91981564071159,56.862036511573258],[-124.87629388403488,56.822730834971047],[-124.8423600626863,56.78085256550208],[-124.79813538968637,56.741922335338479],[-124.74237293381911,56.70773707984732],[-124.68710724099464,56.6733128680427],[-124.63735632906864,56.636457678728824],[-124.5913536193321,56.598155914627021],[-124.54670875805832,56.559371252655062],[-124.50351661438614,56.520100189499118],[-124.46578331317566,56.479205500352897],[-124.43087661424785,56.437503797181975],[-124.40120084921944,56.394719952855844],[-124.37002541579307,56.352448362667417],[-124.32536199336481,56.313818942078392],[-124.2782100933249,56.276135750472832],[-124.22841334423407,56.239543398466914],[-124.17697734414071,56.203686803253945],[-124.12506780653742,56.168069521613752],[-124.07381566493562,56.132183367431296],[-124.02432493363214,56.095558656283437],[-123.97705195665554,56.058051600402152],[-123.93145150953447,56.019924594227625],[-123.88660782175367,55.98153807108919],[-123.84164344382216,55.943216716598307],[-123.79558450981368,55.905327222327216],[-123.74780884697782,55.86813787313006],[-123.69845508968814,55.831630826982014],[-123.64802846195738,55.79561578371387],[-123.59699503455539,55.759898438233378],[-123.54575791668447,55.724299718242712],[-123.4947161150328,55.688637197800986],[-123.44427444439266,55.652728776507132],[-123.39487173198219,55.616386291235564],[-123.34643554883922,55.579654516626327],[-123.30075132410889,55.541829481663939],[-123.26241493340903,55.50148516400089],[-123.2314597754383,55.459161723069833],[-123.20112118105448,55.416705707612657],[-123.16390532621863,55.37607380590223],[-123.11813620056833,55.338399826166651],[-123.06681408978034,55.303153237109179],[-123.01288422345372,55.269223406437547],[-122.95792734022785,55.235866727704099],[-122.90329506685741,55.202364708966591],[-122.85051410322268,55.167933117612975],[-122.80055464388235,55.132175707344118],[-122.75291271440319,55.09541749387639],[-122.70671264493944,55.058082905003232],[-122.66135059762355,55.020432226209351],[-122.61628863963388,54.98268528598814],[-122.57098037780422,54.94505720701769],[-122.52479919900553,54.907805229004182],[-122.47729114418344,54.871134816375893],[-122.42855914895074,54.835025988969953],[-122.37896073412539,54.799338391348229],[-122.32851824369351,54.764073163732697],[-122.27704368957772,54.729336761681743],[-122.224380317311,54.695230749652431],[-122.17033169257645,54.66188875014096],[-122.11461425267444,54.62951264248526],[-122.05726432250688,54.598143386794206],[-121.9986989031208,54.567573740961357],[-121.93944969556297,54.537486965597296],[-121.88002416085607,54.507552633128206],[-121.82090474236287,54.477447539002199],[-121.76260458196541,54.446838604938073],[-121.70552642986688,54.415490360903185],[-121.65031855843024,54.383051846552249],[-121.60631564095678,54.352870511731936],[-121.59957859844492,54.348244613085896],[-121.55577784921168,54.310380607596521],[-121.51694776874578,54.270723831084524],[-121.4781424606102,54.231076482014444],[-121.43444767429358,54.193234834078112],[-121.38406390237419,54.158396084653781],[-121.32935016400511,54.125913114822382],[-121.27259080693707,54.094696129084291],[-121.2136982697978,54.064909699156594],[-121.15336828736795,54.036171638795174],[-121.09560515282244,54.005694887032739],[-121.04435661859596,53.971440151075853],[-120.99883046664078,53.934507130562366],[-120.95644127128323,53.896317060167604],[-120.91649353367593,53.85723903329292],[-120.87757370466306,53.817818503329526],[-120.83732341375331,53.778886788137804],[-120.78914882659126,53.712995931242531],[-120.76591044548539,53.648042834891939],[-120.32636739048307,53.47817062545797],[-119.94625115149695,53.256400145591208],[-119.6935235042333,53.143367792394685],[-119.44060488995662,53.027265611662997],[-119.06688015304715,52.76853332066684],[-118.73863801149332,52.556987670323572],[-118.50832756928489,52.374282809585054],[-118.25942410336584,52.172955806375228],[-118.00711634477827,52.007125371161919],[-117.68470303302101,51.828715977140419],[-117.40767133141807,51.705673728672899],[-117.24615209402232,51.650692316774354],[-117.17222405365314,51.587234612060705],[-117.06333364653503,51.463007856959877],[-116.99522160661634,51.392570636443544],[-116.85572213632642,51.292487422638523],[-116.63142079347017,51.13715459058897],[-116.37033797916899,50.944377757218042],[-116.07372388781285,50.713939103662526],[-115.93805591016061,50.544955701222925],[-115.86211125254985,50.402801522472402],[-115.7732838438903,50.235276159376149],[-115.68509141665641,50.050830008275284],[-115.6320689996284,49.949324992532929],[-115.56353067375873,49.817379781869576],[-115.44850386930412,49.678685032646527],[-115.34970416163581,49.587288432316953],[-115.25921738143953,49.477245098811288],[-115.19252908568735,49.362160322194065],[-115.03365473152115,49.216311195241573],[-114.96927776137012,49.000160797951644],[-114.42685165944735,49.001272097881262],[-114.42643607170247,49.001272011451618],[-114.42275106177252,49.001268909188724],[-114.22909923060493,49.000920282292753],[-114.1754238261971,49.000754913605974],[-114.0679847095594,49.000364635495728],[-114.0000146540474,49.000006716837525],[-113.99978810195967,49.000007810092008],[-113.71552941450378,49.001059650529861],[-113.73260486468158,49.043834712659844],[-113.77239053793546,49.129920186749573],[-113.81923333744732,49.214645902150018],[-113.87727432109612,49.296131598044894],[-113.96731119174331,49.364513091441317],[-114.07710042809167,49.418626283408472],[-114.19847402401999,49.46221674248072],[-114.32182778223415,49.502673637268273],[-114.43036751362523,49.560477289570564],[-114.49112047416327,49.6394475676178],[-114.51677257740414,49.728934139911324],[-114.52283214249788,49.819235708528737],[-114.51445054734049,49.909272780975165],[-114.50550150536648,49.999479203204707],[-114.50892107180194,50.089432338830555],[-114.53159273232599,50.178674279410103],[-114.56382422443251,50.266602495806119],[-114.58896985255049,50.355487834084478],[-114.61652882960978,50.444056670875817],[-114.65411660483724,50.531242963609223],[-114.69704421033131,50.617433795345413],[-114.74224383476347,50.703198005566144],[-114.78918368462911,50.788633072758337],[-114.83853165029021,50.873556548306347],[-114.89334000239738,50.957213291763409],[-114.95622555226578,51.038581119651994],[-115.02634433118594,51.117645425828449],[-115.1020387169921,51.194745369989455],[-115.18010324481087,51.270965258855547],[-115.26091957265535,51.346121598171194],[-115.34324479014357,51.420723872790234],[-115.42628970971376,51.495095109028817],[-115.51048208451768,51.569049798282286],[-115.59649334753314,51.642275802998988],[-115.68483792827172,51.714506084695962],[-115.77595413264832,51.785492807654826],[-115.87023768661302,51.854974897645214],[-115.96728072700103,51.923082178945087],[-116.06674026609828,51.989954533375986],[-116.16828365644552,52.055736661441792],[-116.27155700268547,52.120601152120486],[-116.37636537323887,52.184641460023769],[-116.48258770420721,52.247917164239205],[-116.59010233852345,52.310487819587479],[-116.69878009197981,52.372424728887303],[-116.80847726601164,52.433808944185955],[-116.9190714456623,52.494718091504808],[-117.03042958112616,52.55523573720378],[-117.14239075188223,52.615469186496533],[-117.25493080036173,52.675432037881542],[-117.36803403964558,52.735135506384303],[-117.48167952102706,52.794592065188638],[-117.5958445367387,52.853814680846298],[-117.71050450218293,52.912819891014422],[-117.82564446956482,52.971620353195789],[-117.94124114544074,53.030228274658953],[-118.05727467855347,53.088658232794295],[-118.17371414697263,53.146932939951391],[-118.29053157146564,53.205073380585105],[-118.4079765748738,53.262892407016224],[-118.52690069513098,53.319757960518857],[-118.64684763841572,53.375991326384771],[-118.76717723828642,53.432077535279291],[-118.88725031086253,53.488499607543872],[-119.00627262227236,53.545853875869817],[-119.12530385082532,53.603341520858933],[-119.2447436592639,53.660669910370189],[-119.36471200820095,53.71775122620695],[-119.48492611196255,53.774793075517536],[-119.60514751072076,53.831973669897181],[-119.72517009012559,53.889442568135962],[-119.84478864970038,53.947344718783775],[-119.9637843389613,54.005835707046487],[-120.08193028059287,54.065060041140718],[-120.19883270414769,54.125271838904048],[-120.31354034470603,54.187036225517673],[-120.42403951047336,54.251533982216486],[-120.53163474178329,54.317794548552811],[-120.637687222745,54.385025121973051],[-120.74354811973546,54.452468053852662],[-120.85071381019451,54.51932631409128],[-120.96058365079072,54.584793797682472],[-121.07200168880303,54.64950315217451],[-121.18422863364484,54.713862357233396],[-121.29709010204222,54.777973818306585],[-121.41049633861863,54.841889805860077],[-121.52435436920432,54.905664445131293],[-121.63857023290068,54.969353790008824],[-121.75304678556516,55.033015776062435],[-121.86767058791487,55.096718639953856],[-121.98234379210216,55.160520209846212],[-122.0969719985841,55.224474724159847],[-122.21146812850597,55.288634947760542],[-122.32564560810712,55.353108993554109],[-122.43884509156705,55.418262638925675],[-122.5504856849185,55.484419238210499],[-122.66075679764036,55.551596736107015],[-122.74740196813413,55.62869565454433],[-122.82893169220289,55.708117435380792],[-122.91525423387496,55.785824912292227],[-123.00778645447559,55.861349864155663],[-123.09434490818431,55.939270401830974],[-123.16621495577334,56.021534053689436],[-123.22014192549825,56.108268670318381],[-123.25909024730933,56.197497862225305],[-123.2917359775053,56.287481639333144],[-123.32419216495049,56.377522014711523],[-123.35766186194247,56.467467140536712],[-123.38829134769485,56.557749536005801],[-123.41753443220094,56.648196216822555],[-123.44395546059617,56.738920164245897],[-123.46812235614924,56.829866343323779],[-123.49253694389627,56.920820342345898],[-123.52689084829601,57.01079320120774],[-123.56566981518209,57.10029484207147],[-123.60600704710158,57.18960820151532],[-123.64709362365133,57.278848004181278],[-123.68937056842304,57.367953057607316],[-123.73302001105705,57.45689322731738],[-123.7782152329825,57.545639542033157],[-123.82514174685099,57.634158652573035],[-123.87397722935754,57.722411648271823],[-123.92510393971683,57.810326751662224],[-123.97917917826943,57.89777078918118],[-124.03717313949529,57.984544430907789],[-124.09887952126037,58.070630670285524],[-124.16417406906054,58.156014911222961],[-124.23294241984368,58.240684644151109],[-124.30506164751344,58.32463045154109],[-124.38166056778987,58.407523179493275],[-124.4624318072613,58.489375685548673],[-124.5466966346543,58.570329761691966],[-124.63337260973097,58.650652518895534],[-124.72137348742714,58.730654334759535],[-124.80912926597824,58.810801087397842],[-124.89531247170405,58.891472315746746],[-124.97863190844859,58.973018738439656],[-125.06482391272348,59.053866022086517],[-125.15790604347522,59.132836183896771],[-125.26530281094421,59.206576450365759],[-125.35128774188092,59.247037153776937],[-125.3984162932415,59.269147274923142],[-125.55659010355446,59.312843761161076],[-125.72409363315744,59.348343209961605],[-125.89697304446369,59.37425006912752],[-126.07842966831544,59.380485544400983],[-126.2453891634503,59.415440579637135],[-126.38878723566194,59.471288169846233],[-126.52611542012687,59.542857591438249]]]},"properties":{"OBJECTID_12":78,"RegionEn":"Cordillera","SubRegionE":"Rocky Mountain Area","Div_En":"Rocky Mountains","XLandform_1":"Mountains"}}]}