{"type":"FeatureCollection","features":[{"type":"Feature","properties":{"kind":"state","name":"ワシントン州","code":"WA"},"geometry":{"type":"Polygon","coordinates":[[[-117.02665,47.72293],[-116.99807,46.33017],[-116.90653,46.17778],[-116.915,45.99998],[-118.97824,45.99257],[-119.337,45.88834],[-119.59205,45.93223],[-119.78731,45.85077],[-120.15827,45.74067],[-120.60964,45.7539],[-120.83719,45.67295],[-121.04674,45.6375],[-121.20389,45.6899],[-121.56108,45.73276],[-121.78809,45.70098],[-122.17491,45.59515],[-122.42046,45.592],[-122.65171,45.63008],[-122.72579,45.77033],[-122.75224,45.93807],[-122.93797,46.1291],[-123.22849,46.18625],[-123.47137,46.27725],[-123.7767,46.28203],[-123.99868,46.28307],[-124.07963,46.86475],[-124.39567,47.72017],[-124.68721,48.18443],[-124.5661,48.37971],[-123.12,48.04],[-122.58714,47.09589],[-122.34002,47.35995],[-122.49983,48.18016],[-122.84,49.0],[-120.0027,49.00088],[-117.03143,48.99931],[-117.02665,47.72293]]]}},{"type":"Feature","properties":{"kind":"state","name":"オレゴン州","code":"OR"},"geometry":{"type":"Polygon","coordinates":[[[-116.679,45.80736],[-116.51126,45.72641],[-116.4578,45.57453],[-116.55888,45.44436],[-116.69329,45.18665],[-116.83615,44.86385],[-117.05153,44.66596],[-117.1923,44.43894],[-117.19439,44.27913],[-117.00761,44.21141],[-116.92666,44.08121],[-117.01396,43.79707],[-117.02825,42.00002],[-117.02825,41.99736],[-119.99898,41.9926],[-124.21381,41.99948],[-124.53284,42.76599],[-124.14214,43.70838],[-123.89893,45.52341],[-123.99868,46.28307],[-123.7767,46.28203],[-123.47137,46.27725],[-123.22849,46.18625],[-122.93797,46.1291],[-122.75224,45.93807],[-122.72579,45.77033],[-122.65171,45.63008],[-122.42046,45.592],[-122.17491,45.59515],[-121.78809,45.70098],[-121.56108,45.73276],[-121.20389,45.6899],[-121.04674,45.6375],[-120.83719,45.67295],[-120.60964,45.7539],[-120.15827,45.74067],[-119.78731,45.85077],[-119.59205,45.93223],[-119.337,45.88834],[-118.97824,45.99257],[-116.915,45.99998],[-116.679,45.80736]]]}},{"type":"Feature","properties":{"kind":"state","name":"ニューハンプシャー州","code":"NH"},"geometry":{"type":"Polygon","coordinates":[[[-70.9336,42.88426],[-71.14578,42.81651],[-71.24898,42.71809],[-72.45707,42.72708],[-72.5375,42.8308],[-72.45865,42.96045],[-72.43431,43.22292],[-72.40361,43.28537],[-72.36976,43.52189],[-72.26021,43.72139],[-72.1782,43.8087],[-72.05914,44.04576],[-72.03637,44.20663],[-72.00304,44.30401],[-71.8099,44.35215],[-71.58552,44.46804],[-71.54638,44.5924],[-71.62046,44.7358],[-71.50351,45.0078],[-71.50509,45.00831],[-71.40509,45.25491],[-71.08482,45.30524],[-70.94416,43.46634],[-70.98176,43.3679],[-70.79761,43.21974],[-70.75102,43.08003],[-70.64573,43.09008],[-70.81505,42.86519],[-70.9336,42.88426]]]}},{"type":"Feature","properties":{"kind":"state","name":"バーモント州","code":"VT"},"geometry":{"type":"Polygon","coordinates":[[[-73.28203,42.74349],[-73.23971,43.56793],[-73.38311,43.57535],[-73.40164,43.61344],[-73.33813,43.75844],[-73.42967,44.01985],[-73.32914,44.22673],[-73.38417,44.37915],[-73.40797,44.67601],[-73.36828,44.8046],[-73.34766,45.00725],[-71.50509,45.00831],[-71.50351,45.0078],[-71.62046,44.7358],[-71.54638,44.5924],[-71.58552,44.46804],[-71.8099,44.35215],[-72.00304,44.30401],[-72.03637,44.20663],[-72.05914,44.04576],[-72.1782,43.8087],[-72.26021,43.72139],[-72.36976,43.52189],[-72.40361,43.28537],[-72.43431,43.22292],[-72.45865,42.96045],[-72.5375,42.8308],[-72.45707,42.72708],[-73.28203,42.74349]]]}},{"type":"Feature","properties":{"kind":"state","name":"ノースカロライナ州","code":"NC"},"geometry":{"type":"Polygon","coordinates":[[[-84.32097,34.98696],[-84.29875,35.19863],[-84.08708,35.26159],[-84.01776,35.369],[-83.87596,35.49021],[-83.67329,35.51667],[-83.43834,35.56269],[-83.20972,35.64896],[-83.11079,35.73733],[-82.92028,35.81722],[-82.92558,35.88972],[-82.67423,36.02519],[-82.59325,35.93734],[-82.22389,36.12573],[-82.05139,36.10614],[-81.8974,36.27391],[-81.69366,36.31729],[-81.70477,36.46015],[-81.67938,36.58557],[-82.0699,36.57048],[-81.67937,36.58557],[-79.9924,36.54219],[-77.99955,36.53744],[-76.94122,36.54588],[-75.99325,36.55056],[-75.86808,36.55118],[-75.72731,35.55052],[-76.36337,34.80862],[-77.39763,34.51201],[-78.05496,33.92547],[-78.55411,33.86142],[-79.67278,34.80757],[-80.78351,34.81764],[-80.78085,34.93404],[-80.93748,35.10339],[-81.03802,35.03724],[-81.04598,35.12561],[-81.51427,35.17165],[-82.43662,35.1801],[-82.97638,35.00866],[-83.07637,34.97903],[-84.32097,34.98696]]]}},{"type":"Feature","properties":{"kind":"state","name":"メイン州","code":"ME"},"geometry":{"type":"Polygon","coordinates":[[[-70.75102,43.08003],[-70.79761,43.21974],[-70.98176,43.3679],[-70.94416,43.46634],[-71.08482,45.30524],[-70.66002,45.46022],[-70.30495,45.91479],[-70.00014,46.69317],[-69.23709,47.44778],[-68.90478,47.1848],[-68.23431,47.35463],[-67.79035,47.06625],[-67.79141,45.70258],[-67.13734,45.13745],[-66.96466,44.8097],[-68.03252,44.3252],[-69.06,43.98],[-70.11617,43.68405],[-70.64573,43.09008],[-70.75102,43.08003]]]}}]}