{"type":"FeatureCollection","features":[{"type":"Feature","properties":{"id":"250","precipitation_mm":250,"major":false,"kind":"isohyet","unit":"mm/year"},"geometry":{"type":"MultiLineString","coordinates":[[[-140.784093,68.934588],[-140.766892,68.933763],[-140.453037,68.925919],[-140.308987,68.927119],[-140.160172,68.930417],[-139.88447,68.945159],[-139.622487,68.968396],[-139.544554,68.977735],[-139.371643,68.998623],[-139.129977,69.034745],[-138.895293,69.07569],[-138.665679,69.120087],[-138.438373,69.166399]],[[-135.168068,69.259995],[-135.010679,69.23774],[-134.845251,69.210476],[-134.646634,69.180459],[-134.526715,69.159885],[-134.286351,69.123816],[-134.202167,69.10993],[-133.936521,69.073126],[-133.860608,69.062203],[-133.599848,69.031023],[-133.489725,69.01859]],[[-132.619503,68.948895],[-132.656111,68.950605]],[[-132.355264,68.933106],[-132.119036,68.92223],[-132.058699,68.918424],[-131.763833,68.904268],[-131.593903,68.897612],[-131.470502,68.890622],[-131.177873,68.876691],[-131.064661,68.872032],[-130.885227,68.861849],[-130.592811,68.846355],[-130.542447,68.843956],[-130.299858,68.829216],[-130.031368,68.812934],[-130.006847,68.811154],[-129.713401,68.791389],[-129.531139,68.779005],[-129.41972,68.770443],[-129.126044,68.748242],[-129.044061,68.742073],[-128.832508,68.724968],[-128.564601,68.703018],[-128.539228,68.700849],[-128.24705,68.676414],[-128.084547,68.662695],[-127.95577,68.65182],[-127.665963,68.627578],[-127.59841,68.621964],[-127.378218,68.604389],[-127.0927,68.582154],[-127.092234,68.58212],[-126.809529,68.562296],[-126.546855,68.545188],[-126.528965,68.544138],[-126.252013,68.529257],[-125.977704,68.516961],[-125.921854,68.51491],[-125.70716,68.508445],[-125.439889,68.503556],[-125.175822,68.502575],[-125.082809,68.50359],[-124.915507,68.506004],[-124.658568,68.513979],[-124.405114,68.526688],[-124.155043,68.544409],[-123.908418,68.567365],[-123.665104,68.595816],[-123.425213,68.63],[-123.188578,68.670205],[-123.121799,68.683409],[-122.955184,68.716503],[-122.724967,68.769259],[-122.497713,68.828519],[-122.48864,68.831101],[-122.273555,68.894686],[-122.075579,68.958783],[-122.051804,68.96693],[-121.832429,69.045791],[-121.742604,69.079151],[-121.614647,69.129886],[-121.449059,69.195742],[-121.397361,69.217733],[-121.179568,69.307864],[-121.173151,69.31042],[-120.960669,69.399269],[-120.896537,69.424474],[-120.738938,69.488839]],[[-113.438565,70.767413],[-113.156545,70.785088],[-113.039103,70.790431],[-112.873486,70.798385],[-112.589443,70.806797],[-112.304497,70.809937],[-112.018941,70.807533],[-111.960927,70.805928],[-111.733014,70.799707],[-111.446975,70.785945],[-111.160912,70.76563],[-110.875178,70.738104],[-110.739404,70.72167],[-110.590093,70.703394],[-110.305899,70.660683],[-110.134303,70.629522],[-110.022981,70.608839],[-109.741742,70.547059],[-109.69668,70.535685],[-109.462648,70.474497],[-109.351604,70.441058],[-109.186136,70.389074],[-109.065445,70.34614],[-108.912882,70.289103],[-108.821716,70.251028],[-108.643661,70.172311],[-108.610059,70.155894],[-108.423892,70.060728],[-108.379143,70.036719],[-108.257599,69.965547],[-108.120237,69.879663],[-108.106604,69.870422],[-107.968706,69.77529],[-107.867701,69.701885],[-107.839945,69.680189],[-107.718684,69.585132],[-107.621595,69.50723],[-107.601557,69.490062],[-107.486988,69.394914],[-107.38077,69.307814],[-107.371436,69.29972],[-107.253314,69.204345]],[[-106.499269,68.722978],[-106.432312,68.690373],[-106.289612,68.624949],[-106.195157,68.583818],[-106.051579,68.525829],[-105.958005,68.489058],[-105.783136,68.425553],[-105.721167,68.403263],[-105.484646,68.324262],[-105.4837,68.323967],[-105.248721,68.250422],[-105.146769,68.220383],[-105.013319,68.180817],[-104.780067,68.115149],[-104.778593,68.114732]],[[-104.372828,68.007295],[-104.31071,67.991276],[-104.077594,67.933558],[-103.922793,67.89665],[-103.844925,67.878278],[-103.612621,67.82559],[-103.411609,67.781906],[-103.380591,67.775275],[-103.148577,67.727672],[-102.916735,67.682551],[-102.795484,67.660136],[-102.68479,67.640093],[-102.452736,67.600395],[-102.220426,67.563372],[-101.987765,67.529099],[-101.942945,67.522979],[-101.754564,67.497695],[-101.520848,67.469156],[-101.286399,67.443507],[-101.051117,67.420821],[-100.814943,67.401159],[-100.577718,67.384594],[-100.339218,67.371194],[-100.099339,67.361077],[-99.858032,67.354368],[-99.614934,67.351246],[-99.369858,67.351942],[-99.276937,67.353799],[-99.122585,67.356438],[-98.873015,67.365058],[-98.620487,67.378471],[-98.484889,67.388386],[-98.364801,67.396817],[-98.105414,67.420633],[-97.941431,67.439492],[-97.841573,67.450895],[-97.572729,67.488385],[-97.51091,67.498539],[-97.297397,67.534521],[-97.153195,67.562855],[-97.014151,67.591509],[-96.846009,67.630933],[-96.720267,67.662617],[-96.578345,67.702263],[-96.411563,67.753601]],[[-96.206224,75.009876],[-95.909638,75.072582],[-95.847147,75.08456],[-95.456031,75.146042],[-95.402386,75.153058],[-95.021214,75.19637],[-94.836007,75.212645],[-94.598692,75.231755],[-94.18539,75.256295],[-94.10654,75.259395],[-93.779967,75.271867]],[[-97.207354,73.712765],[-97.160727,73.664483]],[[-70.135303,82.988556],[-70.735153,83.015475]],[[-92.208952,75.280801],[-91.824309,75.274976],[-91.743751,75.273184],[-91.442101,75.266736],[-91.060629,75.257654],[-90.678068,75.249108],[-90.29242,75.242551],[-90.24273,75.24187],[-89.903077,75.237973],[-89.504613,75.239188],[-89.213272,75.246016],[-89.091599,75.249408],[-88.658096,75.271823],[-88.539523,75.281471],[-88.193407,75.312327],[-88.031201,75.332157],[-87.684493,75.377632],[-87.604412,75.390615]],[[-96.052928,71.30754],[-96.060335,71.211467],[-96.064648,71.115175],[-96.065372,71.018651],[-96.064046,70.998533],[-96.065023,70.922004],[-96.061506,70.825126],[-96.053542,70.727937]],[[-67.937952,82.880988],[-68.415099,82.905066]],[[-96.027718,70.532772],[-96.009093,70.434721],[-95.984386,70.336232],[-95.982568,70.331245],[-95.958999,70.237615],[-95.927322,70.138544],[-95.896507,70.062683],[-95.889615,70.038918],[-95.849803,69.939056],[-95.801477,69.838522]],[[-67.655421,82.866108],[-66.906049,82.825541],[-66.157319,82.785011],[-65.849766,82.76834]],[[-65.418441,82.742989],[-64.687881,82.69975],[-63.94798,82.657893],[-63.888207,82.654644]],[[-95.564775,69.43203],[-95.545263,69.404688]],[[-62.218511,82.422333],[-62.501896,82.321362],[-62.556481,82.302012],[-62.807784,82.22425],[-63.097682,82.125922],[-63.194182,82.090616],[-63.383397,82.027706],[-63.657235,81.92868],[-63.778607,81.881113]],[[-88.888578,73.282499],[-88.728218,73.169078],[-88.705035,73.1582],[-88.483025,73.064315],[-88.383705,73.028361],[-88.240965,72.986753],[-87.983421,72.921759],[-87.715206,72.865644],[-87.436413,72.817926],[-87.147181,72.778321],[-86.84695,72.746687]],[[-82.711737,76.415921],[-82.735841,76.412077]],[[-82.012321,76.523472],[-82.346344,76.47165]],[[-81.960316,76.53163],[-81.576804,76.59156],[-81.277387,76.63921],[-81.197451,76.652022],[-80.821316,76.71269],[-80.497627,76.765874],[-80.449264,76.773863],[-80.080571,76.835287],[-79.716028,76.897304],[-79.658664,76.907183]],[[-85.607646,73.790658],[-85.348103,73.722214],[-85.141298,73.656622]],[[-85.495775,72.721808],[-85.29407,72.7419],[-85.074778,72.767763],[-84.925124,72.795014],[-84.661179,72.862539],[-84.478763,72.941457],[-84.370872,73.030833],[-84.337032,73.130675]],[[-69.677235,70.684415],[-69.693664,70.60868],[-69.65607,70.548049],[-69.541403,70.448631],[-69.514965,70.435086],[-69.371458,70.371157]],[[-68.131126,70.276801],[-68.14243,70.27544]]]}},{"type":"Feature","properties":{"id":"500","precipitation_mm":500,"major":false,"kind":"isohyet","unit":"mm/year"},"geometry":{"type":"MultiLineString","coordinates":[[[-140.822586,60.728425],[-140.781274,60.710981],[-140.630687,60.649781],[-140.477678,60.589435],[-140.410148,60.563861],[-140.321991,60.52975],[-140.163599,60.47087],[-140.033299,60.424344],[-140.00201,60.412907],[-139.837355,60.355795]],[[-139.05998,60.120656],[-138.942174,60.089629],[-138.775375,60.049752],[-138.742374,60.041791],[-138.533066,59.996468],[-138.50637,59.991286],[-138.312242,59.954041],[-138.250585,59.943509],[-138.078003,59.914909],[-138.005301,59.904193],[-137.828848,59.879483],[-137.768486,59.871947],[-137.563111,59.848022],[-137.538832,59.845483],[-137.315078,59.823888],[-137.27928,59.820746],[-137.096054,59.806112],[-136.977694,59.797488],[-136.880309,59.790997],[-136.667014,59.777814],[-136.660871,59.777463],[-136.456576,59.76672],[-136.329662,59.760229],[-136.247299,59.756366],[-136.039251,59.746687],[-135.989267,59.744348]],[[-135.21407,59.710135],[-135.008648,59.700596],[-134.942563,59.69724],[-134.803434,59.690924],[-134.598072,59.680415],[-134.591654,59.680063],[-134.393809,59.670582],[-134.238658,59.662333],[-134.189365,59.660111],[-133.986283,59.650594],[-133.878035,59.645402],[-133.784328,59.64188],[-133.584498,59.63506],[-133.493496,59.632619],[-133.387323,59.630955],[-133.193712,59.630589],[-133.039127,59.633642],[-133.004004,59.634599],[-132.819316,59.644327],[-132.639648,59.660006],[-132.465395,59.682219],[-132.29652,59.71117],[-132.132834,59.746701],[-131.973935,59.788374],[-131.818877,59.835398],[-131.66673,59.886378],[-131.515883,59.939589],[-131.464039,59.957887],[-131.365414,59.993806],[-131.213736,60.047019],[-131.05924,60.097179],[-130.901029,60.142846],[-130.738114,60.18297],[-130.570003,60.216533],[-130.395982,60.242469],[-130.215086,60.259345],[-130.025962,60.264925],[-129.866538,60.258178],[-129.826708,60.256453],[-129.616371,60.232102],[-129.54925,60.218995],[-129.390497,60.184856],[-129.319789,60.163762],[-129.14568,60.109032],[-129.127763,60.101879],[-128.920501,60.042317],[-128.907144,60.039791],[-128.705243,60.0227],[-128.521936,60.032636],[-128.343639,60.049973],[-128.219026,60.065103],[-128.167922,60.071205],[-127.99353,60.094622],[-127.819521,60.118981],[-127.645922,60.143941],[-127.472452,60.169391],[-127.299049,60.195289],[-127.125754,60.221597],[-126.952572,60.248324],[-126.779572,60.275469],[-126.606591,60.303081],[-126.433667,60.331189],[-126.260924,60.359814],[-126.088256,60.389014],[-126.000192,60.404163],[-125.915906,60.418906],[-125.743678,60.449592],[-125.571671,60.481046],[-125.399972,60.51334],[-125.228467,60.546611],[-125.057294,60.580958],[-124.886598,60.616512],[-124.716255,60.653486],[-124.546424,60.692088],[-124.539268,60.693752],[-124.377401,60.732727],[-124.209152,60.775474],[-124.041656,60.820777],[-123.875977,60.868917],[-123.875352,60.869106],[-123.710386,60.920902],[-123.547045,60.977041],[-123.454234,61.011599],[-123.38562,61.038304],[-123.226583,61.105625],[-123.156087,61.138561],[-123.070262,61.180155],[-122.930152,61.256611],[-122.917457,61.263642],[-122.767579,61.354892],[-122.746221,61.369503],[-122.619888,61.452973],[-122.583745,61.479733],[-122.472676,61.554172],[-122.424844,61.589313],[-122.322982,61.652373],[-122.248841,61.70034],[-122.168433,61.741972],[-122.015867,61.816761],[-122.007639,61.819998],[-121.837579,61.87884],[-121.660226,61.922698],[-121.474118,61.947317],[-121.277971,61.948805],[-121.067933,61.91664],[-121.044867,61.910197],[-120.862917,61.834429],[-120.825995,61.80416],[-120.76123,61.751261],[-120.705129,61.664068],[-120.679084,61.574205],[-120.67359,61.482543],[-120.677014,61.431255],[-120.684863,61.389465],[-120.708009,61.295259],[-120.732859,61.200963],[-120.749782,61.129465],[-120.757962,61.106668],[-120.783619,61.012291],[-120.800387,60.918726],[-120.808442,60.826149],[-120.808548,60.796334],[-120.811008,60.73397],[-120.805713,60.642624],[-120.792542,60.552065],[-120.772784,60.462155],[-120.747569,60.37282],[-120.71787,60.283884],[-120.684588,60.195406],[-120.648458,60.107255],[-120.610097,60.019286],[-120.570098,59.931539],[-120.528926,59.843969],[-120.486978,59.756542],[-120.444514,59.669124],[-120.401821,59.581809],[-120.359068,59.494555],[-120.316363,59.407383],[-120.273734,59.320238],[-120.231137,59.233096],[-120.219387,59.209183],[-120.188462,59.145969],[-120.145642,59.05896],[-120.102513,58.972003],[-120.05891,58.885091],[-120.014664,58.798274],[-119.969668,58.711651],[-119.923707,58.62509],[-119.876747,58.538721],[-119.828713,58.45243],[-119.779748,58.366353],[-119.729967,58.280366],[-119.729113,58.278906],[-119.678996,58.194466],[-119.627722,58.10862],[-119.576731,58.022837],[-119.526687,57.93702],[-119.47831,57.851006],[-119.432527,57.764945],[-119.389982,57.678533],[-119.351398,57.591862],[-119.317184,57.504816],[-119.296181,57.442931],[-119.287482,57.41748],[-119.270526,57.358245],[-119.262307,57.329665],[-119.241017,57.241612],[-119.222867,57.153387],[-119.206699,57.06501],[-119.191105,56.976598],[-119.174465,56.888279],[-119.155121,56.800333],[-119.131429,56.712764],[-119.102058,56.62581],[-119.066024,56.539377],[-119.023057,56.453753],[-118.986202,56.391248],[-118.97332,56.368645],[-118.918207,56.284058],[-118.858948,56.19987],[-118.797773,56.115872],[-118.738437,56.031755],[-118.714046,55.992256],[-118.685821,55.947114],[-118.64566,55.861416],[-118.628542,55.773856],[-118.641183,55.724198],[-118.656435,55.682364],[-118.767994,55.610043],[-118.895836,55.572557],[-118.914159,55.568929],[-119.06542,55.546857],[-119.219458,55.53494],[-119.374289,55.526113],[-119.526069,55.506951],[-119.670639,55.464109],[-119.774691,55.401543],[-119.802499,55.380536],[-119.866631,55.303352],[-119.89604,55.211377],[-119.882128,55.128499],[-119.881347,55.123733],[-119.880096,55.121818],[-119.826342,55.040172],[-119.720938,54.96163],[-119.669075,54.936448],[-119.527818,54.891591],[-119.499214,54.884514],[-119.340106,54.867838],[-119.187873,54.875107],[-119.041261,54.902601],[-118.899488,54.948572],[-118.894627,54.950572],[-118.763233,55.01613],[-118.690561,55.05739],[-118.631822,55.104295],[-118.557044,55.157704],[-118.505318,55.213455],[-118.449997,55.255594],[-118.379784,55.329667],[-118.339157,55.353608],[-118.245787,55.416129],[-118.099622,55.456905],[-118.018286,55.468617],[-117.948392,55.478706],[-117.794752,55.49064],[-117.667569,55.495978],[-117.639714,55.497314],[-117.484109,55.501498],[-117.328145,55.503579],[-117.171709,55.503821],[-117.014852,55.501878],[-116.857377,55.496707],[-116.698883,55.486213],[-116.641934,55.480305],[-116.53908,55.467961],[-116.376498,55.434773],[-116.309802,55.413249],[-116.209133,55.374752],[-116.13822,55.335535],[-116.033917,55.268908],[-116.01643,55.254571],[-115.913817,55.172422],[-115.852802,55.123478],[-115.816017,55.089978],[-115.717854,55.00754],[-115.672127,54.971268],[-115.616144,54.925262],[-115.511822,54.843084],[-115.494984,54.829969],[-115.404751,54.760986],[-115.319937,54.691714],[-115.303148,54.678571],[-115.207832,54.5958],[-115.142261,54.527474],[-115.127403,54.512236],[-115.057256,54.428054],[-115.000141,54.343319],[-114.951564,54.263993],[-114.948257,54.258323],[-114.890703,54.17355],[-114.810089,54.089964],[-114.773408,54.066914],[-114.66761,54.009423],[-114.613202,53.986366],[-114.457812,53.936488],[-114.436027,53.932847],[-114.305713,53.908096],[-114.154854,53.8875],[-114.008307,53.864114],[-114.003767,53.863191],[-113.85161,53.82727],[-113.745699,53.787278],[-113.69644,53.760798],[-113.616567,53.704955],[-113.539731,53.620596],[-113.525486,53.53399],[-113.562063,53.445571],[-113.603691,53.356917],[-113.611266,53.269695],[-113.576783,53.183942],[-113.557566,53.097778],[-113.551953,53.011102],[-113.559697,52.923973],[-113.583784,52.836319],[-113.59535,52.812278],[-113.62476,52.748015],[-113.690796,52.658714],[-113.71948,52.632002],[-113.774982,52.56871],[-113.846978,52.493644],[-113.856589,52.478835],[-113.872997,52.39155],[-113.859289,52.305526],[-113.844293,52.219657],[-113.835085,52.133567],[-113.834094,52.047218],[-113.841881,51.960506],[-113.857934,51.873548],[-113.881114,51.786289],[-113.902562,51.72153],[-113.909283,51.698901],[-113.938811,51.611408],[-113.971264,51.523848],[-114.007758,51.436171],[-114.009108,51.433501],[-114.041304,51.348652],[-114.078765,51.260953],[-114.117878,51.179198],[-114.119881,51.173178],[-114.141369,51.086226],[-114.100734,51.029631],[-114.081084,51.00303],[-114.000404,50.920778],[-113.945544,50.859704],[-113.923551,50.83834],[-113.840991,50.756193],[-113.793776,50.708473],[-113.761589,50.67386],[-113.695741,50.590895],[-113.651825,50.507147],[-113.629969,50.422494],[-113.628486,50.337102],[-113.647542,50.250869],[-113.689073,50.163761],[-113.731408,50.104249],[-113.74625,50.076041],[-113.783046,49.989126],[-113.792462,49.903454],[-113.798529,49.818029],[-113.814017,49.732187],[-113.82202,49.696799],[-113.831672,49.646257],[-113.814953,49.62815],[-113.682322,49.615401],[-113.549732,49.602367],[-113.433414,49.577619],[-113.415986,49.574906],[-113.281206,49.533584],[-113.213973,49.500812],[-113.144014,49.459891],[-113.090411,49.420331],[-113.011826,49.338113],[-113.002261,49.322975],[-112.957642,49.255126],[-112.922066,49.171557],[-112.896858,49.087678],[-112.872632,49.003771]],[[-120.129606,49.057958],[-120.133533,49.060662],[-120.219096,49.133345],[-120.301829,49.194483],[-120.316033,49.20789],[-120.408938,49.282941],[-120.469396,49.321305],[-120.50619,49.357387],[-120.579021,49.434796],[-120.588623,49.519941],[-120.565688,49.60904],[-120.56031,49.639612],[-120.534574,49.699173],[-120.51964,49.787412],[-120.524073,49.87337],[-120.548166,49.956975],[-120.596145,50.037797],[-120.677754,50.114625],[-120.703563,50.131391],[-120.795988,50.186979],[-120.864336,50.216462],[-120.972392,50.252081],[-121.014571,50.264477],[-121.159042,50.292229],[-121.287776,50.299263],[-121.297601,50.300345],[-121.435489,50.305549],[-121.577876,50.324776],[-121.596669,50.346406],[-121.632465,50.428827],[-121.665625,50.511622],[-121.695372,50.594896],[-121.719632,50.678982],[-121.737,50.76401],[-121.747039,50.845154],[-121.746928,50.850117],[-121.740714,50.938343],[-121.726462,51.027622],[-121.704177,51.118131],[-121.701517,51.128601],[-121.59191,51.219817],[-121.455986,51.231686],[-121.306929,51.202391],[-121.240482,51.177088],[-121.144222,51.12879],[-121.109745,51.105935],[-121.026585,51.028807],[-120.957374,50.974263],[-120.936286,50.952678],[-120.806802,50.93432],[-120.742408,50.975997],[-120.719041,51.066027],[-120.712795,51.081876],[-120.671185,51.158908],[-120.610549,51.204641],[-120.486773,51.256804],[-120.386138,51.279324],[-120.355804,51.285638],[-120.277325,51.291703],[-120.219296,51.295749],[-120.070941,51.264215],[-120.02764,51.232549],[-119.941348,51.155001],[-119.887105,51.103952],[-119.865505,51.076265],[-119.796105,50.996888],[-119.718731,50.918419],[-119.691899,50.895797],[-119.633397,50.840738],[-119.524412,50.765706],[-119.518929,50.762912],[-119.408139,50.6912],[-119.356425,50.665098],[-119.294698,50.616464],[-119.228616,50.536783],[-119.209638,50.452247],[-119.197791,50.36699],[-119.182738,50.282145],[-119.161396,50.198056],[-119.132753,50.114673],[-119.097108,50.032084],[-119.057125,49.950052],[-119.023012,49.88205],[-119.016265,49.868129],[-118.977454,49.785975],[-118.941648,49.703632],[-118.910281,49.620818],[-118.884661,49.537557],[-118.865919,49.453577],[-118.855309,49.368826],[-118.854235,49.283204],[-118.861757,49.217103],[-118.864573,49.196426],[-118.889754,49.108138],[-118.933593,49.018033]],[[-105.348047,49.011765],[-105.273357,49.092625],[-105.222571,49.104297],[-105.086744,49.150681],[-105.052551,49.165286],[-104.949502,49.204878],[-104.874274,49.24004],[-104.810079,49.271809],[-104.727767,49.316454],[-104.66819,49.35231],[-104.601307,49.393874],[-104.523469,49.447657],[-104.488276,49.472024],[-104.383951,49.550651],[-104.375819,49.557279],[-104.284422,49.629575],[-104.225339,49.679165],[-104.189161,49.708721],[-104.09577,49.787992],[-104.072613,49.80838],[-104.003286,49.867184],[-103.918741,49.938174],[-103.908805,49.946311],[-103.80957,50.025029],[-103.765877,50.055441],[-103.700555,50.103011],[-103.615124,50.155285],[-103.581661,50.180235],[-103.468896,50.257828],[-103.462118,50.262301],[-103.382846,50.337301],[-103.322839,50.418737],[-103.300116,50.503011],[-103.328679,50.591132],[-103.392857,50.645527],[-103.511252,50.690538],[-103.519971,50.693034],[-103.547433,50.693122],[-103.655436,50.694811],[-103.797546,50.658009],[-103.885531,50.630696],[-103.940408,50.61444],[-104.038723,50.55512],[-104.097968,50.478426],[-104.103253,50.473588],[-104.243323,50.412042],[-104.375917,50.424821],[-104.503107,50.473605],[-104.553772,50.502],[-104.628558,50.536777],[-104.75659,50.584581],[-104.813395,50.603088],[-104.883758,50.640747],[-104.983151,50.698532],[-105.00753,50.724447],[-105.065122,50.788875],[-105.105301,50.876963],[-105.116185,50.923599],[-105.12561,50.963987],[-105.136503,51.050477],[-105.146951,51.137043],[-105.165873,51.224117],[-105.191685,51.311613],[-105.198024,51.332726],[-105.216281,51.398996],[-105.237325,51.486279],[-105.2537,51.573315],[-105.267146,51.660272],[-105.282217,51.739631],[-105.283844,51.747433],[-105.299094,51.834582],[-105.307104,51.921359],[-105.305678,52.007763],[-105.292323,52.09351],[-105.263061,52.178615],[-105.212042,52.259361],[-105.210003,52.262517],[-105.117555,52.344339],[-105.055,52.368786],[-104.909685,52.391596],[-104.766242,52.400402],[-104.69863,52.408259],[-104.621832,52.415411],[-104.475306,52.441922],[-104.362789,52.475407],[-104.325446,52.487655],[-104.188474,52.551701],[-104.170096,52.563281],[-104.076762,52.631614],[-104.005438,52.714073],[-103.998516,52.728723],[-103.963668,52.798444],[-103.951971,52.884768],[-103.96256,52.934757],[-103.971022,52.973143],[-104.024903,53.063734],[-104.075978,53.115627],[-104.122522,53.156985],[-104.203917,53.218279],[-104.256116,53.25236],[-104.334759,53.30799],[-104.410415,53.348792],[-104.468469,53.383993],[-104.605546,53.442442],[-104.625298,53.448343],[-104.745052,53.487926],[-104.886954,53.519596],[-105.030698,53.540355],[-105.175899,53.55215],[-105.322271,53.556197],[-105.469487,53.553477],[-105.617377,53.544941],[-105.76577,53.531521],[-105.914554,53.513974],[-105.926573,53.512394],[-106.063594,53.492912],[-106.212813,53.468264],[-106.34778,53.44216],[-106.362169,53.43927],[-106.511698,53.406718],[-106.661574,53.367858],[-106.665414,53.366725],[-106.811061,53.328038],[-106.941762,53.288907],[-106.960557,53.284334],[-107.109013,53.248744],[-107.256486,53.220593],[-107.33976,53.213881],[-107.402392,53.210452],[-107.460909,53.217187],[-107.546317,53.22624],[-107.686978,53.292482],[-107.706016,53.310273],[-107.744022,53.398097],[-107.724953,53.484586],[-107.68404,53.570671],[-107.665336,53.610334],[-107.635124,53.656538],[-107.595656,53.742681],[-107.574226,53.829296],[-107.570602,53.916364],[-107.583933,54.003951],[-107.613537,54.091945],[-107.629566,54.123809],[-107.656174,54.180318],[-107.712976,54.268993],[-107.764642,54.332883],[-107.785238,54.358091],[-107.872582,54.447437],[-107.905517,54.476578],[-107.978953,54.537188],[-108.049504,54.588349],[-108.109844,54.627301],[-108.195695,54.677503],[-108.277965,54.717904],[-108.343646,54.748018],[-108.492934,54.801687],[-108.521745,54.80942],[-108.643268,54.841194],[-108.794451,54.866465],[-108.946366,54.878601],[-109.098695,54.87865],[-109.251227,54.866926],[-109.403891,54.842456],[-109.493634,54.81917],[-109.556504,54.804497],[-109.708957,54.750208],[-109.744391,54.732568],[-109.860977,54.67228],[-109.899299,54.645327],[-110.002669,54.557893],[-110.012299,54.548443],[-110.077487,54.470413],[-110.14954,54.382917],[-110.162149,54.371642],[-110.287916,54.295263],[-110.311351,54.28074],[-110.460046,54.217965],[-110.491789,54.207128],[-110.608221,54.158652],[-110.718533,54.118479],[-110.756023,54.101727],[-110.903384,54.048062],[-110.973822,54.029032],[-111.050507,54.002706],[-111.197926,53.976639],[-111.346408,53.982548],[-111.496355,54.019205],[-111.5043,54.022279],[-111.646905,54.062747],[-111.789809,54.104739],[-111.797913,54.106733],[-111.949038,54.145176],[-112.100288,54.179362],[-112.128955,54.185275],[-112.251585,54.210914],[-112.403137,54.24142],[-112.512662,54.263532],[-112.555102,54.272957],[-112.707662,54.308395],[-112.833116,54.342184],[-112.861184,54.350677],[-113.016076,54.40407],[-113.061637,54.422828],[-113.172926,54.472358],[-113.235485,54.504829],[-113.332047,54.556849],[-113.382689,54.587464],[-113.493473,54.65574],[-113.51526,54.670479],[-113.6353,54.753846],[-113.657684,54.77008],[-113.742002,54.837628],[-113.826113,54.911062],[-113.837353,54.921814],[-113.924843,55.006272],[-113.99957,55.081044],[-114.008212,55.090901],[-114.090135,55.175522],[-114.175553,55.256489],[-114.178639,55.259887],[-114.276917,55.343816],[-114.348026,55.391469],[-114.399344,55.426659],[-114.516747,55.48901],[-114.55965,55.507662],[-114.682368,55.557871],[-114.77687,55.585871],[-114.846203,55.610018],[-115.009181,55.653122],[-115.049029,55.660976],[-115.172547,55.695162],[-115.326733,55.735077],[-115.336594,55.738802],[-115.503764,55.798003],[-115.540471,55.812126],[-115.671401,55.893359],[-115.679287,55.90079],[-115.757817,55.977089],[-115.814684,56.062492],[-115.855839,56.148807],[-115.888149,56.2357],[-115.915114,56.322441],[-115.915256,56.322896],[-115.939571,56.41024],[-115.961978,56.497795],[-115.9832,56.585427],[-116.003453,56.673211],[-116.022514,56.761088],[-116.039838,56.849065],[-116.054612,56.937299],[-116.06571,57.025742],[-116.071841,57.114496],[-116.072101,57.142857],[-116.071656,57.203698],[-116.063318,57.293464],[-116.044858,57.383744],[-116.01442,57.474783],[-115.984458,57.540119],[-115.969301,57.566621],[-115.903052,57.659669],[-115.851831,57.717407],[-115.804967,57.754466],[-115.703707,57.820324],[-115.608933,57.854336],[-115.545565,57.873463],[-115.381665,57.897707],[-115.215168,57.907528],[-115.047404,57.91058],[-114.879148,57.910245],[-114.710617,57.907994],[-114.546337,57.904521],[-114.542062,57.904456],[-114.373327,57.900004],[-114.204627,57.894689],[-114.035899,57.88856],[-113.867134,57.881669],[-113.698482,57.874111],[-113.529761,57.866013],[-113.377908,57.858364],[-113.361253,57.857597],[-113.192754,57.849239],[-113.024454,57.841065],[-112.856369,57.833443],[-112.688433,57.826801],[-112.520703,57.821632],[-112.353273,57.818472],[-112.18598,57.817891],[-112.019036,57.820515],[-111.852251,57.827022],[-111.685634,57.838194],[-111.519244,57.854991],[-111.35294,57.878718],[-111.220732,57.904392],[-111.186734,57.910745],[-111.020516,57.951461],[-110.881273,57.996758],[-110.854232,58.005398],[-110.687688,58.073968],[-110.661741,58.08744],[-110.520655,58.162884],[-110.498795,58.177391],[-110.368915,58.267134],[-110.353036,58.278454],[-110.259776,58.356621],[-110.184341,58.422275],[-110.159429,58.446029],[-110.062088,58.535444],[-110.01395,58.580074],[-109.962656,58.624771],[-109.863056,58.714013],[-109.841787,58.734798],[-109.761618,58.803215],[-109.667812,58.891476],[-109.666553,58.892497],[-109.569535,58.981564],[-109.491793,59.059319],[-109.478749,59.070734],[-109.385204,59.159761],[-109.313643,59.230183],[-109.292435,59.248858],[-109.19296,59.337792],[-109.133858,59.388575],[-109.085728,59.426701],[-108.964447,59.515396],[-108.95293,59.522664],[-108.813338,59.603613],[-108.771765,59.62289],[-108.591013,59.688474],[-108.58019,59.690754],[-108.411004,59.725072],[-108.231591,59.744807],[-108.052427,59.756218],[-107.873532,59.762381],[-107.694824,59.764588],[-107.592364,59.763977],[-107.516404,59.763534],[-107.338163,59.759807],[-107.177696,59.754424],[-107.16022,59.753823],[-106.982482,59.745728],[-106.805066,59.735849],[-106.627852,59.724432],[-106.450932,59.711722],[-106.274292,59.697975],[-106.09784,59.683482],[-105.921631,59.668557],[-105.745552,59.653555],[-105.569639,59.638894],[-105.393678,59.625004],[-105.217652,59.612392],[-105.0414,59.601551],[-104.864874,59.593006],[-104.687784,59.587193],[-104.5102,59.584488],[-104.33197,59.585111],[-104.152954,59.589093],[-103.973204,59.596269],[-103.79269,59.606277],[-103.686276,59.613544],[-103.61159,59.618114],[-103.430023,59.630945],[-103.247993,59.64487],[-103.065653,59.659259],[-103.007612,59.663904],[-102.883119,59.672943],[-102.700593,59.685834],[-102.518091,59.697788],[-102.335758,59.708422],[-102.31496,59.709507],[-102.153682,59.717076],[-101.971977,59.723971],[-101.790598,59.728999],[-101.609613,59.732071],[-101.429166,59.733162],[-101.38435,59.733016],[-101.249121,59.73223],[-101.069722,59.729453],[-100.890668,59.724984],[-100.712181,59.718983],[-100.534109,59.711634],[-100.356398,59.703141],[-100.178975,59.69372],[-100.001875,59.683605],[-99.824983,59.673015],[-99.648156,59.662179],[-99.471452,59.651326],[-99.294592,59.640663],[-99.194336,59.634884],[-99.117642,59.630373],[-98.940591,59.620608],[-98.763194,59.611529],[-98.585581,59.603233],[-98.407546,59.595745],[-98.229219,59.589039],[-98.050556,59.583034],[-97.871626,59.577613],[-97.711305,59.573208],[-97.692386,59.572624],[-97.513105,59.567719],[-97.3336,59.56302],[-97.154065,59.558472],[-96.974321,59.554042],[-96.794506,59.549738],[-96.687004,59.547339],[-96.614571,59.545434],[-96.434573,59.541037],[-96.254437,59.536848],[-96.074072,59.532939],[-95.893488,59.529397],[-95.783706,59.527556],[-95.712594,59.526059],[-95.531572,59.522804],[-95.350231,59.520064],[-95.168375,59.517904],[-94.998798,59.516495],[-94.986235,59.516341]],[[-81.838821,64.216056],[-81.917866,64.130612]],[[-82.088292,63.962924],[-82.181462,63.881137]],[[-73.643305,66.413764],[-73.713549,66.411395]],[[-73.404748,66.423202],[-73.298622,66.426503],[-73.096361,66.433978],[-72.952192,66.438089],[-72.788488,66.443663],[-72.604142,66.448432],[-72.481341,66.452191],[-72.254012,66.457414],[-72.175126,66.459506],[-71.901758,66.464914],[-71.869763,66.465608],[-71.565404,66.470508],[-71.546731,66.470739],[-71.26177,66.474205],[-71.189642,66.475022],[-70.958559,66.477081],[-70.832427,66.478463],[-70.654837,66.479568],[-70.476995,66.481611],[-70.349426,66.482179],[-70.124893,66.485105],[-70.041419,66.48543],[-69.778181,66.489553],[-69.729464,66.489781],[-69.438165,66.495425],[-69.412701,66.4956],[-69.105159,66.503006],[-69.090546,66.503158],[-68.779176,66.512394],[-68.762388,66.512648],[-68.460169,66.523511],[-68.427642,66.524192],[-68.147201,66.536219],[-68.085966,66.537914],[-67.839761,66.550334],[-67.736532,66.553992],[-67.537119,66.565694],[-67.378674,66.572689],[-67.238822,66.58216],[-67.01103,66.594458],[-66.944348,66.59964],[-66.654439,66.618349],[-66.632882,66.619423],[-66.37065,66.638911],[-66.245382,66.646851],[-66.090311,66.660475],[-65.839694,66.680372],[-65.813398,66.683094],[-65.543844,66.708119],[-65.416639,66.719164],[-65.278549,66.734567],[-65.018391,66.762875],[-64.961962,66.768701],[-64.765533,66.793807],[-64.518015,66.826745],[-64.459147,66.834601],[-64.278264,66.862709],[-64.045616,66.901451],[-63.852851,66.936753],[-63.820402,66.943169],[-63.603705,66.98839],[-63.395244,67.037058]],[[-69.044352,63.719996],[-69.085399,63.820126],[-69.043107,63.860134],[-68.990945,63.905144],[-68.924508,63.920163],[-68.786771,63.948184],[-68.611343,63.938359],[-68.425423,63.892761],[-68.314176,63.810187],[-68.308476,63.762012]],[[-126.027892,53.866191],[-126.027731,53.852476],[-126.009793,53.764912],[-125.970332,53.747544],[-125.818618,53.750475],[-125.666639,53.75253],[-125.532817,53.754093],[-125.514729,53.754614],[-125.365139,53.761396],[-125.215165,53.767338],[-125.06598,53.77465],[-124.918904,53.786886],[-124.776179,53.808726],[-124.640079,53.845665],[-124.512646,53.902919],[-124.486577,53.919644],[-124.399233,53.993159],[-124.368853,54.027491],[-124.319163,54.124962],[-124.314,54.149475],[-124.307306,54.216722],[-124.311063,54.306301],[-124.324418,54.394488],[-124.347439,54.48128],[-124.381843,54.566412],[-124.430552,54.649455],[-124.497895,54.729821],[-124.58993,54.806491],[-124.611607,54.819776],[-124.726065,54.876523],[-124.807568,54.904398],[-124.938687,54.934799],[-124.982512,54.941464],[-125.145812,54.952654],[-125.302473,54.949499],[-125.453291,54.934152],[-125.598674,54.907425],[-125.738055,54.868733],[-125.869889,54.815385],[-125.934342,54.776534],[-125.98462,54.728131],[-126.011963,54.672667],[-126.012057,54.581659],[-125.986314,54.494914],[-125.951188,54.409871],[-125.915891,54.324882],[-125.896448,54.237308],[-125.898119,54.233965],[-125.913274,54.143754],[-125.962,54.047153],[-125.962245,54.04489],[-125.986619,53.950106],[-126.027892,53.866191]],[[-124.455178,51.691639],[-124.455255,51.689132],[-124.453454,51.687498],[-124.301292,51.624895],[-124.282928,51.620875],[-124.140818,51.622637],[-123.99989,51.627301],[-123.859308,51.632594],[-123.718972,51.638465],[-123.603377,51.64386],[-123.579016,51.645123],[-123.439723,51.653498],[-123.300409,51.661706],[-123.161026,51.669818],[-123.021838,51.678243],[-122.883136,51.688152],[-122.746122,51.70251],[-122.613608,51.729415],[-122.49569,51.797656],[-122.491489,51.803517],[-122.478736,51.893382],[-122.506053,51.977872],[-122.553816,52.059639],[-122.616148,52.139502],[-122.621037,52.144381],[-122.691886,52.217396],[-122.779705,52.293752],[-122.836027,52.335405],[-122.880599,52.3683],[-122.995963,52.440719],[-123.027454,52.458068],[-123.131898,52.510219],[-123.205274,52.541952],[-123.302731,52.574643],[-123.371966,52.594754],[-123.527478,52.617864],[-123.64193,52.614168],[-123.672142,52.613006],[-123.706965,52.604555],[-123.806257,52.582116],[-123.930993,52.528687],[-124.021846,52.468295],[-124.046913,52.454439],[-124.155864,52.364555],[-124.161047,52.357943],[-124.256758,52.256504],[-124.258336,52.253802],[-124.315435,52.155863],[-124.335345,52.096165],[-124.344075,52.062332],[-124.357412,51.971296],[-124.385748,51.877881],[-124.387487,51.874235],[-124.415172,51.784376],[-124.455178,51.691639]],[[-118.257926,53.032255],[-118.281406,52.977624],[-118.261911,52.891742],[-118.212634,52.843726],[-118.172459,52.812047],[-118.047423,52.75678],[-117.961947,52.742627],[-117.896736,52.729585],[-117.752374,52.729134],[-117.613585,52.75342],[-117.550435,52.776587],[-117.484218,52.822137],[-117.437484,52.872872],[-117.430398,52.960788],[-117.487636,53.043697],[-117.53931,53.073928],[-117.641882,53.118891],[-117.69756,53.130041],[-117.847622,53.147999],[-117.993911,53.149273],[-118.133782,53.123039],[-118.220439,53.070472],[-118.257926,53.032255]],[[-116.910219,51.407257],[-116.974176,51.344477],[-116.905253,51.263275],[-116.880968,51.25602],[-116.745317,51.268949],[-116.687149,51.279557],[-116.615526,51.313387],[-116.505447,51.379055],[-116.587599,51.459594],[-116.644139,51.467113],[-116.780638,51.454796],[-116.806608,51.443615],[-116.910219,51.407257]],[[-111.762786,53.439076],[-111.783963,53.408063],[-111.759163,53.368297],[-111.633433,53.323806],[-111.610961,53.314732],[-111.532714,53.325445],[-111.466972,53.346914],[-111.3889,53.414566],[-111.42684,53.500903],[-111.474443,53.519962],[-111.620284,53.510324],[-111.637519,53.497581],[-111.762786,53.439076]],[[-110.010696,49.679787],[-110.026788,49.644286],[-110.028743,49.559385],[-110.01064,49.510871],[-109.997601,49.474499],[-109.933847,49.389702],[-109.880514,49.341591],[-109.827438,49.304778],[-109.751013,49.260284],[-109.62936,49.219525],[-109.621625,49.216927],[-109.492254,49.199125],[-109.362485,49.206667],[-109.313509,49.217585],[-109.232368,49.232397],[-109.101849,49.264315],[-108.971133,49.297785],[-108.967071,49.298947],[-108.839608,49.349255],[-108.777428,49.381253],[-108.706328,49.438758],[-108.676364,49.464555],[-108.619043,49.548559],[-108.596288,49.633127],[-108.604483,49.7182],[-108.65026,49.803943],[-108.692086,49.844592],[-108.756645,49.890501],[-108.82154,49.921709],[-108.952762,49.954783],[-109.084864,49.960712],[-109.217439,49.94588],[-109.350447,49.905617],[-109.366933,49.896999],[-109.48292,49.874965],[-109.614724,49.886799],[-109.746831,49.876139],[-109.878958,49.825602],[-109.897586,49.814113],[-109.988777,49.729182],[-110.010696,49.679787]]]}},{"type":"Feature","properties":{"id":"750","precipitation_mm":750,"major":false,"kind":"isohyet","unit":"mm/year"},"geometry":{"type":"MultiLineString","coordinates":[[[-133.754961,58.718679],[-133.655905,58.716677],[-133.563803,58.714929],[-133.372611,58.710543],[-133.263886,58.707609],[-133.180925,58.705315],[-132.988822,58.699087],[-132.881712,58.69503],[-132.795921,58.691476],[-132.601974,58.682029],[-132.517869,58.677281],[-132.406345,58.670086],[-132.208231,58.654389],[-132.183451,58.65218],[-132.006687,58.633587],[-131.887916,58.618055],[-131.799299,58.604535],[-131.636931,58.574081],[-131.582793,58.562404],[-131.426201,58.521458],[-131.351585,58.499529],[-131.245821,58.462459],[-131.10017,58.40741],[-131.082861,58.399742],[-130.927745,58.335437],[-130.841973,58.303279],[-130.768408,58.271847],[-130.594583,58.211221],[-130.594346,58.211132],[-130.394283,58.155382],[-130.37102,58.150424],[-130.164606,58.112566],[-130.141399,58.109708],[-129.971051,58.092253],[-129.7868,58.08496],[-129.775053,58.085198],[-129.608763,58.086486],[-129.435252,58.094366],[-129.264091,58.10572],[-129.093483,58.117929],[-129.092125,58.118033],[-128.922712,58.129673],[-128.749852,58.138323],[-128.573784,58.141628],[-128.447352,58.139577],[-128.393494,58.138105],[-128.208974,58.127257],[-128.064987,58.112315],[-128.01875,58.106718],[-127.822944,58.076366],[-127.777536,58.067856],[-127.620936,58.03448],[-127.539066,58.014515],[-127.411544,57.978958],[-127.33373,57.955423],[-127.193393,57.906579],[-127.153254,57.891917],[-126.99302,57.825028],[-126.962872,57.810566],[-126.84929,57.755295],[-126.722673,57.682851],[-126.712575,57.676258],[-126.608007,57.608359],[-126.507561,57.531695],[-126.420151,57.452973],[-126.410045,57.442326],[-126.342785,57.372639],[-126.276904,57.290512],[-126.222297,57.206753],[-126.178568,57.121264],[-126.145721,57.034148],[-126.123946,56.945359],[-126.118953,56.901287],[-126.112274,56.854995],[-126.110475,56.763182],[-126.120917,56.669378],[-126.134833,56.612747],[-126.142563,56.573854],[-126.174728,56.476673],[-126.200956,56.421161],[-126.219287,56.377572],[-126.276387,56.276337],[-126.284581,56.264632],[-126.343608,56.173454],[-126.378667,56.129355],[-126.423948,56.06839],[-126.478626,56.006791],[-126.516854,55.96106],[-126.582778,55.893582],[-126.621539,55.851703],[-126.6899,55.787325],[-126.7374,55.740252],[-126.799107,55.686114],[-126.863251,55.626886],[-126.909602,55.588496],[-126.996846,55.512052],[-127.020612,55.493169],[-127.131494,55.398627],[-127.134091,55.396172],[-127.241349,55.303213],[-127.263381,55.281519],[-127.34821,55.203589],[-127.379508,55.168883],[-127.448877,55.093619],[-127.472264,55.060262],[-127.534362,54.957488],[-127.53451,54.957143],[-127.559879,54.860576],[-127.55476,54.769668],[-127.521695,54.683932],[-127.466527,54.602197],[-127.394787,54.523585],[-127.312285,54.446962],[-127.22415,54.371465],[-127.211942,54.361366],[-127.130608,54.296827],[-127.038105,54.222096],[-126.948414,54.146884],[-126.938416,54.138395],[-126.85956,54.071561],[-126.774565,53.995553],[-126.692498,53.919037],[-126.65136,53.881215],[-126.610631,53.842593],[-126.526611,53.766456],[-126.436187,53.691531],[-126.384047,53.654738],[-126.333324,53.618746],[-126.213239,53.548958],[-126.167701,53.525272],[-126.073669,53.482452],[-125.973079,53.437111],[-125.922506,53.417879],[-125.784422,53.359438],[-125.768612,53.353628],[-125.61807,53.288715],[-125.594679,53.276859],[-125.477188,53.221968],[-125.39778,53.176672],[-125.352606,53.152603],[-125.242435,53.080739],[-125.182084,53.031871],[-125.148645,53.006206],[-125.068462,52.929502],[-125.004143,52.850199],[-124.953679,52.768713],[-124.915508,52.685348],[-124.888357,52.600217],[-124.871098,52.513537],[-124.86255,52.425489],[-124.861346,52.336408],[-124.862877,52.310691],[-124.8637,52.246648],[-124.869122,52.156522],[-124.876819,52.06609],[-124.881407,52.017324],[-124.88348,51.975831],[-124.885697,51.886305],[-124.88077,51.798044],[-124.863647,51.711863],[-124.82963,51.628494],[-124.774713,51.548604],[-124.695031,51.472748],[-124.630833,51.427965],[-124.586362,51.401681],[-124.451404,51.338241],[-124.444876,51.335935],[-124.287736,51.284671],[-124.257348,51.277366],[-124.131208,51.247241],[-124.020224,51.226272],[-123.97836,51.218278],[-123.827538,51.193343],[-123.746777,51.180249],[-123.677063,51.168644],[-123.525745,51.140944],[-123.483302,51.132056],[-123.372633,51.107532],[-123.261219,51.077142],[-123.216005,51.063776],[-123.080949,51.015733],[-123.054322,51.005084],[-122.932841,50.949302],[-122.885022,50.92356],[-122.809093,50.879374],[-122.704991,50.806546],[-122.703411,50.80532],[-122.608458,50.732579],[-122.519009,50.657665],[-122.510517,50.651097],[-122.417969,50.584296],[-122.332675,50.535701],[-122.296517,50.513762],[-122.165979,50.449649],[-122.15903,50.445418],[-122.029784,50.375769],[-121.999115,50.360472],[-121.913373,50.304349],[-121.826942,50.252249],[-121.80041,50.23236],[-121.663554,50.167901],[-121.653396,50.164862],[-121.515311,50.128941],[-121.412204,50.109484],[-121.370265,50.098833],[-121.222495,50.058763],[-121.19642,50.050347],[-121.067314,49.99294],[-121.046939,49.982464],[-120.943186,49.908765],[-120.888917,49.847695],[-120.87414,49.83075],[-120.827361,49.749958],[-120.79998,49.666871],[-120.784693,49.582333],[-120.771987,49.497488],[-120.750948,49.413772],[-120.717742,49.331567],[-120.677643,49.250305],[-120.637323,49.16911],[-120.600198,49.087537]],[[-117.746292,49.046639],[-117.787827,49.094312],[-117.804918,49.126792],[-117.799945,49.152365],[-117.765272,49.215776],[-117.724592,49.304919],[-117.726878,49.39027],[-117.751027,49.473681],[-117.788492,49.556005],[-117.835166,49.637519],[-117.886994,49.718595],[-117.93631,49.793475],[-117.939949,49.799696],[-117.988541,49.88113],[-118.036723,49.962673],[-118.086277,50.04411],[-118.141161,50.125131],[-118.143215,50.127738],[-118.199009,50.205857],[-118.267249,50.285681],[-118.326515,50.34278],[-118.345909,50.364566],[-118.426149,50.443239],[-118.500794,50.50996],[-118.511682,50.521531],[-118.590392,50.600328],[-118.666744,50.679383],[-118.681062,50.695237],[-118.734677,50.759346],[-118.794968,50.83995],[-118.846795,50.921517],[-118.890515,51.003902],[-118.897791,51.020402],[-118.92793,51.086895],[-118.962266,51.170286],[-118.998835,51.253479],[-119.044328,51.335861],[-119.106373,51.416574],[-119.146145,51.452502],[-119.187235,51.49546],[-119.287634,51.572418],[-119.322243,51.591248],[-119.406143,51.647365],[-119.488251,51.68711],[-119.550516,51.719667],[-119.649255,51.761228],[-119.724506,51.788641],[-119.807238,51.821851],[-119.908075,51.856363],[-119.966119,51.883401],[-120.069965,51.926205],[-120.130566,51.962144],[-120.20105,51.999271],[-120.302387,52.075599],[-120.307841,52.081419],[-120.384411,52.154025],[-120.443991,52.235042],[-120.484438,52.318273],[-120.506424,52.403547],[-120.508454,52.491208],[-120.486979,52.581607],[-120.469332,52.619694],[-120.433425,52.675489],[-120.363504,52.749058],[-120.326179,52.775423],[-120.241302,52.826688],[-120.110021,52.875153],[-119.987091,52.900088],[-119.972397,52.903058],[-119.922948,52.906864],[-119.829895,52.914499],[-119.683213,52.911509],[-119.532426,52.893088],[-119.432753,52.869386],[-119.377444,52.858611],[-119.218516,52.808358],[-119.208516,52.803932],[-119.056334,52.74362],[-119.035979,52.733037],[-118.890841,52.663055],[-118.885311,52.659831],[-118.750304,52.585016],[-118.722725,52.569391],[-118.624662,52.509205],[-118.552044,52.460991],[-118.508719,52.432439],[-118.404157,52.354613],[-118.377158,52.330621],[-118.310381,52.275756],[-118.23073,52.19564],[-118.19084,52.145816],[-118.163491,52.114506],[-118.107262,52.032312],[-118.061593,51.949244],[-118.022963,51.865714],[-117.987319,51.781859],[-117.950373,51.698198],[-117.944054,51.685808],[-117.909826,51.614846],[-117.863322,51.53208],[-117.80996,51.449943],[-117.750747,51.368335],[-117.728309,51.340324],[-117.690649,51.286842],[-117.630662,51.205349],[-117.571045,51.123839],[-117.532027,51.068303],[-117.513157,51.042189],[-117.456386,50.960491],[-117.400427,50.878791],[-117.343444,50.797232],[-117.336993,50.787716],[-117.282463,50.71594],[-117.2162,50.635073],[-117.157451,50.5705],[-117.14217,50.554947],[-117.063202,50.475157],[-116.989554,50.403177],[-116.981793,50.395576],[-116.907397,50.315353],[-116.843701,50.234427],[-116.813841,50.185338],[-116.794624,50.152377],[-116.760977,50.06914],[-116.740979,49.984951],[-116.732184,49.899944],[-116.731493,49.81433],[-116.734183,49.753855],[-116.73661,49.728364],[-116.746813,49.642103],[-116.757379,49.555806],[-116.766823,49.469592],[-116.775392,49.383542],[-116.783943,49.305577],[-116.785635,49.297454],[-116.805504,49.210594],[-116.832947,49.123133],[-116.866943,49.04648],[-116.875922,49.034523]],[[-114.605063,49.014228],[-114.646528,49.096922],[-114.644083,49.181934],[-114.614285,49.268526],[-114.567553,49.336564],[-114.554208,49.356611],[-114.448265,49.429958],[-114.418346,49.448595],[-114.322153,49.470203],[-114.191993,49.476644],[-114.172928,49.460605],[-114.179221,49.375263],[-114.175106,49.326334],[-114.175188,49.290503],[-114.169748,49.278577],[-114.140178,49.207215],[-114.085558,49.124955],[-114.091903,49.03978]],[[-95.259626,49.698776],[-95.254662,49.738974],[-95.249295,49.784919],[-95.209307,49.866035],[-95.197205,49.879586],[-95.144787,49.942998],[-95.059183,50.016442],[-94.981968,50.068608],[-94.955832,50.086809],[-94.836969,50.154431],[-94.800642,50.17258],[-94.699515,50.218813],[-94.630658,50.247313],[-94.538835,50.278974],[-94.468534,50.302138],[-94.344864,50.332992],[-94.312865,50.341076],[-94.162138,50.367725],[-94.08902,50.375475],[-94.015699,50.384031],[-93.872711,50.392337],[-93.73208,50.395155],[-93.714872,50.39546],[-93.591553,50.397386],[-93.449106,50.403431],[-93.351901,50.416044],[-93.300665,50.422108],[-93.14778,50.466092],[-93.138111,50.469722],[-93.028134,50.532107],[-92.952926,50.606851],[-92.907527,50.687419],[-92.880809,50.771645],[-92.864732,50.858008],[-92.8531,50.945318],[-92.84231,51.032883],[-92.833026,51.100046],[-92.83104,51.120416],[-92.818875,51.207781],[-92.803482,51.294576],[-92.784922,51.380813],[-92.763257,51.466513],[-92.738484,51.551733],[-92.710651,51.6363],[-92.710618,51.636401],[-92.679876,51.720512],[-92.64576,51.804039],[-92.608182,51.886944],[-92.566951,51.969258],[-92.521874,52.050857],[-92.472655,52.131725],[-92.41893,52.211838],[-92.414319,52.218128],[-92.360584,52.290973],[-92.296853,52.369198],[-92.227216,52.446279],[-92.150917,52.522153],[-92.067237,52.596566],[-92.066582,52.597101],[-91.975528,52.669417],[-91.874344,52.740419],[-91.821505,52.773686],[-91.762477,52.809336],[-91.638482,52.875748],[-91.606299,52.891239],[-91.500331,52.939292],[-91.407383,52.976489],[-91.345617,52.999442],[-91.218927,53.041196],[-91.171535,53.055464],[-91.037959,53.091242],[-90.974319,53.106532],[-90.862463,53.130455],[-90.749901,53.151627],[-90.691322,53.161421],[-90.523332,53.186098],[-90.494912,53.189849],[-90.357841,53.205991],[-90.210673,53.221221],[-90.193842,53.222784],[-90.03073,53.237452],[-89.908332,53.247899],[-89.867935,53.251197],[-89.705122,53.264619],[-89.602386,53.272908],[-89.54183,53.277998],[-89.378566,53.29117],[-89.296824,53.297175],[-89.21532,53.3037],[-89.0526,53.314914],[-88.983484,53.318737],[-88.890694,53.324434],[-88.730077,53.331647],[-88.646917,53.33397],[-88.570768,53.336435],[-88.412939,53.338693],[-88.268236,53.338136],[-88.256843,53.338128],[-88.101945,53.335404],[-87.948763,53.330086],[-87.819033,53.323558],[-87.79697,53.322498],[-87.646287,53.313108],[-87.496881,53.301823],[-87.348518,53.288913],[-87.265735,53.280885],[-87.200997,53.274732],[-87.054119,53.259514],[-86.907912,53.243424],[-86.762153,53.226714],[-86.616692,53.209635],[-86.61445,53.209366],[-86.471128,53.192443],[-86.325632,53.175309],[-86.179916,53.15843],[-86.033768,53.141982],[-85.973711,53.135408],[-85.887253,53.126166],[-85.740075,53.111092],[-85.592237,53.096897],[-85.443563,53.083682],[-85.426354,53.082232],[-85.293992,53.07158],[-85.143493,53.060629],[-84.991955,53.050856],[-84.963145,53.049143],[-84.839262,53.042433],[-84.685445,53.035284],[-84.55869,53.030335],[-84.530483,53.029426],[-84.374154,53.025092],[-84.216667,53.021973],[-84.195014,53.021611],[-84.057675,53.020552],[-83.897399,53.020413],[-83.862072,53.020479],[-83.735355,53.022119],[-83.572048,53.025228],[-83.553874,53.025602],[-83.406386,53.030629],[-83.267019,53.036205],[-83.239114,53.037758],[-83.069173,53.047673],[-82.999881,53.052019],[-82.896332,53.060473],[-82.751993,53.073117],[-82.720303,53.076581],[-82.539893,53.097284],[-82.522254,53.0994],[-82.353639,53.124021]],[[-94.529761,48.888561],[-94.488662,48.860749],[-94.427905,48.814062],[-94.32381,48.745788],[-94.31555,48.741244]],[[-76.445896,56.742545],[-76.292783,56.793028],[-76.232287,56.812596],[-76.138299,56.84298],[-75.982443,56.892377],[-75.911853,56.914303],[-75.825108,56.94123],[-75.666413,56.98945],[-75.594928,57.010701],[-75.506023,57.037103],[-75.344065,57.084063],[-75.281796,57.101685],[-75.180459,57.130321],[-75.014988,57.1758],[-74.972837,57.18708],[-74.847513,57.220554],[-74.677911,57.264369],[-74.668684,57.266686],[-74.506517,57.307316],[-74.369752,57.340294],[-74.3324,57.349283],[-74.156218,57.39022],[-74.076085,57.408106],[-73.97743,57.430073],[-73.795682,57.468746],[-73.78783,57.470353],[-73.611771,57.506287],[-73.504817,57.527023],[-73.424613,57.54254],[-73.234502,57.57738],[-73.226863,57.578716],[-73.041675,57.611005],[-72.953952,57.625395],[-72.845669,57.643117],[-72.685418,57.667687],[-72.646253,57.673683],[-72.443513,57.70275],[-72.421574,57.705697],[-72.237884,57.73029],[-72.161709,57.739721],[-72.028725,57.756143],[-71.905838,57.770082],[-71.815958,57.78026],[-71.653715,57.797006],[-71.599619,57.802585],[-71.404938,57.820722],[-71.379785,57.823067],[-71.159664,57.841393],[-71.156114,57.841689],[-70.929238,57.858478],[-70.917377,57.859246],[-70.698525,57.873329],[-70.678216,57.874445],[-70.464295,57.88617],[-70.441682,57.887196],[-70.226431,57.896998],[-70.207721,57.897674],[-69.985119,57.905832],[-69.976177,57.906074],[-69.746442,57.912667],[-69.741002,57.912848],[-69.518283,57.917802],[-69.494697,57.918487],[-69.290688,57.921954],[-69.24758,57.923175],[-69.062769,57.925979],[-69.002077,57.928113],[-68.830829,57.931769],[-68.763428,57.935716],[-68.58541,57.945143],[-68.540835,57.950282],[-68.350896,57.98],[-68.25473,58.008663],[-68.19743,58.026839],[-68.07204,58.086971],[-67.960339,58.153797],[-67.85542,58.223967],[-67.754073,58.296055]],[[-67.655642,58.369633],[-67.715112,58.324606]],[[-130.10114,59.320983],[-130.146556,59.250916],[-130.086733,59.166693],[-129.959832,59.122721],[-129.86918,59.112001],[-129.764437,59.108666],[-129.606182,59.14757],[-129.580679,59.165069],[-129.520072,59.271162],[-129.593904,59.352901],[-129.78669,59.405142],[-129.8456,59.402161],[-129.965493,59.393064],[-130.024025,59.369208],[-130.10114,59.320983]],[[-88.323279,49.750055],[-88.333316,49.747699],[-88.34109,49.721085],[-88.312662,49.742397],[-88.323279,49.750055]]]}},{"type":"Feature","properties":{"id":"1000","precipitation_mm":1000,"major":true,"kind":"isohyet","unit":"mm/year"},"geometry":{"type":"MultiLineString","coordinates":[[[-132.942746,57.956118],[-132.756027,57.948645],[-132.75466,57.948596],[-132.565564,57.939244],[-132.408889,57.928815],[-132.374275,57.926692],[-132.181518,57.911681],[-132.087121,57.902524],[-131.986863,57.89352],[-131.790216,57.872012],[-131.784731,57.871305],[-131.592582,57.848536],[-131.49964,57.835727],[-131.393646,57.822398],[-131.222283,57.798033],[-131.193736,57.79434],[-130.994407,57.765982],[-130.948409,57.758963],[-130.795755,57.737717],[-130.672003,57.719882],[-130.598138,57.709965],[-130.40189,57.68336],[-130.388624,57.681594],[-130.206967,57.657898],[-130.098297,57.644143],[-130.012998,57.633025],[-129.819618,57.60818],[-129.805751,57.606462],[-129.625784,57.581781],[-129.519165,57.566929],[-129.430918,57.552953],[-129.251324,57.523336],[-129.233894,57.520019],[-129.033388,57.480396],[-129.006777,57.474898],[-128.827611,57.431432],[-128.787718,57.421289],[-128.614541,57.369379],[-128.593773,57.362923],[-128.421818,57.300387],[-128.389979,57.286745],[-128.269451,57.234203],[-128.1458,57.169538],[-128.136454,57.164616],[-128.017955,57.092285],[-127.915668,57.017166],[-127.847795,56.957476],[-127.827272,56.939576],[-127.750976,56.859923],[-127.687424,56.778118],[-127.635894,56.694244],[-127.595959,56.60837],[-127.567503,56.520674],[-127.55488,56.453731],[-127.550009,56.431001],[-127.541955,56.33977],[-127.545241,56.246616],[-127.558013,56.166566],[-127.559815,56.151532],[-127.582534,56.055007],[-127.612482,55.970538],[-127.616876,55.956392],[-127.658388,55.856602],[-127.684385,55.806701],[-127.708742,55.755145],[-127.763762,55.657628],[-127.766476,55.652359],[-127.826906,55.548959],[-127.847412,55.51707],[-127.889339,55.445173],[-127.930741,55.377418],[-127.95046,55.341686],[-128.006254,55.239006],[-128.009953,55.231804],[-128.052419,55.138172],[-128.07827,55.06836],[-128.087905,55.039249],[-128.110062,54.942937],[-128.117538,54.855224],[-128.117992,54.84924],[-128.112299,54.758114],[-128.092193,54.66982],[-128.058265,54.584231],[-128.011227,54.501158],[-127.951861,54.420441],[-127.881108,54.341916],[-127.800208,54.26541],[-127.777674,54.246632],[-127.710912,54.19049],[-127.614639,54.116857],[-127.513015,54.044235],[-127.510578,54.0426],[-127.407965,53.972255],[-127.300763,53.900655],[-127.268779,53.880034],[-127.192512,53.829236],[-127.083847,53.757939],[-127.034033,53.726118],[-126.974696,53.686708],[-126.864499,53.615556],[-126.804757,53.578354],[-126.752554,53.54485],[-126.637734,53.474553],[-126.583731,53.442714],[-126.519371,53.404847],[-126.398241,53.335618],[-126.370959,53.319973],[-126.274967,53.266723],[-126.162297,53.202061],[-126.153913,53.197479],[-126.034985,53.127668],[-125.949632,53.07247],[-125.923965,53.056557],[-125.82024,52.984153],[-125.727946,52.909857],[-125.719693,52.902197],[-125.64424,52.834044],[-125.57199,52.756349],[-125.510744,52.676859],[-125.459755,52.595674],[-125.418325,52.512976],[-125.385632,52.428846],[-125.360789,52.343415],[-125.342674,52.256901],[-125.329876,52.169607],[-125.32056,52.081749],[-125.314355,52.012436],[-125.312443,51.993792],[-125.302893,51.906061],[-125.289951,51.818959],[-125.271183,51.732933],[-125.244487,51.648336],[-125.208122,51.565405],[-125.16065,51.484367],[-125.100882,51.405472],[-125.027861,51.328872],[-125.008165,51.31156],[-124.940384,51.254662],[-124.837705,51.183055],[-124.802667,51.161601],[-124.71696,51.114355],[-124.622495,51.06839],[-124.576104,51.048951],[-124.454748,51.002716],[-124.40758,50.987826],[-124.294994,50.955207],[-124.199457,50.932854],[-124.140859,50.920483],[-123.990347,50.893978],[-123.939561,50.885698],[-123.841873,50.87179],[-123.693516,50.849072],[-123.654607,50.841804],[-123.544203,50.823116],[-123.408532,50.791245],[-123.391425,50.787453],[-123.234137,50.738322],[-123.218044,50.731821],[-123.070882,50.665807],[-123.068319,50.664508],[-122.954166,50.595242],[-122.884362,50.538415],[-122.862791,50.520892],[-122.784512,50.444708],[-122.71401,50.36735],[-122.679836,50.350004],[-122.535573,50.329131],[-122.461632,50.315922],[-122.39193,50.309359],[-122.244196,50.27666],[-122.208063,50.264101],[-122.091141,50.227205],[-122.031454,50.201159],[-121.933389,50.162226],[-121.874939,50.135283],[-121.775874,50.095856],[-121.7074,50.070697],[-121.622419,50.040068],[-121.521931,50.00826],[-121.471105,49.989219],[-121.350015,49.943818],[-121.316976,49.92791],[-121.213849,49.87458],[-121.152432,49.830568],[-121.113535,49.800713],[-121.040753,49.723308],[-120.990107,49.643162],[-120.954668,49.561185],[-120.928606,49.477953],[-120.907629,49.394291],[-120.890135,49.310111],[-120.877539,49.22542],[-120.872301,49.139898],[-120.876529,49.053195]],[[-123.79283,48.459759],[-123.797536,48.545811],[-123.795187,48.614669],[-123.792977,48.63339],[-123.775341,48.723096],[-123.751319,48.813988],[-123.743676,48.830563]],[[-86.300224,48.641609],[-86.214128,48.656482],[-86.105021,48.67693],[-86.056025,48.683878],[-85.900273,48.707313],[-85.896057,48.707968],[-85.747168,48.726124],[-85.675069,48.734905],[-85.595456,48.742588],[-85.445188,48.756539],[-85.439448,48.757053],[-85.296822,48.767101],[-85.189254,48.774134],[-85.149371,48.776209],[-85.00287,48.783619],[-84.92819,48.787242],[-84.856438,48.790524],[-84.709931,48.797306],[-84.665105,48.799082],[-84.562985,48.804209],[-84.416433,48.810543],[-84.404264,48.810817],[-84.269865,48.816287],[-84.135485,48.819241],[-84.124914,48.819695],[-83.9811,48.82122],[-83.842556,48.819097],[-83.839871,48.819109],[-83.700469,48.814199],[-83.564293,48.804982],[-83.483628,48.796337],[-83.431256,48.791521],[-83.30169,48.773399],[-83.176343,48.749704],[-83.055717,48.719893],[-82.940383,48.683399],[-82.830794,48.639609],[-82.727523,48.587914],[-82.631257,48.52761],[-82.590681,48.496265],[-82.542733,48.457668],[-82.463277,48.376442],[-82.443182,48.350306],[-82.394376,48.282383],[-82.364558,48.228003],[-82.336849,48.174101],[-82.313515,48.115207],[-82.289854,48.053008],[-82.275869,48.007093],[-82.250225,47.92299],[-82.244457,47.901154],[-82.215525,47.796055],[-82.213685,47.789394],[-82.186097,47.690806],[-82.176513,47.657019],[-82.153272,47.584399],[-82.13566,47.529771],[-82.11408,47.475657],[-82.088504,47.411074],[-82.062884,47.362619],[-82.032558,47.304024],[-81.984924,47.239892],[-81.964993,47.212247],[-81.884517,47.137298],[-81.789885,47.080755],[-81.683678,47.039005],[-81.568623,47.008638],[-81.446823,46.986721],[-81.320005,46.971111],[-81.237488,46.964921],[-81.189715,46.959772],[-81.056691,46.951637],[-80.94253,46.948962],[-80.92009,46.947845],[-80.780312,46.947734],[-80.698239,46.951417],[-80.635912,46.952853],[-80.487093,46.963253],[-80.481648,46.963848],[-80.333321,46.978962],[-80.289241,46.985172],[-80.172423,47.002882],[-80.115917,47.013594],[-79.999675,47.040253],[-79.962934,47.049835],[-79.831442,47.094442],[-79.799535,47.108988],[-79.719753,47.146828],[-79.62861,47.207351],[-79.555725,47.275214],[-79.497767,47.349154],[-79.451748,47.42787],[-79.412515,47.509397],[-79.364803,47.587645],[-79.281343,47.651716],[-79.166262,47.703185],[-79.122776,47.72054],[-79.017892,47.741115],[-78.943,47.759045],[-78.840373,47.767086],[-78.783017,47.774794],[-78.635407,47.77654],[-78.619832,47.77529],[-78.494989,47.770061],[-78.361039,47.756398],[-78.323568,47.751452],[-78.228413,47.74115],[-78.092888,47.72897],[-78.029108,47.727219],[-77.946585,47.728281],[-77.831594,47.742993],[-77.773059,47.756395],[-77.693113,47.783443],[-77.588848,47.838421],[-77.50945,47.904026],[-77.451138,47.978714],[-77.412641,48.061934],[-77.390937,48.152504],[-77.389773,48.160566],[-77.383718,48.249245],[-77.381191,48.325597],[-77.382107,48.348516],[-77.382128,48.448485],[-77.380539,48.482491],[-77.378986,48.547256],[-77.370023,48.64359],[-77.368923,48.650939],[-77.355797,48.737814],[-77.335177,48.82937],[-77.33006,48.847382],[-77.309024,48.918729],[-77.277406,49.005891],[-77.240863,49.091046],[-77.237171,49.09874],[-77.199818,49.174426],[-77.154844,49.256204],[-77.106472,49.336772],[-77.055393,49.416174],[-77.007717,49.48636],[-77.001924,49.494766],[-76.946302,49.572481],[-76.888796,49.649497],[-76.829337,49.72583],[-76.76776,49.801408],[-76.703931,49.876045],[-76.637603,49.949752],[-76.568593,50.022465],[-76.496807,50.094106],[-76.422239,50.16456],[-76.344709,50.23391],[-76.264265,50.30206],[-76.180791,50.36911],[-76.09448,50.434924],[-76.005269,50.499646],[-75.913435,50.563231],[-75.854617,50.602292],[-75.819051,50.625808],[-75.722298,50.687442],[-75.623529,50.748226],[-75.523014,50.808353],[-75.421125,50.867986],[-75.373951,50.895269],[-75.318138,50.927121],[-75.214324,50.985973],[-75.110232,51.044793],[-75.006293,51.103678],[-74.927656,51.148615],[-74.90258,51.162753],[-74.799182,51.221954],[-74.696601,51.281631],[-74.595107,51.341787],[-74.494654,51.402552],[-74.417214,51.450428],[-74.395298,51.463876],[-74.296989,51.525644],[-74.199904,51.588097],[-74.104109,51.651161],[-74.009491,51.714874],[-73.91603,51.779183],[-73.823671,51.844072],[-73.7324,51.909474],[-73.642021,51.975462],[-73.552535,52.041969],[-73.534897,52.055296],[-73.463923,52.108894],[-73.376087,52.176305],[-73.289061,52.244147],[-73.202729,52.312464],[-73.117175,52.381163],[-73.032322,52.450272],[-72.948074,52.519882],[-72.864596,52.589853],[-72.781735,52.660335],[-72.699716,52.731158],[-72.659415,52.766521],[-72.618298,52.802542],[-72.537747,52.874268],[-72.457909,52.946519],[-72.378825,53.019259],[-72.300505,53.09245],[-72.222855,53.166117],[-72.145868,53.240149],[-72.069345,53.314559],[-71.993158,53.389248],[-71.917103,53.464137],[-71.840961,53.53911],[-71.827303,53.552508],[-71.764545,53.614034],[-71.687549,53.688878],[-71.609803,53.763461],[-71.531021,53.837739],[-71.451095,53.911527],[-71.369705,53.984858],[-71.28683,54.057539],[-71.20222,54.12963],[-71.115866,54.200985],[-71.027719,54.271556],[-70.93769,54.341328],[-70.845654,54.410344],[-70.751593,54.478586],[-70.655633,54.545921],[-70.557616,54.61246],[-70.45752,54.678189],[-70.355562,54.742971],[-70.25148,54.806963],[-70.145432,54.87005],[-70.037273,54.932305],[-69.927125,54.99363],[-69.814861,55.05407],[-69.700478,55.113573],[-69.583943,55.172105],[-69.46689,55.228804],[-69.465126,55.229667],[-69.344331,55.286313],[-69.221263,55.341868],[-69.095724,55.396312],[-68.967595,55.449573],[-68.865023,55.490294],[-68.836942,55.501594],[-68.703862,55.552509],[-68.567947,55.601992],[-68.428858,55.65002],[-68.38809,55.663325],[-68.287159,55.696672],[-68.142294,55.741788],[-67.993917,55.78523],[-67.977566,55.789748],[-67.842877,55.827116],[-67.688197,55.867293],[-67.609388,55.886576],[-67.530421,55.905755],[-67.369415,55.94254],[-67.268335,55.964364],[-67.205201,55.977677],[-67.038162,56.011183],[-66.946037,56.02888],[-66.868351,56.04319],[-66.696155,56.073832],[-66.636181,56.084304],[-66.521672,56.103165],[-66.345699,56.131675],[-66.334272,56.133549],[-66.168137,56.158961],[-66.035685,56.179417],[-65.989808,56.185955],[-65.810978,56.212389],[-65.737462,56.223702],[-65.632084,56.238676],[-65.454153,56.265315],[-65.436977,56.268052],[-65.276219,56.291866],[-65.129081,56.315155],[-65.100255,56.319399],[-64.925365,56.347316],[-64.809481,56.367253],[-64.752886,56.376429],[-64.582114,56.406485],[-64.472436,56.427321],[-64.414014,56.437919],[-64.248096,56.470489],[-64.108711,56.499942],[-64.085128,56.504755],[-63.924301,56.540013],[-63.766424,56.577065],[-63.701599,56.593202],[-63.61068,56.615375],[-63.457294,56.654999],[-63.306415,56.696065],[-63.22682,56.718677],[-63.157284,56.738213],[-63.009727,56.781289],[-62.863739,56.825323],[-62.718885,56.870074],[-62.649758,56.891739],[-62.574517,56.915205],[-62.430412,56.96051],[-62.286293,57.005913],[-62.142005,57.051242],[-61.997427,57.096497],[-61.992256,57.098118],[-61.852518,57.141527]],[[-82.867686,46.240279],[-82.827422,46.261503],[-82.741389,46.288793],[-82.662009,46.302132],[-82.543595,46.279614]],[[-82.415748,45.891382],[-82.473641,45.834141]],[[-82.039813,43.078547],[-82.009542,43.05235],[-81.96716,43.005647],[-81.899701,42.926034],[-81.887054,42.912786],[-81.836447,42.840944],[-81.772069,42.775708],[-81.765361,42.766966],[-81.687742,42.70211],[-81.600937,42.650124],[-81.515142,42.596991]],[[-82.366012,42.45081],[-82.281982,42.39525],[-82.198356,42.339419],[-82.114181,42.284691]],[[-79.336001,43.16562],[-79.408239,43.102546],[-79.510619,43.058659],[-79.522174,43.057479],[-79.656479,43.021036],[-79.674898,43.014307],[-79.814805,42.99472],[-79.819612,42.99372],[-79.943722,42.998778],[-80.041624,43.036977],[-80.10895,43.114054],[-80.110325,43.119611],[-80.135232,43.223623],[-80.136798,43.241646],[-80.126209,43.313507],[-80.097247,43.395183],[-80.05633,43.4719],[-80.011039,43.546871],[-79.971994,43.612346],[-79.966425,43.62222],[-79.95192,43.710235],[-79.953388,43.798417],[-79.95298,43.80489],[-79.945282,43.895946],[-79.931369,43.984542],[-79.929889,43.990575],[-79.912207,44.070868],[-79.891129,44.156631],[-79.878636,44.217064],[-79.871504,44.243014],[-79.834452,44.322267],[-79.789101,44.327424],[-79.688259,44.288594],[-79.551138,44.294284],[-79.544549,44.295832],[-79.410259,44.334155],[-79.373808,44.348211],[-79.292539,44.379417],[-79.177774,44.423632],[-79.174686,44.424709],[-79.055962,44.469443],[-78.976203,44.504231],[-78.944898,44.517436],[-78.840788,44.568483],[-78.744848,44.622982],[-78.736657,44.628162],[-78.652642,44.679129],[-78.566344,44.737884],[-78.4873,44.799895],[-78.417347,44.865842],[-78.357872,44.93647],[-78.309702,45.012014],[-78.272164,45.092361],[-78.242658,45.176375],[-78.232413,45.210423],[-78.215362,45.261344],[-78.186444,45.3458],[-78.153141,45.428364],[-78.127745,45.485389],[-78.11864,45.510552],[-78.097621,45.598665],[-78.084269,45.690155],[-78.08416,45.690795],[-78.074329,45.783306],[-78.062064,45.871968],[-78.061838,45.875384],[-78.048416,45.967163],[-78.028334,46.056098],[-78.022647,46.072391],[-78.003626,46.143225],[-77.970287,46.226635],[-77.926822,46.305778],[-77.871913,46.380059],[-77.803031,46.448328],[-77.715244,46.508469],[-77.598861,46.556276],[-77.57635,46.56188],[-77.431558,46.581592],[-77.414282,46.581906],[-77.280822,46.570863],[-77.162634,46.54345],[-77.055137,46.504673],[-76.955961,46.457149],[-76.864038,46.402187],[-76.778911,46.340177],[-76.700745,46.271187],[-76.675515,46.243795],[-76.628596,46.195898],[-76.562903,46.114283],[-76.542068,46.083485],[-76.503054,46.026754],[-76.453248,45.943347],[-76.448207,45.934366],[-76.398581,45.83666],[-76.387289,45.813451],[-76.35592,45.731919],[-76.341591,45.692897],[-76.325266,45.614965],[-76.319347,45.583214],[-76.322562,45.485507],[-76.328525,45.462567],[-76.348112,45.398252],[-76.389488,45.318528],[-76.440474,45.243373],[-76.497568,45.171185],[-76.559055,45.101192],[-76.624243,45.03294],[-76.692602,44.96625],[-76.763549,44.900895],[-76.836267,44.83634],[-76.909139,44.771998],[-76.980217,44.706854],[-77.047111,44.639927],[-77.10795,44.570233],[-77.16155,44.497294],[-77.207842,44.421082],[-77.247773,44.342101],[-77.268702,44.294415],[-77.283625,44.261269]],[[-119.507911,52.281381],[-119.552812,52.24363],[-119.589036,52.152425],[-119.549161,52.069106],[-119.436881,51.993271],[-119.428639,51.989684],[-119.276573,51.951111],[-119.136054,51.955289],[-119.008699,52.010527],[-118.980994,52.038703],[-118.95835,52.128208],[-119.003041,52.211219],[-119.074187,52.262936],[-119.122078,52.28698],[-119.23236,52.320825],[-119.376437,52.324178],[-119.507911,52.281381]]]}},{"type":"Feature","properties":{"id":"1500","precipitation_mm":1500,"major":true,"kind":"isohyet","unit":"mm/year"},"geometry":{"type":"MultiLineString","coordinates":[[[-131.902113,53.203811],[-131.81928,53.179922]],[[-131.702967,56.795711],[-131.533303,56.801494],[-131.419705,56.803663],[-131.361975,56.804901],[-131.188906,56.805513],[-131.013836,56.802974],[-130.981862,56.801776],[-130.836253,56.796514],[-130.655816,56.785449],[-130.620418,56.782273],[-130.471661,56.768546],[-130.319885,56.749297],[-130.283052,56.744361],[-130.088567,56.710447],[-130.067356,56.705911],[-129.885491,56.662669],[-129.855201,56.654119],[-129.675223,56.595726],[-129.669356,56.593507],[-129.523847,56.531578],[-129.426405,56.480292],[-129.395576,56.4629],[-129.28895,56.38995],[-129.201769,56.313246],[-129.132912,56.233084],[-129.081298,56.149654],[-129.046373,56.063114],[-129.028025,55.9734],[-129.026232,55.880534],[-129.030573,55.848482],[-129.040498,55.784587],[-129.070195,55.68571],[-129.08041,55.659968],[-129.115198,55.583756],[-129.153459,55.510539],[-129.172255,55.479535],[-129.235712,55.377244],[-129.238473,55.373389],[-129.312077,55.265694],[-129.32147,55.250807],[-129.38789,55.157487],[-129.407606,55.126024],[-129.461642,55.049612],[-129.491731,54.999083],[-129.529936,54.94269],[-129.571526,54.866135],[-129.589496,54.837593],[-129.638634,54.73453],[-129.642948,54.720792],[-129.67797,54.633461],[-129.695739,54.546444],[-129.698788,54.53627],[-129.705966,54.441873],[-129.689685,54.352438],[-129.649738,54.268036],[-129.585555,54.188731],[-129.496354,54.114709],[-129.397251,54.055775],[-129.38241,54.045828],[-129.254264,53.979775],[-129.176,53.948115],[-129.10967,53.917132],[-128.970032,53.863806],[-128.953753,53.856688]],[[-128.628095,53.738176],[-128.576878,53.721741],[-128.461366,53.679434],[-128.383502,53.653643],[-128.294978,53.620561],[-128.190466,53.584336],[-128.130375,53.561098],[-127.996709,53.512034],[-127.969245,53.500915],[-127.81282,53.439639],[-127.80154,53.435315],[-127.662338,53.377026],[-127.604492,53.352797],[-127.517115,53.313415],[-127.403992,53.261671],[-127.377231,53.248698],[-127.243791,53.182724],[-127.199268,53.159895],[-127.116108,53.115566],[-126.99419,53.047373],[-126.988891,53.044243],[-126.878819,52.977837],[-126.769841,52.907237],[-126.769271,52.906838],[-126.668005,52.835199],[-126.573865,52.761865],[-126.528459,52.722372],[-126.488096,52.686993],[-126.411754,52.610489],[-126.345732,52.532115],[-126.290972,52.451812],[-126.247454,52.369626],[-126.213963,52.285656],[-126.188736,52.200279],[-126.16986,52.113809],[-126.155508,52.026612],[-126.143927,51.939019],[-126.140886,51.914063],[-126.133854,51.851195],[-126.123546,51.763402],[-126.111275,51.676029],[-126.095513,51.589405],[-126.074768,51.503669],[-126.047632,51.419205],[-126.012718,51.336157],[-125.968774,51.254749],[-125.91486,51.175155],[-125.850597,51.097529],[-125.776213,51.021705],[-125.7025,50.955975]],[[-125.485457,50.783546],[-125.413935,50.7301],[-125.318036,50.658195],[-125.277183,50.626305],[-125.224014,50.585841],[-125.134973,50.512741]],[[-124.511444,48.60061],[-124.502382,48.689364],[-124.498879,48.731864],[-124.495579,48.777687],[-124.492678,48.865432],[-124.496332,48.952036],[-124.5089,49.037286],[-124.532508,49.120669],[-124.568631,49.202044],[-124.617142,49.281315],[-124.673532,49.3593]],[[-123.963491,50.118238],[-123.966004,50.089867]],[[-123.917912,49.922136],[-123.878282,49.840834],[-123.834346,49.76033],[-123.810877,49.720815],[-123.788806,49.680075],[-123.743472,49.599809],[-123.697465,49.519675]],[[-123.955083,50.179397],[-123.886784,50.27439],[-123.882137,50.27874],[-123.776256,50.344436],[-123.654705,50.386571],[-123.525359,50.408484],[-123.388877,50.411685],[-123.242605,50.388099],[-123.222465,50.380245],[-123.080024,50.319202],[-123.073782,50.314853],[-122.987767,50.240009],[-122.944106,50.15899],[-122.875422,50.13081],[-122.736425,50.122924],[-122.644442,50.115259],[-122.595873,50.110408],[-122.453603,50.092377],[-122.344175,50.070737],[-122.30755,50.062517],[-122.157515,50.019959],[-122.135799,50.01263],[-122.003902,49.965206],[-121.962712,49.949379],[-121.848126,49.902052],[-121.803855,49.88395],[-121.690991,49.832724],[-121.655776,49.816953],[-121.531005,49.752703],[-121.522122,49.747929],[-121.408933,49.676061],[-121.361596,49.63926],[-121.318367,49.601207],[-121.252725,49.523174],[-121.212069,49.441948],[-121.19967,49.35712],[-121.220344,49.268056],[-121.236959,49.233693],[-121.289532,49.172709],[-121.336186,49.126171],[-121.444306,49.066058]],[[-123.086087,49.209744],[-123.032584,49.18702],[-122.923544,49.125786],[-122.90829,49.11892]],[[-71.176847,46.956976],[-71.287062,46.948437],[-71.349933,46.943004],[-71.478512,46.966755],[-71.572202,47.020484],[-71.629761,47.10543],[-71.634874,47.137216],[-71.621283,47.236447],[-71.598028,47.267116],[-71.562476,47.311465],[-71.523604,47.330743],[-71.462483,47.364451],[-71.323984,47.366107],[-71.267273,47.365839],[-71.189238,47.346271],[-71.049399,47.330579],[-70.938233,47.290864],[-70.865555,47.218929],[-70.853932,47.139151],[-70.905455,47.06004]],[[-66.835936,45.145606],[-66.770429,45.215291],[-66.688657,45.274233],[-66.599211,45.328224],[-66.50382,45.378359],[-66.453289,45.401186],[-66.402236,45.424431],[-66.294232,45.466143],[-66.175775,45.500962],[-66.148031,45.505813],[-66.043677,45.526463],[-65.94689,45.532976],[-65.889908,45.537193],[-65.776702,45.537242],[-65.724217,45.539547],[-65.58716,45.555009],[-65.580275,45.556533],[-65.469592,45.596228],[-65.382379,45.652143],[-65.30275,45.713381],[-65.207457,45.763898],[-65.087075,45.791031],[-65.080903,45.792847],[-64.950729,45.819082],[-64.857593,45.833851],[-64.796106,45.828196],[-64.711851,45.817938]],[[-57.777202,49.885724],[-57.649553,49.859458],[-57.545177,49.804017],[-57.4726,49.732821],[-57.433289,49.645282],[-57.433822,49.597544],[-57.439032,49.535526],[-57.46386,49.483461],[-57.523775,49.394908],[-57.534304,49.381173],[-57.585402,49.308078],[-57.656039,49.229119],[-57.725938,49.177794],[-57.74235,49.163622],[-57.846124,49.113073],[-57.867255,49.106185]],[[-64.477349,45.630998],[-64.440211,45.576328],[-64.427637,45.549375],[-64.401017,45.452037],[-64.398359,45.428381]],[[-65.16749,44.915903],[-65.09214,44.853022],[-65.061609,44.8475],[-64.970512,44.823045],[-64.85658,44.818201],[-64.813213,44.818297],[-64.677643,44.806942],[-64.664696,44.807025],[-64.524729,44.789524],[-64.478397,44.780399],[-64.378936,44.775972],[-64.303215,44.770864],[-64.202499,44.783419],[-64.163985,44.787089],[-64.04888,44.820814],[-63.952237,44.868171],[-63.867902,44.924632],[-63.792625,44.987941],[-63.723976,45.056256],[-63.659497,45.127823],[-63.606422,45.189214],[-63.596771,45.200738],[-63.532789,45.272945],[-63.463714,45.341509],[-63.381002,45.400097],[-63.269055,45.43707],[-63.22924,45.440184],[-63.131853,45.455133],[-63.024407,45.461685],[-62.982149,45.463656],[-62.849082,45.463368],[-62.817188,45.460451],[-62.697936,45.449005],[-62.620726,45.432825],[-62.565937,45.422118],[-62.447956,45.386107],[-62.357253,45.353013],[-62.336948,45.345642],[-62.221676,45.30785],[-62.113611,45.286929],[-62.084294,45.284066],[-61.957717,45.288427],[-61.847534,45.325537],[-61.769483,45.38795],[-61.729436,45.480368],[-61.728697,45.508165],[-61.741722,45.61075]],[[-66.090237,44.188836],[-66.042774,44.161536],[-65.958479,44.106435],[-65.8798,44.047294],[-65.823454,44.003497],[-65.802558,43.98724],[-65.722627,43.929401],[-65.643004,43.871316],[-65.566016,43.811403],[-65.491447,43.749802],[-65.418684,43.687147]],[[-58.073114,49.028562],[-58.162207,48.96605],[-58.183369,48.944038],[-58.217577,48.875661],[-58.231916,48.81138],[-58.189956,48.725697],[-58.109867,48.659865],[-58.004925,48.607037],[-57.883826,48.562577],[-57.825941,48.54513],[-57.752642,48.523248],[-57.614814,48.487276],[-57.591187,48.481757],[-57.471181,48.454153],[-57.377389,48.43538],[-57.321227,48.424221],[-57.178645,48.401153],[-57.16237,48.398538],[-56.994266,48.378925],[-56.991636,48.378629],[-56.823027,48.367676],[-56.804403,48.366665],[-56.662395,48.365516],[-56.593092,48.366294],[-56.510096,48.370492],[-56.364306,48.381097],[-56.346674,48.382609],[-56.223602,48.396168],[-56.086154,48.414057],[-56.058934,48.418061],[-55.951217,48.43409],[-55.818644,48.456375],[-55.722172,48.475701],[-55.689364,48.481495],[-55.563296,48.509619],[-55.443065,48.543118],[-55.329859,48.583314],[-55.225604,48.631916],[-55.133226,48.691836],[-55.057812,48.767856],[-55.041163,48.795299],[-54.997637,48.858461],[-54.957466,48.936976],[-54.945308,48.956692],[-54.882958,49.04587],[-54.823585,49.101289],[-54.804352,49.120027],[-54.706772,49.176568],[-54.585407,49.210746],[-54.581041,49.211167],[-54.426264,49.20891],[-54.377849,49.199637],[-54.262488,49.148615],[-54.187639,49.079527],[-54.145068,48.996294],[-54.136801,48.930761],[-54.134703,48.898733]],[[-54.194714,48.686136],[-54.205303,48.66305],[-54.233951,48.574241],[-54.240053,48.545382],[-54.235669,48.445402],[-54.223889,48.414595],[-54.197598,48.360783],[-54.129432,48.289765],[-54.058892,48.252837],[-54.025635,48.234949],[-53.866014,48.205119]],[[-53.571371,48.234972],[-53.582673,48.232975],[-53.714055,48.212615],[-53.857873,48.204687]]]}},{"type":"Feature","properties":{"id":"2000","precipitation_mm":2000,"major":false,"kind":"isohyet","unit":"mm/year"},"geometry":{"type":"MultiLineString","coordinates":[[[-129.086955,52.999639],[-128.943643,53.015597],[-128.795307,53.022463],[-128.641569,53.019685],[-128.57959,53.014631],[-128.482706,53.007421],[-128.318164,52.98434],[-128.29659,52.980033]],[[-127.204014,51.127969],[-127.184565,51.207077],[-127.161066,51.301389],[-127.155808,51.320621],[-127.137473,51.395742],[-127.113907,51.490174],[-127.107589,51.514611],[-127.092402,51.58417],[-127.073044,51.677853],[-127.065001,51.721176],[-127.057656,51.770723],[-127.047364,51.862706],[-127.04271,51.953715],[-127.043076,51.970527],[-127.046026,52.043211],[-127.058015,52.131124],[-127.080525,52.217128]],[[-127.969408,52.899521],[-127.900089,52.875771],[-127.781777,52.830469],[-127.745399,52.814914],[-127.611275,52.749904],[-127.579727,52.732078],[-127.494213,52.681555],[-127.391812,52.610388],[-127.34853,52.574483]],[[-126.398328,50.552218],[-126.355834,50.536707]],[[-126.247799,50.491283],[-126.181975,50.462535]],[[-125.869675,50.294282],[-125.81127,50.256728],[-125.764566,50.224725],[-125.669061,50.153441],[-125.60414,50.099774],[-125.582057,50.080573],[-125.502898,50.00636],[-125.429756,49.931052],[-125.362407,49.857366],[-125.360486,49.85516],[-125.293851,49.778757],[-125.226893,49.702526],[-125.156698,49.626852],[-125.110297,49.582298],[-125.082293,49.551992],[-125.007619,49.477091],[-124.934614,49.401985],[-124.894477,49.321264],[-124.902823,49.232161]],[[-125.016088,48.862058],[-125.047321,48.778657]],[[-124.923682,49.129314],[-124.951561,49.048493]],[[-123.447432,49.558908],[-123.43484,49.648123],[-123.403933,49.717346],[-123.367812,49.745755],[-123.325811,49.839541],[-123.37861,49.918901],[-123.423715,49.999451],[-123.429965,50.086021],[-123.413965,50.111142],[-123.329225,50.188977],[-123.309534,50.198053],[-123.177828,50.211869],[-123.177712,50.211813],[-123.078921,50.139021],[-122.99267,50.077794],[-122.968778,50.067956],[-122.831123,50.00633],[-122.814977,50.003287],[-122.682336,49.96899],[-122.582652,49.949654],[-122.536675,49.939816],[-122.388432,49.902057],[-122.361424,49.894067],[-122.235316,49.848883],[-122.189795,49.831151],[-122.076487,49.776844],[-122.048749,49.763675],[-121.927907,49.693474],[-121.910497,49.680477],[-121.820621,49.621265],[-121.736983,49.557906],[-121.721873,49.547922],[-121.615548,49.475497],[-121.571591,49.457212],[-121.504132,49.403728],[-121.536434,49.345374],[-121.672262,49.354936],[-121.800136,49.339118],[-121.912897,49.276916],[-121.936689,49.258762],[-122.021733,49.203793],[-122.137975,49.154255],[-122.262079,49.129334],[-122.392947,49.124555],[-122.530778,49.140481],[-122.616389,49.162083],[-122.675795,49.17662],[-122.799229,49.221947],[-122.825751,49.226009],[-122.968854,49.25475],[-123.019559,49.275901],[-123.123183,49.313851]],[[-60.47164,46.623331],[-60.560304,46.566553],[-60.572373,46.540093],[-60.53918,46.450226]]]}}]}
