{"type":"FeatureCollection","features":[{"type":"Feature","properties":{"id":"4500"},"geometry":{"type":"LineString","coordinates":[[-140.55,61.251458],[-140.55,61.235423],[-140.533333,61.235423],[-140.533333,61.251458],[-140.55,61.251458]]}},{"type":"Feature","properties":{"id":"4500"},"geometry":{"type":"LineString","coordinates":[[-140.333333,61.098799],[-140.333333,61.082686],[-140.3,61.082686],[-140.3,61.098799],[-140.333333,61.098799]]}},{"type":"Feature","properties":{"id":"4500"},"geometry":{"type":"LineString","coordinates":[[-140.433333,61.050437],[-140.433333,61.0343],[-140.4,61.0343],[-140.4,61.050437],[-140.433333,61.050437]]}},{"type":"Feature","properties":{"id":"4500"},"geometry":{"type":"LineString","coordinates":[[-140.5,61.0343],[-140.5,61.002001],[-140.483333,61.002001],[-140.483333,61.018154],[-140.45,61.018154],[-140.45,61.0343],[-140.5,61.0343]]}},{"type":"Feature","properties":{"id":"4500"},"geometry":{"type":"LineString","coordinates":[[-140.566667,60.652708],[-140.566667,60.636369],[-140.633333,60.636369],[-140.633333,60.620022],[-140.616667,60.620022],[-140.616667,60.603666],[-140.6,60.603666],[-140.6,60.620022],[-140.533333,60.620022],[-140.533333,60.652708],[-140.566667,60.652708]]}},{"type":"Feature","properties":{"id":"4500"},"geometry":{"type":"LineString","coordinates":[[-140.45,60.636369],[-140.45,60.603666],[-140.4,60.603666],[-140.4,60.620022],[-140.433333,60.620022],[-140.433333,60.636369],[-140.45,60.636369]]}},{"type":"Feature","properties":{"id":"4500"},"geometry":{"type":"LineString","coordinates":[[-140.4,60.603666],[-140.4,60.587302],[-140.333333,60.587302],[-140.333333,60.603666],[-140.4,60.603666]]}},{"type":"Feature","properties":{"id":"4500"},"geometry":{"type":"LineString","coordinates":[[-140.483333,60.587302],[-140.483333,60.562741],[-140.466667,60.562741],[-140.466667,60.587302],[-140.483333,60.587302]]}},{"type":"Feature","properties":{"id":"4500"},"geometry":{"type":"LineString","coordinates":[[-140.333333,60.587302],[-140.333333,60.562741],[-140.3,60.562741],[-140.3,60.587302],[-140.333333,60.587302]]}},{"type":"Feature","properties":{"id":"4500"},"geometry":{"type":"LineString","coordinates":[[-140.433333,60.562741],[-140.433333,60.546356],[-140.416667,60.546356],[-140.416667,60.562741],[-140.433333,60.562741]]}},{"type":"Feature","properties":{"id":"4500"},"geometry":{"type":"LineString","coordinates":[[-140.4,60.562741],[-140.4,60.546356],[-140.383333,60.546356],[-140.383333,60.562741],[-140.4,60.562741]]}},{"type":"Feature","properties":{"id":"4500"},"geometry":{"type":"LineString","coordinates":[[-140.35,60.562741],[-140.35,60.546356],[-140.333333,60.546356],[-140.333333,60.562741],[-140.35,60.562741]]}},{"type":"Feature","properties":{"id":"4500"},"geometry":{"type":"LineString","coordinates":[[-140.983333,60.316097],[-140.983333,60.307843],[-140.966667,60.307843],[-140.966667,60.299587],[-140.933333,60.299587],[-140.933333,60.316097],[-140.983333,60.316097]]}},{"type":"Feature","properties":{"id":"4500"},"geometry":{"type":"LineString","coordinates":[[-140.916667,60.299587],[-140.916667,60.291329],[-140.9,60.291329],[-140.9,60.299587],[-140.916667,60.299587]]}}]}
