{"type":"FeatureCollection","features":[{"type":"Feature","properties":{"id":"5000"},"geometry":{"type":"LineString","coordinates":[[-140.533333,60.636369],[-140.533333,60.620022],[-140.6,60.620022],[-140.6,60.603666],[-140.533333,60.603666],[-140.533333,60.587302],[-140.466667,60.587302],[-140.466667,60.562741],[-140.45,60.562741],[-140.45,60.587302],[-140.4,60.587302],[-140.4,60.603666],[-140.45,60.603666],[-140.45,60.636369],[-140.533333,60.636369]]}},{"type":"Feature","properties":{"id":"5000"},"geometry":{"type":"LineString","coordinates":[[-140.4,60.587302],[-140.4,60.562741],[-140.333333,60.562741],[-140.333333,60.587302],[-140.4,60.587302]]}},{"type":"Feature","properties":{"id":"5000"},"geometry":{"type":"LineString","coordinates":[[-140.416667,60.562741],[-140.416667,60.546356],[-140.4,60.546356],[-140.4,60.562741],[-140.416667,60.562741]]}},{"type":"Feature","properties":{"id":"5000"},"geometry":{"type":"LineString","coordinates":[[-140.933333,60.299587],[-140.933333,60.291329],[-140.916667,60.291329],[-140.916667,60.299587],[-140.933333,60.299587]]}}]}
