{"type":"FeatureCollection","features":[{"type":"Feature","properties":{"id":"4000"},"geometry":{"type":"LineString","coordinates":[[-140.566667,61.251458],[-140.566667,61.235423],[-140.55,61.235423],[-140.55,61.251458],[-140.566667,61.251458]]}},{"type":"Feature","properties":{"id":"4000"},"geometry":{"type":"LineString","coordinates":[[-140.516667,61.18727],[-140.516667,61.163166],[-140.483333,61.163166],[-140.483333,61.18727],[-140.516667,61.18727]]}},{"type":"Feature","properties":{"id":"4000"},"geometry":{"type":"LineString","coordinates":[[-140.533333,61.251458],[-140.533333,61.235423],[-140.55,61.235423],[-140.55,61.203329],[-140.6,61.203329],[-140.6,61.18727],[-140.616667,61.18727],[-140.616667,61.163166],[-140.633333,61.163166],[-140.633333,61.147086],[-140.6,61.147086],[-140.6,61.130999],[-140.583333,61.130999],[-140.583333,61.163166],[-140.566667,61.163166],[-140.566667,61.18727],[-140.516667,61.18727],[-140.516667,61.21938],[-140.466667,61.21938],[-140.466667,61.235423],[-140.483333,61.235423],[-140.483333,61.251458],[-140.533333,61.251458]]}},{"type":"Feature","properties":{"id":"4000"},"geometry":{"type":"LineString","coordinates":[[-140.333333,61.114903],[-140.333333,61.098799],[-140.316667,61.098799],[-140.316667,61.114903],[-140.333333,61.114903]]}},{"type":"Feature","properties":{"id":"4000"},"geometry":{"type":"LineString","coordinates":[[-140.3,61.098799],[-140.3,61.082686],[-140.283333,61.082686],[-140.283333,61.098799],[-140.3,61.098799]]}},{"type":"Feature","properties":{"id":"4000"},"geometry":{"type":"LineString","coordinates":[[-140.366667,61.098799],[-140.366667,61.082686],[-140.416667,61.082686],[-140.416667,61.066565],[-140.433333,61.066565],[-140.433333,61.050437],[-140.4,61.050437],[-140.4,61.066565],[-140.316667,61.066565],[-140.316667,61.082686],[-140.333333,61.082686],[-140.333333,61.098799],[-140.366667,61.098799]]}},{"type":"Feature","properties":{"id":"4000"},"geometry":{"type":"LineString","coordinates":[[-140.233333,61.066565],[-140.233333,61.050437],[-140.216667,61.050437],[-140.216667,61.066565],[-140.233333,61.066565]]}},{"type":"Feature","properties":{"id":"4000"},"geometry":{"type":"LineString","coordinates":[[-140.4,61.050437],[-140.4,61.0343],[-140.383333,61.0343],[-140.383333,61.050437],[-140.4,61.050437]]}},{"type":"Feature","properties":{"id":"4000"},"geometry":{"type":"LineString","coordinates":[[-140.483333,61.050437],[-140.483333,61.0343],[-140.45,61.0343],[-140.45,61.018154],[-140.416667,61.018154],[-140.416667,61.0343],[-140.433333,61.0343],[-140.433333,61.050437],[-140.483333,61.050437]]}},{"type":"Feature","properties":{"id":"4000"},"geometry":{"type":"LineString","coordinates":[[-140.483333,61.018154],[-140.483333,61.002001],[-140.466667,61.002001],[-140.466667,61.018154],[-140.483333,61.018154]]}},{"type":"Feature","properties":{"id":"4000"},"geometry":{"type":"LineString","coordinates":[[-140.533333,61.0343],[-140.533333,61.018154],[-140.516667,61.018154],[-140.516667,60.985839],[-140.483333,60.985839],[-140.483333,61.002001],[-140.5,61.002001],[-140.5,61.0343],[-140.533333,61.0343]]}},{"type":"Feature","properties":{"id":"4000"},"geometry":{"type":"LineString","coordinates":[[-140.016667,61.018154],[-140.016667,61.002001],[-140.0,61.002001],[-140.0,60.985839],[-139.983333,60.985839],[-139.983333,61.018154],[-140.016667,61.018154]]}},{"type":"Feature","properties":{"id":"4000"},"geometry":{"type":"LineString","coordinates":[[-140.633333,60.652708],[-140.633333,60.636369],[-140.566667,60.636369],[-140.566667,60.652708],[-140.633333,60.652708]]}},{"type":"Feature","properties":{"id":"4000"},"geometry":{"type":"LineString","coordinates":[[-140.533333,60.652708],[-140.533333,60.636369],[-140.483333,60.636369],[-140.483333,60.652708],[-140.533333,60.652708]]}},{"type":"Feature","properties":{"id":"4000"},"geometry":{"type":"LineString","coordinates":[[-140.433333,60.636369],[-140.433333,60.620022],[-140.416667,60.620022],[-140.416667,60.636369],[-140.433333,60.636369]]}},{"type":"Feature","properties":{"id":"4000"},"geometry":{"type":"LineString","coordinates":[[-140.4,60.620022],[-140.4,60.603666],[-140.383333,60.603666],[-140.383333,60.620022],[-140.4,60.620022]]}},{"type":"Feature","properties":{"id":"4000"},"geometry":{"type":"LineString","coordinates":[[-140.65,60.636369],[-140.65,60.603666],[-140.683333,60.603666],[-140.683333,60.587302],[-140.666667,60.587302],[-140.666667,60.562741],[-140.633333,60.562741],[-140.633333,60.587302],[-140.533333,60.587302],[-140.533333,60.603666],[-140.616667,60.603666],[-140.616667,60.620022],[-140.633333,60.620022],[-140.633333,60.636369],[-140.65,60.636369]]}},{"type":"Feature","properties":{"id":"4000"},"geometry":{"type":"LineString","coordinates":[[-140.533333,60.587302],[-140.533333,60.562741],[-140.483333,60.562741],[-140.483333,60.587302],[-140.533333,60.587302]]}},{"type":"Feature","properties":{"id":"4000"},"geometry":{"type":"LineString","coordinates":[[-140.3,60.587302],[-140.3,60.562741],[-140.283333,60.562741],[-140.283333,60.587302],[-140.3,60.587302]]}},{"type":"Feature","properties":{"id":"4000"},"geometry":{"type":"LineString","coordinates":[[-140.383333,60.562741],[-140.383333,60.546356],[-140.35,60.546356],[-140.35,60.562741],[-140.383333,60.562741]]}},{"type":"Feature","properties":{"id":"4000"},"geometry":{"type":"LineString","coordinates":[[-139.716667,60.365575],[-139.716667,60.332598],[-139.683333,60.332598],[-139.683333,60.365575],[-139.716667,60.365575]]}},{"type":"Feature","properties":{"id":"4000"},"geometry":{"type":"LineString","coordinates":[[-139.066667,60.332598],[-139.066667,60.316097],[-139.05,60.316097],[-139.05,60.332598],[-139.066667,60.332598]]}},{"type":"Feature","properties":{"id":"4000"},"geometry":{"type":"LineString","coordinates":[[-141.0,60.332598],[-141.0,60.307843],[-140.983333,60.307843],[-140.983333,60.316097],[-140.966667,60.316097],[-140.966667,60.332598],[-141.0,60.332598]]}},{"type":"Feature","properties":{"id":"4000"},"geometry":{"type":"LineString","coordinates":[[-140.933333,60.316097],[-140.933333,60.299587],[-140.916667,60.299587],[-140.916667,60.316097],[-140.933333,60.316097]]}}]}
