{"type":"FeatureCollection","features":[{"type":"Feature","properties":{"id":"3000"},"geometry":{"type":"LineString","coordinates":[[-141.0,61.331508],[-141.0,61.299512],[-140.95,61.299512],[-140.95,61.315514],[-140.983333,61.315514],[-140.983333,61.331508],[-141.0,61.331508]]}},{"type":"Feature","properties":{"id":"3000"},"geometry":{"type":"LineString","coordinates":[[-140.833333,61.331508],[-140.833333,61.315514],[-140.866667,61.315514],[-140.866667,61.299512],[-140.8,61.299512],[-140.8,61.331508],[-140.833333,61.331508]]}},{"type":"Feature","properties":{"id":"3000"},"geometry":{"type":"LineString","coordinates":[[-140.7,61.283502],[-140.7,61.267484],[-140.683333,61.267484],[-140.683333,61.251458],[-140.65,61.251458],[-140.65,61.267484],[-140.666667,61.267484],[-140.666667,61.283502],[-140.7,61.283502]]}},{"type":"Feature","properties":{"id":"3000"},"geometry":{"type":"LineString","coordinates":[[-140.55,61.267484],[-140.55,61.251458],[-140.5,61.251458],[-140.5,61.267484],[-140.55,61.267484]]}},{"type":"Feature","properties":{"id":"3000"},"geometry":{"type":"LineString","coordinates":[[-140.65,61.251458],[-140.65,61.235423],[-140.633333,61.235423],[-140.633333,61.251458],[-140.65,61.251458]]}},{"type":"Feature","properties":{"id":"3000"},"geometry":{"type":"LineString","coordinates":[[-140.466667,61.251458],[-140.466667,61.235423],[-140.433333,61.235423],[-140.433333,61.251458],[-140.466667,61.251458]]}},{"type":"Feature","properties":{"id":"3000"},"geometry":{"type":"LineString","coordinates":[[-140.916667,61.299512],[-140.916667,61.283502],[-140.933333,61.283502],[-140.933333,61.267484],[-140.9,61.267484],[-140.9,61.251458],[-140.883333,61.251458],[-140.883333,61.267484],[-140.866667,61.267484],[-140.866667,61.235423],[-140.883333,61.235423],[-140.883333,61.21938],[-140.85,61.21938],[-140.85,61.235423],[-140.833333,61.235423],[-140.833333,61.251458],[-140.8,61.251458],[-140.8,61.235423],[-140.783333,61.235423],[-140.783333,61.267484],[-140.85,61.267484],[-140.85,61.283502],[-140.883333,61.283502],[-140.883333,61.299512],[-140.916667,61.299512]]}},{"type":"Feature","properties":{"id":"3000"},"geometry":{"type":"LineString","coordinates":[[-140.833333,61.235423],[-140.833333,61.21938],[-140.816667,61.21938],[-140.816667,61.235423],[-140.833333,61.235423]]}},{"type":"Feature","properties":{"id":"3000"},"geometry":{"type":"LineString","coordinates":[[-140.783333,61.235423],[-140.783333,61.21938],[-140.75,61.21938],[-140.75,61.235423],[-140.783333,61.235423]]}},{"type":"Feature","properties":{"id":"3000"},"geometry":{"type":"LineString","coordinates":[[-140.733333,61.251458],[-140.733333,61.235423],[-140.716667,61.235423],[-140.716667,61.203329],[-140.7,61.203329],[-140.7,61.235423],[-140.683333,61.235423],[-140.683333,61.251458],[-140.733333,61.251458]]}},{"type":"Feature","properties":{"id":"3000"},"geometry":{"type":"LineString","coordinates":[[-140.683333,61.21938],[-140.683333,61.203329],[-140.666667,61.203329],[-140.666667,61.21938],[-140.683333,61.21938]]}},{"type":"Feature","properties":{"id":"3000"},"geometry":{"type":"LineString","coordinates":[[-140.433333,61.235423],[-140.433333,61.21938],[-140.5,61.21938],[-140.5,61.18727],[-140.483333,61.18727],[-140.483333,61.203329],[-140.4,61.203329],[-140.4,61.21938],[-140.416667,61.21938],[-140.416667,61.235423],[-140.433333,61.235423]]}},{"type":"Feature","properties":{"id":"3000"},"geometry":{"type":"LineString","coordinates":[[-140.6,61.283502],[-140.6,61.235423],[-140.633333,61.235423],[-140.633333,61.21938],[-140.65,61.21938],[-140.65,61.203329],[-140.666667,61.203329],[-140.666667,61.18727],[-140.733333,61.18727],[-140.733333,61.163166],[-140.633333,61.163166],[-140.633333,61.18727],[-140.616667,61.18727],[-140.616667,61.203329],[-140.566667,61.203329],[-140.566667,61.21938],[-140.583333,61.21938],[-140.583333,61.267484],[-140.566667,61.267484],[-140.566667,61.283502],[-140.6,61.283502]]}},{"type":"Feature","properties":{"id":"3000"},"geometry":{"type":"LineString","coordinates":[[-140.466667,61.18727],[-140.466667,61.163166],[-140.45,61.163166],[-140.45,61.18727],[-140.466667,61.18727]]}},{"type":"Feature","properties":{"id":"3000"},"geometry":{"type":"LineString","coordinates":[[-140.566667,61.163166],[-140.566667,61.130999],[-140.55,61.130999],[-140.55,61.147086],[-140.516667,61.147086],[-140.516667,61.163166],[-140.566667,61.163166]]}},{"type":"Feature","properties":{"id":"3000"},"geometry":{"type":"LineString","coordinates":[[-140.766667,61.163166],[-140.766667,61.147086],[-140.783333,61.147086],[-140.783333,61.130999],[-140.716667,61.130999],[-140.716667,61.147086],[-140.733333,61.147086],[-140.733333,61.163166],[-140.766667,61.163166]]}},{"type":"Feature","properties":{"id":"3000"},"geometry":{"type":"LineString","coordinates":[[-140.5,61.147086],[-140.5,61.130999],[-140.466667,61.130999],[-140.466667,61.114903],[-140.416667,61.114903],[-140.416667,61.130999],[-140.433333,61.130999],[-140.433333,61.147086],[-140.5,61.147086]]}},{"type":"Feature","properties":{"id":"3000"},"geometry":{"type":"LineString","coordinates":[[-139.983333,61.130999],[-139.983333,61.114903],[-139.966667,61.114903],[-139.966667,61.130999],[-139.983333,61.130999]]}},{"type":"Feature","properties":{"id":"3000"},"geometry":{"type":"LineString","coordinates":[[-140.383333,61.18727],[-140.383333,61.130999],[-140.4,61.130999],[-140.4,61.114903],[-140.366667,61.114903],[-140.366667,61.098799],[-140.35,61.098799],[-140.35,61.114903],[-140.316667,61.114903],[-140.316667,61.130999],[-140.366667,61.130999],[-140.366667,61.147086],[-140.316667,61.147086],[-140.316667,61.163166],[-140.366667,61.163166],[-140.366667,61.18727],[-140.383333,61.18727]]}},{"type":"Feature","properties":{"id":"3000"},"geometry":{"type":"LineString","coordinates":[[-140.266667,61.114903],[-140.266667,61.098799],[-140.25,61.098799],[-140.25,61.114903],[-140.266667,61.114903]]}},{"type":"Feature","properties":{"id":"3000"},"geometry":{"type":"LineString","coordinates":[[-140.7,61.147086],[-140.7,61.130999],[-140.683333,61.130999],[-140.683333,61.098799],[-140.65,61.098799],[-140.65,61.082686],[-140.633333,61.082686],[-140.633333,61.114903],[-140.6,61.114903],[-140.6,61.130999],[-140.633333,61.130999],[-140.633333,61.147086],[-140.7,61.147086]]}},{"type":"Feature","properties":{"id":"3000"},"geometry":{"type":"LineString","coordinates":[[-140.55,61.130999],[-140.55,61.114903],[-140.6,61.114903],[-140.6,61.098799],[-140.55,61.098799],[-140.55,61.082686],[-140.533333,61.082686],[-140.533333,61.098799],[-140.516667,61.098799],[-140.516667,61.114903],[-140.533333,61.114903],[-140.533333,61.130999],[-140.55,61.130999]]}},{"type":"Feature","properties":{"id":"3000"},"geometry":{"type":"LineString","coordinates":[[-140.8,61.098799],[-140.8,61.082686],[-140.766667,61.082686],[-140.766667,61.098799],[-140.8,61.098799]]}},{"type":"Feature","properties":{"id":"3000"},"geometry":{"type":"LineString","coordinates":[[-140.283333,61.098799],[-140.283333,61.082686],[-140.266667,61.082686],[-140.266667,61.098799],[-140.283333,61.098799]]}},{"type":"Feature","properties":{"id":"3000"},"geometry":{"type":"LineString","coordinates":[[-140.066667,61.203329],[-140.066667,61.163166],[-140.133333,61.163166],[-140.133333,61.147086],[-140.083333,61.147086],[-140.083333,61.130999],[-140.066667,61.130999],[-140.066667,61.114903],[-140.116667,61.114903],[-140.116667,61.098799],[-140.083333,61.098799],[-140.083333,61.066565],[-140.066667,61.066565],[-140.066667,61.082686],[-140.05,61.082686],[-140.05,61.130999],[-140.016667,61.130999],[-140.016667,61.163166],[-140.05,61.163166],[-140.05,61.18727],[-140.033333,61.18727],[-140.033333,61.203329],[-140.066667,61.203329]]}},{"type":"Feature","properties":{"id":"3000"},"geometry":{"type":"LineString","coordinates":[[-140.45,61.098799],[-140.45,61.066565],[-140.433333,61.066565],[-140.433333,61.082686],[-140.416667,61.082686],[-140.416667,61.098799],[-140.45,61.098799]]}},{"type":"Feature","properties":{"id":"3000"},"geometry":{"type":"LineString","coordinates":[[-140.216667,61.082686],[-140.216667,61.066565],[-140.2,61.066565],[-140.2,61.082686],[-140.216667,61.082686]]}},{"type":"Feature","properties":{"id":"3000"},"geometry":{"type":"LineString","coordinates":[[-139.85,61.082686],[-139.85,61.066565],[-139.816667,61.066565],[-139.816667,61.082686],[-139.85,61.082686]]}},{"type":"Feature","properties":{"id":"3000"},"geometry":{"type":"LineString","coordinates":[[-140.483333,61.066565],[-140.483333,61.050437],[-140.466667,61.050437],[-140.466667,61.066565],[-140.483333,61.066565]]}},{"type":"Feature","properties":{"id":"3000"},"geometry":{"type":"LineString","coordinates":[[-140.0,61.066565],[-140.0,61.050437],[-139.966667,61.050437],[-139.966667,61.066565],[-140.0,61.066565]]}},{"type":"Feature","properties":{"id":"3000"},"geometry":{"type":"LineString","coordinates":[[-139.866667,61.066565],[-139.866667,61.050437],[-139.85,61.050437],[-139.85,61.066565],[-139.866667,61.066565]]}},{"type":"Feature","properties":{"id":"3000"},"geometry":{"type":"LineString","coordinates":[[-140.383333,61.066565],[-140.383333,61.050437],[-140.366667,61.050437],[-140.366667,61.0343],[-140.35,61.0343],[-140.35,61.050437],[-140.316667,61.050437],[-140.316667,61.0343],[-140.283333,61.0343],[-140.283333,61.050437],[-140.25,61.050437],[-140.25,61.066565],[-140.383333,61.066565]]}},{"type":"Feature","properties":{"id":"3000"},"geometry":{"type":"LineString","coordinates":[[-140.25,61.050437],[-140.25,61.0343],[-140.233333,61.0343],[-140.233333,61.050437],[-140.25,61.050437]]}},{"type":"Feature","properties":{"id":"3000"},"geometry":{"type":"LineString","coordinates":[[-139.933333,61.050437],[-139.933333,61.018154],[-139.9,61.018154],[-139.9,61.0343],[-139.866667,61.0343],[-139.866667,61.050437],[-139.933333,61.050437]]}},{"type":"Feature","properties":{"id":"3000"},"geometry":{"type":"LineString","coordinates":[[-140.216667,61.0343],[-140.216667,61.018154],[-140.2,61.018154],[-140.2,61.0343],[-140.216667,61.0343]]}},{"type":"Feature","properties":{"id":"3000"},"geometry":{"type":"LineString","coordinates":[[-140.433333,61.018154],[-140.433333,61.002001],[-140.4,61.002001],[-140.4,61.018154],[-140.433333,61.018154]]}},{"type":"Feature","properties":{"id":"3000"},"geometry":{"type":"LineString","coordinates":[[-140.35,61.0343],[-140.35,61.018154],[-140.383333,61.018154],[-140.383333,60.985839],[-140.35,60.985839],[-140.35,61.002001],[-140.333333,61.002001],[-140.333333,61.0343],[-140.35,61.0343]]}},{"type":"Feature","properties":{"id":"3000"},"geometry":{"type":"LineString","coordinates":[[-140.466667,61.002001],[-140.466667,60.985839],[-140.433333,60.985839],[-140.433333,61.002001],[-140.466667,61.002001]]}},{"type":"Feature","properties":{"id":"3000"},"geometry":{"type":"LineString","coordinates":[[-139.75,61.002001],[-139.75,60.985839],[-139.733333,60.985839],[-139.733333,61.002001],[-139.75,61.002001]]}},{"type":"Feature","properties":{"id":"3000"},"geometry":{"type":"LineString","coordinates":[[-139.966667,61.050437],[-139.966667,61.0343],[-139.983333,61.0343],[-139.983333,61.018154],[-139.966667,61.018154],[-139.966667,60.969669],[-139.933333,60.969669],[-139.933333,60.953491],[-139.916667,60.953491],[-139.916667,60.969669],[-139.9,60.969669],[-139.9,60.985839],[-139.933333,60.985839],[-139.933333,61.002001],[-139.95,61.002001],[-139.95,61.050437],[-139.966667,61.050437]]}},{"type":"Feature","properties":{"id":"3000"},"geometry":{"type":"LineString","coordinates":[[-140.566667,61.050437],[-140.566667,61.002001],[-140.583333,61.002001],[-140.583333,60.969669],[-140.566667,60.969669],[-140.566667,60.953491],[-140.55,60.953491],[-140.55,60.969669],[-140.533333,60.969669],[-140.533333,60.985839],[-140.55,60.985839],[-140.55,61.018154],[-140.533333,61.018154],[-140.533333,61.0343],[-140.516667,61.0343],[-140.516667,61.050437],[-140.566667,61.050437]]}},{"type":"Feature","properties":{"id":"3000"},"geometry":{"type":"LineString","coordinates":[[-140.033333,60.985839],[-140.033333,60.969669],[-140.016667,60.969669],[-140.016667,60.953491],[-139.966667,60.953491],[-139.966667,60.969669],[-139.983333,60.969669],[-139.983333,60.985839],[-140.033333,60.985839]]}},{"type":"Feature","properties":{"id":"3000"},"geometry":{"type":"LineString","coordinates":[[-140.866667,60.969669],[-140.866667,60.953491],[-140.85,60.953491],[-140.85,60.969669],[-140.866667,60.969669]]}},{"type":"Feature","properties":{"id":"3000"},"geometry":{"type":"LineString","coordinates":[[-140.666667,60.969669],[-140.666667,60.953491],[-140.633333,60.953491],[-140.633333,60.969669],[-140.666667,60.969669]]}},{"type":"Feature","properties":{"id":"3000"},"geometry":{"type":"LineString","coordinates":[[-139.683333,60.969669],[-139.683333,60.953491],[-139.65,60.953491],[-139.65,60.969669],[-139.683333,60.969669]]}},{"type":"Feature","properties":{"id":"3000"},"geometry":{"type":"LineString","coordinates":[[-140.516667,60.985839],[-140.516667,60.969669],[-140.5,60.969669],[-140.5,60.953491],[-140.483333,60.953491],[-140.483333,60.937305],[-140.45,60.937305],[-140.45,60.953491],[-140.466667,60.953491],[-140.466667,60.985839],[-140.516667,60.985839]]}},{"type":"Feature","properties":{"id":"3000"},"geometry":{"type":"LineString","coordinates":[[-140.733333,60.969669],[-140.733333,60.937305],[-140.683333,60.937305],[-140.683333,60.953491],[-140.716667,60.953491],[-140.716667,60.969669],[-140.733333,60.969669]]}},{"type":"Feature","properties":{"id":"3000"},"geometry":{"type":"LineString","coordinates":[[-140.266667,60.985839],[-140.266667,60.953491],[-140.25,60.953491],[-140.25,60.969669],[-140.216667,60.969669],[-140.216667,60.953491],[-140.233333,60.953491],[-140.233333,60.937305],[-140.2,60.937305],[-140.2,60.985839],[-140.266667,60.985839]]}},{"type":"Feature","properties":{"id":"3000"},"geometry":{"type":"LineString","coordinates":[[-140.683333,60.937305],[-140.683333,60.91301],[-140.666667,60.91301],[-140.666667,60.937305],[-140.683333,60.937305]]}},{"type":"Feature","properties":{"id":"3000"},"geometry":{"type":"LineString","coordinates":[[-140.5,60.937305],[-140.5,60.91301],[-140.483333,60.91301],[-140.483333,60.937305],[-140.5,60.937305]]}},{"type":"Feature","properties":{"id":"3000"},"geometry":{"type":"LineString","coordinates":[[-140.266667,60.937305],[-140.266667,60.91301],[-140.233333,60.91301],[-140.233333,60.937305],[-140.266667,60.937305]]}},{"type":"Feature","properties":{"id":"3000"},"geometry":{"type":"LineString","coordinates":[[-140.133333,61.098799],[-140.133333,61.082686],[-140.15,61.082686],[-140.15,61.066565],[-140.166667,61.066565],[-140.166667,61.0343],[-140.183333,61.0343],[-140.183333,61.018154],[-140.2,61.018154],[-140.2,61.002001],[-140.183333,61.002001],[-140.183333,60.985839],[-140.166667,60.985839],[-140.166667,60.969669],[-140.15,60.969669],[-140.15,60.953491],[-140.133333,60.953491],[-140.133333,60.969669],[-140.116667,60.969669],[-140.116667,60.953491],[-140.1,60.953491],[-140.1,60.937305],[-140.083333,60.937305],[-140.083333,60.91301],[-140.066667,60.91301],[-140.066667,60.896803],[-140.05,60.896803],[-140.05,60.937305],[-140.066667,60.937305],[-140.066667,60.953491],[-140.083333,60.953491],[-140.083333,60.969669],[-140.1,60.969669],[-140.1,60.985839],[-140.033333,60.985839],[-140.033333,61.018154],[-140.016667,61.018154],[-140.016667,61.0343],[-140.05,61.0343],[-140.05,61.018154],[-140.116667,61.018154],[-140.116667,61.0343],[-140.083333,61.0343],[-140.083333,61.050437],[-140.1,61.050437],[-140.1,61.066565],[-140.116667,61.066565],[-140.116667,61.098799],[-140.133333,61.098799]]}},{"type":"Feature","properties":{"id":"3000"},"geometry":{"type":"LineString","coordinates":[[-139.983333,60.91301],[-139.983333,60.896803],[-139.933333,60.896803],[-139.933333,60.91301],[-139.983333,60.91301]]}},{"type":"Feature","properties":{"id":"3000"},"geometry":{"type":"LineString","coordinates":[[-139.916667,60.896803],[-139.916667,60.880588],[-139.9,60.880588],[-139.9,60.896803],[-139.916667,60.896803]]}},{"type":"Feature","properties":{"id":"3000"},"geometry":{"type":"LineString","coordinates":[[-139.85,60.880588],[-139.85,60.864364],[-139.9,60.864364],[-139.9,60.831893],[-139.833333,60.831893],[-139.833333,60.848133],[-139.816667,60.848133],[-139.816667,60.864364],[-139.833333,60.864364],[-139.833333,60.880588],[-139.85,60.880588]]}},{"type":"Feature","properties":{"id":"3000"},"geometry":{"type":"LineString","coordinates":[[-139.733333,60.953491],[-139.733333,60.937305],[-139.7,60.937305],[-139.7,60.896803],[-139.733333,60.896803],[-139.733333,60.91301],[-139.783333,60.91301],[-139.783333,60.937305],[-139.816667,60.937305],[-139.816667,60.896803],[-139.766667,60.896803],[-139.766667,60.864364],[-139.75,60.864364],[-139.75,60.848133],[-139.783333,60.848133],[-139.783333,60.831893],[-139.8,60.831893],[-139.8,60.848133],[-139.816667,60.848133],[-139.816667,60.831893],[-139.833333,60.831893],[-139.833333,60.815645],[-139.733333,60.815645],[-139.733333,60.831893],[-139.716667,60.831893],[-139.716667,60.848133],[-139.666667,60.848133],[-139.666667,60.864364],[-139.65,60.864364],[-139.65,60.880588],[-139.633333,60.880588],[-139.633333,60.896803],[-139.666667,60.896803],[-139.666667,60.937305],[-139.683333,60.937305],[-139.683333,60.953491],[-139.733333,60.953491]]}},{"type":"Feature","properties":{"id":"3000"},"geometry":{"type":"LineString","coordinates":[[-140.183333,60.815645],[-140.183333,60.799388],[-140.15,60.799388],[-140.15,60.815645],[-140.183333,60.815645]]}},{"type":"Feature","properties":{"id":"3000"},"geometry":{"type":"LineString","coordinates":[[-139.1,60.669039],[-139.1,60.652708],[-139.083333,60.652708],[-139.083333,60.669039],[-139.1,60.669039]]}},{"type":"Feature","properties":{"id":"3000"},"geometry":{"type":"LineString","coordinates":[[-140.666667,60.685362],[-140.666667,60.652708],[-140.65,60.652708],[-140.65,60.636369],[-140.633333,60.636369],[-140.633333,60.669039],[-140.65,60.669039],[-140.65,60.685362],[-140.666667,60.685362]]}},{"type":"Feature","properties":{"id":"3000"},"geometry":{"type":"LineString","coordinates":[[-139.766667,60.669039],[-139.766667,60.636369],[-139.75,60.636369],[-139.75,60.652708],[-139.733333,60.652708],[-139.733333,60.669039],[-139.766667,60.669039]]}},{"type":"Feature","properties":{"id":"3000"},"geometry":{"type":"LineString","coordinates":[[-140.966667,60.652708],[-140.966667,60.636369],[-140.916667,60.636369],[-140.916667,60.652708],[-140.966667,60.652708]]}},{"type":"Feature","properties":{"id":"3000"},"geometry":{"type":"LineString","coordinates":[[-140.883333,60.652708],[-140.883333,60.636369],[-140.866667,60.636369],[-140.866667,60.652708],[-140.883333,60.652708]]}},{"type":"Feature","properties":{"id":"3000"},"geometry":{"type":"LineString","coordinates":[[-140.416667,60.652708],[-140.416667,60.636369],[-140.4,60.636369],[-140.4,60.652708],[-140.416667,60.652708]]}},{"type":"Feature","properties":{"id":"3000"},"geometry":{"type":"LineString","coordinates":[[-139.233333,60.652708],[-139.233333,60.636369],[-139.2,60.636369],[-139.2,60.652708],[-139.233333,60.652708]]}},{"type":"Feature","properties":{"id":"3000"},"geometry":{"type":"LineString","coordinates":[[-140.833333,60.636369],[-140.833333,60.620022],[-140.816667,60.620022],[-140.816667,60.636369],[-140.833333,60.636369]]}},{"type":"Feature","properties":{"id":"3000"},"geometry":{"type":"LineString","coordinates":[[-140.8,60.636369],[-140.8,60.620022],[-140.783333,60.620022],[-140.783333,60.636369],[-140.8,60.636369]]}},{"type":"Feature","properties":{"id":"3000"},"geometry":{"type":"LineString","coordinates":[[-140.4,60.636369],[-140.4,60.620022],[-140.383333,60.620022],[-140.383333,60.636369],[-140.4,60.636369]]}},{"type":"Feature","properties":{"id":"3000"},"geometry":{"type":"LineString","coordinates":[[-140.216667,60.636369],[-140.216667,60.620022],[-140.2,60.620022],[-140.2,60.636369],[-140.216667,60.636369]]}},{"type":"Feature","properties":{"id":"3000"},"geometry":{"type":"LineString","coordinates":[[-139.75,60.636369],[-139.75,60.620022],[-139.733333,60.620022],[-139.733333,60.636369],[-139.75,60.636369]]}},{"type":"Feature","properties":{"id":"3000"},"geometry":{"type":"LineString","coordinates":[[-140.283333,60.620022],[-140.283333,60.603666],[-140.233333,60.603666],[-140.233333,60.620022],[-140.283333,60.620022]]}},{"type":"Feature","properties":{"id":"3000"},"geometry":{"type":"LineString","coordinates":[[-140.066667,60.620022],[-140.066667,60.603666],[-140.033333,60.603666],[-140.033333,60.620022],[-140.066667,60.620022]]}},{"type":"Feature","properties":{"id":"3000"},"geometry":{"type":"LineString","coordinates":[[-139.716667,60.652708],[-139.716667,60.620022],[-139.733333,60.620022],[-139.733333,60.603666],[-139.7,60.603666],[-139.7,60.652708],[-139.716667,60.652708]]}},{"type":"Feature","properties":{"id":"3000"},"geometry":{"type":"LineString","coordinates":[[-139.166667,60.620022],[-139.166667,60.603666],[-139.133333,60.603666],[-139.133333,60.620022],[-139.166667,60.620022]]}},{"type":"Feature","properties":{"id":"3000"},"geometry":{"type":"LineString","coordinates":[[-140.75,60.636369],[-140.75,60.620022],[-140.766667,60.620022],[-140.766667,60.603666],[-140.75,60.603666],[-140.75,60.587302],[-140.733333,60.587302],[-140.733333,60.603666],[-140.666667,60.603666],[-140.666667,60.620022],[-140.716667,60.620022],[-140.716667,60.636369],[-140.75,60.636369]]}},{"type":"Feature","properties":{"id":"3000"},"geometry":{"type":"LineString","coordinates":[[-140.366667,60.620022],[-140.366667,60.603666],[-140.316667,60.603666],[-140.316667,60.587302],[-140.283333,60.587302],[-140.283333,60.603666],[-140.3,60.603666],[-140.3,60.620022],[-140.366667,60.620022]]}},{"type":"Feature","properties":{"id":"3000"},"geometry":{"type":"LineString","coordinates":[[-140.166667,60.620022],[-140.166667,60.603666],[-140.183333,60.603666],[-140.183333,60.587302],[-140.15,60.587302],[-140.15,60.620022],[-140.166667,60.620022]]}},{"type":"Feature","properties":{"id":"3000"},"geometry":{"type":"LineString","coordinates":[[-140.033333,60.603666],[-140.033333,60.587302],[-140.016667,60.587302],[-140.016667,60.603666],[-140.033333,60.603666]]}},{"type":"Feature","properties":{"id":"3000"},"geometry":{"type":"LineString","coordinates":[[-139.133333,60.603666],[-139.133333,60.587302],[-139.116667,60.587302],[-139.116667,60.603666],[-139.133333,60.603666]]}},{"type":"Feature","properties":{"id":"3000"},"geometry":{"type":"LineString","coordinates":[[-140.566667,60.587302],[-140.566667,60.562741],[-140.55,60.562741],[-140.55,60.587302],[-140.566667,60.587302]]}},{"type":"Feature","properties":{"id":"3000"},"geometry":{"type":"LineString","coordinates":[[-139.116667,60.587302],[-139.116667,60.562741],[-139.083333,60.562741],[-139.083333,60.587302],[-139.116667,60.587302]]}},{"type":"Feature","properties":{"id":"3000"},"geometry":{"type":"LineString","coordinates":[[-140.7,60.587302],[-140.7,60.562741],[-140.716667,60.562741],[-140.716667,60.546356],[-140.683333,60.546356],[-140.683333,60.587302],[-140.7,60.587302]]}},{"type":"Feature","properties":{"id":"3000"},"geometry":{"type":"LineString","coordinates":[[-140.6,60.562741],[-140.6,60.546356],[-140.583333,60.546356],[-140.583333,60.562741],[-140.6,60.562741]]}},{"type":"Feature","properties":{"id":"3000"},"geometry":{"type":"LineString","coordinates":[[-140.533333,60.562741],[-140.533333,60.546356],[-140.516667,60.546356],[-140.516667,60.562741],[-140.533333,60.562741]]}},{"type":"Feature","properties":{"id":"3000"},"geometry":{"type":"LineString","coordinates":[[-140.483333,60.562741],[-140.483333,60.546356],[-140.466667,60.546356],[-140.466667,60.562741],[-140.483333,60.562741]]}},{"type":"Feature","properties":{"id":"3000"},"geometry":{"type":"LineString","coordinates":[[-140.316667,60.562741],[-140.316667,60.546356],[-140.25,60.546356],[-140.25,60.562741],[-140.316667,60.562741]]}},{"type":"Feature","properties":{"id":"3000"},"geometry":{"type":"LineString","coordinates":[[-140.75,60.546356],[-140.75,60.529963],[-140.733333,60.529963],[-140.733333,60.546356],[-140.75,60.546356]]}},{"type":"Feature","properties":{"id":"3000"},"geometry":{"type":"LineString","coordinates":[[-140.433333,60.546356],[-140.433333,60.529963],[-140.416667,60.529963],[-140.416667,60.546356],[-140.433333,60.546356]]}},{"type":"Feature","properties":{"id":"3000"},"geometry":{"type":"LineString","coordinates":[[-140.333333,60.546356],[-140.333333,60.529963],[-140.316667,60.529963],[-140.316667,60.546356],[-140.333333,60.546356]]}},{"type":"Feature","properties":{"id":"3000"},"geometry":{"type":"LineString","coordinates":[[-139.8,60.546356],[-139.8,60.529963],[-139.783333,60.529963],[-139.783333,60.546356],[-139.8,60.546356]]}},{"type":"Feature","properties":{"id":"3000"},"geometry":{"type":"LineString","coordinates":[[-140.683333,60.529963],[-140.683333,60.513561],[-140.65,60.513561],[-140.65,60.529963],[-140.683333,60.529963]]}},{"type":"Feature","properties":{"id":"3000"},"geometry":{"type":"LineString","coordinates":[[-140.416667,60.529963],[-140.416667,60.513561],[-140.4,60.513561],[-140.4,60.529963],[-140.416667,60.529963]]}},{"type":"Feature","properties":{"id":"3000"},"geometry":{"type":"LineString","coordinates":[[-139.783333,60.529963],[-139.783333,60.513561],[-139.766667,60.513561],[-139.766667,60.529963],[-139.783333,60.529963]]}},{"type":"Feature","properties":{"id":"3000"},"geometry":{"type":"LineString","coordinates":[[-139.083333,60.562741],[-139.083333,60.513561],[-139.1,60.513561],[-139.1,60.497152],[-139.066667,60.497152],[-139.066667,60.480734],[-139.083333,60.480734],[-139.083333,60.464308],[-139.066667,60.464308],[-139.066667,60.447873],[-139.033333,60.447873],[-139.033333,60.464308],[-139.0,60.464308],[-139.0,60.480734],[-139.016667,60.480734],[-139.016667,60.497152],[-139.05,60.497152],[-139.05,60.513561],[-139.066667,60.513561],[-139.066667,60.562741],[-139.083333,60.562741]]}},{"type":"Feature","properties":{"id":"3000"},"geometry":{"type":"LineString","coordinates":[[-139.166667,60.464308],[-139.166667,60.447873],[-139.133333,60.447873],[-139.133333,60.464308],[-139.166667,60.464308]]}},{"type":"Feature","properties":{"id":"3000"},"geometry":{"type":"LineString","coordinates":[[-138.983333,60.464308],[-138.983333,60.447873],[-138.966667,60.447873],[-138.966667,60.464308],[-138.983333,60.464308]]}},{"type":"Feature","properties":{"id":"3000"},"geometry":{"type":"LineString","coordinates":[[-139.233333,60.464308],[-139.233333,60.447873],[-139.216667,60.447873],[-139.216667,60.43143],[-139.183333,60.43143],[-139.183333,60.464308],[-139.233333,60.464308]]}},{"type":"Feature","properties":{"id":"3000"},"geometry":{"type":"LineString","coordinates":[[-139.8,60.398519],[-139.8,60.365575],[-139.75,60.365575],[-139.75,60.382051],[-139.783333,60.382051],[-139.783333,60.398519],[-139.8,60.398519]]}},{"type":"Feature","properties":{"id":"3000"},"geometry":{"type":"LineString","coordinates":[[-139.733333,60.382051],[-139.733333,60.365575],[-139.716667,60.365575],[-139.716667,60.382051],[-139.733333,60.382051]]}},{"type":"Feature","properties":{"id":"3000"},"geometry":{"type":"LineString","coordinates":[[-139.75,60.365575],[-139.75,60.349091],[-139.733333,60.349091],[-139.733333,60.365575],[-139.75,60.365575]]}},{"type":"Feature","properties":{"id":"3000"},"geometry":{"type":"LineString","coordinates":[[-139.666667,60.382051],[-139.666667,60.332598],[-139.65,60.332598],[-139.65,60.340845],[-139.633333,60.340845],[-139.633333,60.349091],[-139.65,60.349091],[-139.65,60.365575],[-139.633333,60.365575],[-139.633333,60.382051],[-139.666667,60.382051]]}},{"type":"Feature","properties":{"id":"3000"},"geometry":{"type":"LineString","coordinates":[[-141.0,60.349091],[-141.0,60.332598],[-140.983333,60.332598],[-140.983333,60.349091],[-141.0,60.349091]]}},{"type":"Feature","properties":{"id":"3000"},"geometry":{"type":"LineString","coordinates":[[-140.766667,60.349091],[-140.766667,60.332598],[-140.75,60.332598],[-140.75,60.349091],[-140.766667,60.349091]]}},{"type":"Feature","properties":{"id":"3000"},"geometry":{"type":"LineString","coordinates":[[-139.733333,60.349091],[-139.733333,60.332598],[-139.716667,60.332598],[-139.716667,60.349091],[-139.733333,60.349091]]}},{"type":"Feature","properties":{"id":"3000"},"geometry":{"type":"LineString","coordinates":[[-138.933333,60.349091],[-138.933333,60.332598],[-138.916667,60.332598],[-138.916667,60.349091],[-138.933333,60.349091]]}},{"type":"Feature","properties":{"id":"3000"},"geometry":{"type":"LineString","coordinates":[[-139.716667,60.332598],[-139.716667,60.324348],[-139.7,60.324348],[-139.7,60.332598],[-139.716667,60.332598]]}},{"type":"Feature","properties":{"id":"3000"},"geometry":{"type":"LineString","coordinates":[[-139.15,60.382051],[-139.15,60.365575],[-139.05,60.365575],[-139.05,60.349091],[-139.016667,60.349091],[-139.016667,60.316097],[-139.0,60.316097],[-139.0,60.332598],[-138.983333,60.332598],[-138.983333,60.349091],[-139.0,60.349091],[-139.0,60.365575],[-139.033333,60.365575],[-139.033333,60.382051],[-139.15,60.382051]]}},{"type":"Feature","properties":{"id":"3000"},"geometry":{"type":"LineString","coordinates":[[-140.816667,60.349091],[-140.816667,60.332598],[-140.85,60.332598],[-140.85,60.316097],[-140.8,60.316097],[-140.8,60.332598],[-140.783333,60.332598],[-140.783333,60.349091],[-140.816667,60.349091]]}},{"type":"Feature","properties":{"id":"3000"},"geometry":{"type":"LineString","coordinates":[[-140.65,60.332598],[-140.65,60.316097],[-140.633333,60.316097],[-140.633333,60.332598],[-140.65,60.332598]]}},{"type":"Feature","properties":{"id":"3000"},"geometry":{"type":"LineString","coordinates":[[-140.616667,60.332598],[-140.616667,60.316097],[-140.583333,60.316097],[-140.583333,60.332598],[-140.616667,60.332598]]}},{"type":"Feature","properties":{"id":"3000"},"geometry":{"type":"LineString","coordinates":[[-140.533333,60.332598],[-140.533333,60.316097],[-140.516667,60.316097],[-140.516667,60.332598],[-140.533333,60.332598]]}},{"type":"Feature","properties":{"id":"3000"},"geometry":{"type":"LineString","coordinates":[[-140.45,60.316097],[-140.45,60.307843],[-140.433333,60.307843],[-140.433333,60.316097],[-140.45,60.316097]]}},{"type":"Feature","properties":{"id":"3000"},"geometry":{"type":"LineString","coordinates":[[-140.966667,60.365575],[-140.966667,60.349091],[-140.95,60.349091],[-140.95,60.316097],[-140.9,60.316097],[-140.9,60.299587],[-140.883333,60.299587],[-140.883333,60.332598],[-140.933333,60.332598],[-140.933333,60.365575],[-140.966667,60.365575]]}},{"type":"Feature","properties":{"id":"3000"},"geometry":{"type":"LineString","coordinates":[[-140.5,60.316097],[-140.5,60.299587],[-140.483333,60.299587],[-140.483333,60.316097],[-140.5,60.316097]]}},{"type":"Feature","properties":{"id":"3000"},"geometry":{"type":"LineString","coordinates":[[-139.033333,60.316097],[-139.033333,60.299587],[-139.016667,60.299587],[-139.016667,60.316097],[-139.033333,60.316097]]}},{"type":"Feature","properties":{"id":"3000"},"geometry":{"type":"LineString","coordinates":[[-138.966667,60.349091],[-138.966667,60.316097],[-138.983333,60.316097],[-138.983333,60.299587],[-138.933333,60.299587],[-138.933333,60.316097],[-138.95,60.316097],[-138.95,60.349091],[-138.966667,60.349091]]}},{"type":"Feature","properties":{"id":"3000"},"geometry":{"type":"LineString","coordinates":[[-140.883333,60.299587],[-140.883333,60.283069],[-140.866667,60.283069],[-140.866667,60.299587],[-140.883333,60.299587]]}},{"type":"Feature","properties":{"id":"3000"},"geometry":{"type":"LineString","coordinates":[[-139.066667,60.299587],[-139.066667,60.283069],[-139.033333,60.283069],[-139.033333,60.299587],[-139.066667,60.299587]]}},{"type":"Feature","properties":{"id":"3000"},"geometry":{"type":"LineString","coordinates":[[-138.9,60.283069],[-138.9,60.266543],[-138.883333,60.266543],[-138.883333,60.283069],[-138.9,60.283069]]}},{"type":"Feature","properties":{"id":"3000"},"geometry":{"type":"LineString","coordinates":[[-140.033333,60.216914],[-140.033333,60.200354],[-140.016667,60.200354],[-140.016667,60.216914],[-140.033333,60.216914]]}},{"type":"Feature","properties":{"id":"3000"},"geometry":{"type":"LineString","coordinates":[[-140.016667,60.200354],[-140.016667,60.192071],[-140.0,60.192071],[-140.0,60.200354],[-140.016667,60.200354]]}},{"type":"Feature","properties":{"id":"3000"},"geometry":{"type":"LineString","coordinates":[[-139.966667,60.200354],[-139.966667,60.192071],[-139.95,60.192071],[-139.95,60.200354],[-139.966667,60.200354]]}},{"type":"Feature","properties":{"id":"3000"},"geometry":{"type":"LineString","coordinates":[[-137.516667,59.020239],[-137.516667,59.003079],[-137.5,59.003079],[-137.5,59.020239],[-137.516667,59.020239]]}},{"type":"Feature","properties":{"id":"3000"},"geometry":{"type":"LineString","coordinates":[[-137.5,59.003079],[-137.5,58.968733],[-137.483333,58.968733],[-137.483333,59.003079],[-137.5,59.003079]]}},{"type":"Feature","properties":{"id":"3000"},"geometry":{"type":"LineString","coordinates":[[-137.466667,58.98591],[-137.466667,58.968733],[-137.45,58.968733],[-137.45,58.98591],[-137.466667,58.98591]]}},{"type":"Feature","properties":{"id":"3000"},"geometry":{"type":"LineString","coordinates":[[-137.516667,58.951547],[-137.516667,58.917149],[-137.45,58.917149],[-137.45,58.951547],[-137.516667,58.951547]]}},{"type":"Feature","properties":{"id":"3000"},"geometry":{"type":"LineString","coordinates":[[-119.433333,53.397394],[-119.433333,53.387456],[-119.416667,53.387456],[-119.416667,53.397394],[-119.433333,53.397394]]}},{"type":"Feature","properties":{"id":"3000"},"geometry":{"type":"LineString","coordinates":[[-119.166667,53.118258],[-119.166667,53.09825],[-119.133333,53.09825],[-119.133333,53.118258],[-119.166667,53.118258]]}},{"type":"Feature","properties":{"id":"3000"},"geometry":{"type":"LineString","coordinates":[[-119.733333,52.81716],[-119.733333,52.786934],[-119.716667,52.786934],[-119.716667,52.81716],[-119.733333,52.81716]]}},{"type":"Feature","properties":{"id":"3000"},"geometry":{"type":"LineString","coordinates":[[-117.35,52.554509],[-117.35,52.513961],[-117.333333,52.513961],[-117.333333,52.554509],[-117.35,52.554509]]}},{"type":"Feature","properties":{"id":"3000"},"geometry":{"type":"LineString","coordinates":[[-117.433333,52.320845],[-117.433333,52.300468],[-117.416667,52.300468],[-117.416667,52.320845],[-117.433333,52.320845]]}},{"type":"Feature","properties":{"id":"3000"},"geometry":{"type":"LineString","coordinates":[[-117.983333,52.249484],[-117.983333,52.229074],[-117.95,52.229074],[-117.95,52.249484],[-117.983333,52.249484]]}},{"type":"Feature","properties":{"id":"3000"},"geometry":{"type":"LineString","coordinates":[[-117.4,52.269885],[-117.4,52.249484],[-117.416667,52.249484],[-117.416667,52.229074],[-117.433333,52.229074],[-117.433333,52.218866],[-117.4,52.218866],[-117.4,52.229074],[-117.383333,52.229074],[-117.383333,52.269885],[-117.4,52.269885]]}},{"type":"Feature","properties":{"id":"3000"},"geometry":{"type":"LineString","coordinates":[[-117.45,52.218866],[-117.45,52.198442],[-117.433333,52.198442],[-117.433333,52.218866],[-117.45,52.218866]]}},{"type":"Feature","properties":{"id":"3000"},"geometry":{"type":"LineString","coordinates":[[-117.4,52.218866],[-117.4,52.198442],[-117.383333,52.198442],[-117.383333,52.188226],[-117.35,52.188226],[-117.35,52.167788],[-117.3,52.167788],[-117.3,52.198442],[-117.316667,52.198442],[-117.316667,52.218866],[-117.35,52.218866],[-117.35,52.198442],[-117.366667,52.198442],[-117.366667,52.218866],[-117.4,52.218866]]}},{"type":"Feature","properties":{"id":"3000"},"geometry":{"type":"LineString","coordinates":[[-117.25,52.188226],[-117.25,52.167788],[-117.216667,52.167788],[-117.216667,52.188226],[-117.25,52.188226]]}},{"type":"Feature","properties":{"id":"3000"},"geometry":{"type":"LineString","coordinates":[[-117.45,52.14734],[-117.45,52.137113],[-117.416667,52.137113],[-117.416667,52.14734],[-117.45,52.14734]]}},{"type":"Feature","properties":{"id":"3000"},"geometry":{"type":"LineString","coordinates":[[-117.333333,52.044962],[-117.333333,52.034711],[-117.316667,52.034711],[-117.316667,52.044962],[-117.333333,52.044962]]}},{"type":"Feature","properties":{"id":"3000"},"geometry":{"type":"LineString","coordinates":[[-117.116667,51.96289],[-117.116667,51.95262],[-117.1,51.95262],[-117.1,51.932074],[-117.083333,51.932074],[-117.083333,51.96289],[-117.116667,51.96289]]}},{"type":"Feature","properties":{"id":"3000"},"geometry":{"type":"LineString","coordinates":[[-116.233333,51.787986],[-116.233333,51.767365],[-116.216667,51.767365],[-116.216667,51.787986],[-116.233333,51.787986]]}},{"type":"Feature","properties":{"id":"3000"},"geometry":{"type":"LineString","coordinates":[[-125.266667,51.404959],[-125.266667,51.384163],[-125.283333,51.384163],[-125.283333,51.363357],[-125.25,51.363357],[-125.25,51.384163],[-125.183333,51.384163],[-125.183333,51.404959],[-125.266667,51.404959]]}},{"type":"Feature","properties":{"id":"3000"},"geometry":{"type":"LineString","coordinates":[[-116.316667,51.384163],[-116.316667,51.363357],[-116.3,51.363357],[-116.3,51.384163],[-116.316667,51.384163]]}},{"type":"Feature","properties":{"id":"3000"},"geometry":{"type":"LineString","coordinates":[[-125.216667,51.332131],[-125.216667,51.321718],[-125.2,51.321718],[-125.2,51.332131],[-125.216667,51.332131]]}},{"type":"Feature","properties":{"id":"3000"},"geometry":{"type":"LineString","coordinates":[[-116.5,50.502165],[-116.5,50.480961],[-116.483333,50.480961],[-116.483333,50.502165],[-116.5,50.502165]]}},{"type":"Feature","properties":{"id":"3000"},"geometry":{"type":"LineString","coordinates":[[-116.566667,50.417292],[-116.566667,50.39605],[-116.55,50.39605],[-116.55,50.417292],[-116.566667,50.417292]]}},{"type":"Feature","properties":{"id":"3000"},"geometry":{"type":"LineString","coordinates":[[-116.7,50.321627],[-116.7,50.300342],[-116.683333,50.300342],[-116.683333,50.321627],[-116.7,50.321627]]}}]}
