{"type":"FeatureCollection","features":[{"type":"Feature","properties":{"id":"3500"},"geometry":{"type":"LineString","coordinates":[[-140.883333,61.267484],[-140.883333,61.251458],[-140.866667,61.251458],[-140.866667,61.267484],[-140.883333,61.267484]]}},{"type":"Feature","properties":{"id":"3500"},"geometry":{"type":"LineString","coordinates":[[-140.833333,61.251458],[-140.833333,61.235423],[-140.8,61.235423],[-140.8,61.251458],[-140.833333,61.251458]]}},{"type":"Feature","properties":{"id":"3500"},"geometry":{"type":"LineString","coordinates":[[-140.783333,61.251458],[-140.783333,61.235423],[-140.733333,61.235423],[-140.733333,61.251458],[-140.783333,61.251458]]}},{"type":"Feature","properties":{"id":"3500"},"geometry":{"type":"LineString","coordinates":[[-140.483333,61.251458],[-140.483333,61.235423],[-140.466667,61.235423],[-140.466667,61.251458],[-140.483333,61.251458]]}},{"type":"Feature","properties":{"id":"3500"},"geometry":{"type":"LineString","coordinates":[[-140.683333,61.251458],[-140.683333,61.235423],[-140.7,61.235423],[-140.7,61.21938],[-140.633333,61.21938],[-140.633333,61.235423],[-140.65,61.235423],[-140.65,61.251458],[-140.683333,61.251458]]}},{"type":"Feature","properties":{"id":"3500"},"geometry":{"type":"LineString","coordinates":[[-140.466667,61.235423],[-140.466667,61.21938],[-140.433333,61.21938],[-140.433333,61.235423],[-140.466667,61.235423]]}},{"type":"Feature","properties":{"id":"3500"},"geometry":{"type":"LineString","coordinates":[[-140.583333,61.267484],[-140.583333,61.21938],[-140.566667,61.21938],[-140.566667,61.203329],[-140.55,61.203329],[-140.55,61.235423],[-140.566667,61.235423],[-140.566667,61.251458],[-140.55,61.251458],[-140.55,61.267484],[-140.583333,61.267484]]}},{"type":"Feature","properties":{"id":"3500"},"geometry":{"type":"LineString","coordinates":[[-140.516667,61.21938],[-140.516667,61.18727],[-140.5,61.18727],[-140.5,61.21938],[-140.516667,61.21938]]}},{"type":"Feature","properties":{"id":"3500"},"geometry":{"type":"LineString","coordinates":[[-140.616667,61.203329],[-140.616667,61.18727],[-140.6,61.18727],[-140.6,61.203329],[-140.616667,61.203329]]}},{"type":"Feature","properties":{"id":"3500"},"geometry":{"type":"LineString","coordinates":[[-140.633333,61.18727],[-140.633333,61.163166],[-140.616667,61.163166],[-140.616667,61.18727],[-140.633333,61.18727]]}},{"type":"Feature","properties":{"id":"3500"},"geometry":{"type":"LineString","coordinates":[[-140.566667,61.18727],[-140.566667,61.163166],[-140.516667,61.163166],[-140.516667,61.18727],[-140.566667,61.18727]]}},{"type":"Feature","properties":{"id":"3500"},"geometry":{"type":"LineString","coordinates":[[-140.733333,61.163166],[-140.733333,61.147086],[-140.633333,61.147086],[-140.633333,61.163166],[-140.733333,61.163166]]}},{"type":"Feature","properties":{"id":"3500"},"geometry":{"type":"LineString","coordinates":[[-140.483333,61.18727],[-140.483333,61.163166],[-140.516667,61.163166],[-140.516667,61.147086],[-140.433333,61.147086],[-140.433333,61.130999],[-140.383333,61.130999],[-140.383333,61.163166],[-140.466667,61.163166],[-140.466667,61.18727],[-140.483333,61.18727]]}},{"type":"Feature","properties":{"id":"3500"},"geometry":{"type":"LineString","coordinates":[[-140.633333,61.147086],[-140.633333,61.130999],[-140.6,61.130999],[-140.6,61.147086],[-140.633333,61.147086]]}},{"type":"Feature","properties":{"id":"3500"},"geometry":{"type":"LineString","coordinates":[[-140.583333,61.163166],[-140.583333,61.130999],[-140.6,61.130999],[-140.6,61.114903],[-140.55,61.114903],[-140.55,61.130999],[-140.566667,61.130999],[-140.566667,61.163166],[-140.583333,61.163166]]}},{"type":"Feature","properties":{"id":"3500"},"geometry":{"type":"LineString","coordinates":[[-140.35,61.114903],[-140.35,61.098799],[-140.333333,61.098799],[-140.333333,61.114903],[-140.35,61.114903]]}},{"type":"Feature","properties":{"id":"3500"},"geometry":{"type":"LineString","coordinates":[[-140.316667,61.114903],[-140.316667,61.098799],[-140.266667,61.098799],[-140.266667,61.114903],[-140.316667,61.114903]]}},{"type":"Feature","properties":{"id":"3500"},"geometry":{"type":"LineString","coordinates":[[-140.416667,61.098799],[-140.416667,61.082686],[-140.366667,61.082686],[-140.366667,61.098799],[-140.416667,61.098799]]}},{"type":"Feature","properties":{"id":"3500"},"geometry":{"type":"LineString","coordinates":[[-140.116667,61.098799],[-140.116667,61.066565],[-140.083333,61.066565],[-140.083333,61.098799],[-140.116667,61.098799]]}},{"type":"Feature","properties":{"id":"3500"},"geometry":{"type":"LineString","coordinates":[[-140.433333,61.082686],[-140.433333,61.066565],[-140.416667,61.066565],[-140.416667,61.082686],[-140.433333,61.082686]]}},{"type":"Feature","properties":{"id":"3500"},"geometry":{"type":"LineString","coordinates":[[-140.316667,61.082686],[-140.316667,61.066565],[-140.25,61.066565],[-140.25,61.050437],[-140.233333,61.050437],[-140.233333,61.066565],[-140.216667,61.066565],[-140.216667,61.082686],[-140.316667,61.082686]]}},{"type":"Feature","properties":{"id":"3500"},"geometry":{"type":"LineString","coordinates":[[-140.466667,61.066565],[-140.466667,61.050437],[-140.433333,61.050437],[-140.433333,61.066565],[-140.466667,61.066565]]}},{"type":"Feature","properties":{"id":"3500"},"geometry":{"type":"LineString","coordinates":[[-140.4,61.066565],[-140.4,61.050437],[-140.383333,61.050437],[-140.383333,61.066565],[-140.4,61.066565]]}},{"type":"Feature","properties":{"id":"3500"},"geometry":{"type":"LineString","coordinates":[[-140.516667,61.050437],[-140.516667,61.0343],[-140.483333,61.0343],[-140.483333,61.050437],[-140.516667,61.050437]]}},{"type":"Feature","properties":{"id":"3500"},"geometry":{"type":"LineString","coordinates":[[-139.95,61.050437],[-139.95,61.0343],[-139.933333,61.0343],[-139.933333,61.050437],[-139.95,61.050437]]}},{"type":"Feature","properties":{"id":"3500"},"geometry":{"type":"LineString","coordinates":[[-140.216667,61.066565],[-140.216667,61.050437],[-140.233333,61.050437],[-140.233333,61.0343],[-140.2,61.0343],[-140.2,61.018154],[-140.183333,61.018154],[-140.183333,61.0343],[-140.166667,61.0343],[-140.166667,61.066565],[-140.216667,61.066565]]}},{"type":"Feature","properties":{"id":"3500"},"geometry":{"type":"LineString","coordinates":[[-140.383333,61.050437],[-140.383333,61.0343],[-140.416667,61.0343],[-140.416667,61.018154],[-140.35,61.018154],[-140.35,61.0343],[-140.366667,61.0343],[-140.366667,61.050437],[-140.383333,61.050437]]}},{"type":"Feature","properties":{"id":"3500"},"geometry":{"type":"LineString","coordinates":[[-140.016667,61.0343],[-140.016667,61.018154],[-139.983333,61.018154],[-139.983333,61.0343],[-140.016667,61.0343]]}},{"type":"Feature","properties":{"id":"3500"},"geometry":{"type":"LineString","coordinates":[[-140.466667,61.018154],[-140.466667,61.002001],[-140.433333,61.002001],[-140.433333,61.018154],[-140.466667,61.018154]]}},{"type":"Feature","properties":{"id":"3500"},"geometry":{"type":"LineString","coordinates":[[-140.55,61.018154],[-140.55,60.985839],[-140.516667,60.985839],[-140.516667,61.018154],[-140.55,61.018154]]}},{"type":"Feature","properties":{"id":"3500"},"geometry":{"type":"LineString","coordinates":[[-140.033333,61.018154],[-140.033333,60.985839],[-140.0,60.985839],[-140.0,61.002001],[-140.016667,61.002001],[-140.016667,61.018154],[-140.033333,61.018154]]}},{"type":"Feature","properties":{"id":"3500"},"geometry":{"type":"LineString","coordinates":[[-140.483333,61.002001],[-140.483333,60.985839],[-140.466667,60.985839],[-140.466667,61.002001],[-140.483333,61.002001]]}},{"type":"Feature","properties":{"id":"3500"},"geometry":{"type":"LineString","coordinates":[[-139.983333,61.018154],[-139.983333,60.969669],[-139.966667,60.969669],[-139.966667,61.018154],[-139.983333,61.018154]]}},{"type":"Feature","properties":{"id":"3500"},"geometry":{"type":"LineString","coordinates":[[-140.133333,60.969669],[-140.133333,60.953491],[-140.116667,60.953491],[-140.116667,60.969669],[-140.133333,60.969669]]}},{"type":"Feature","properties":{"id":"3500"},"geometry":{"type":"LineString","coordinates":[[-140.483333,60.652708],[-140.483333,60.636369],[-140.416667,60.636369],[-140.416667,60.652708],[-140.483333,60.652708]]}},{"type":"Feature","properties":{"id":"3500"},"geometry":{"type":"LineString","coordinates":[[-139.75,60.652708],[-139.75,60.636369],[-139.733333,60.636369],[-139.733333,60.620022],[-139.716667,60.620022],[-139.716667,60.652708],[-139.75,60.652708]]}},{"type":"Feature","properties":{"id":"3500"},"geometry":{"type":"LineString","coordinates":[[-140.416667,60.636369],[-140.416667,60.620022],[-140.4,60.620022],[-140.4,60.636369],[-140.416667,60.636369]]}},{"type":"Feature","properties":{"id":"3500"},"geometry":{"type":"LineString","coordinates":[[-140.716667,60.636369],[-140.716667,60.620022],[-140.666667,60.620022],[-140.666667,60.603666],[-140.65,60.603666],[-140.65,60.636369],[-140.716667,60.636369]]}},{"type":"Feature","properties":{"id":"3500"},"geometry":{"type":"LineString","coordinates":[[-140.383333,60.620022],[-140.383333,60.603666],[-140.366667,60.603666],[-140.366667,60.620022],[-140.383333,60.620022]]}},{"type":"Feature","properties":{"id":"3500"},"geometry":{"type":"LineString","coordinates":[[-140.3,60.620022],[-140.3,60.603666],[-140.283333,60.603666],[-140.283333,60.620022],[-140.3,60.620022]]}},{"type":"Feature","properties":{"id":"3500"},"geometry":{"type":"LineString","coordinates":[[-140.233333,60.620022],[-140.233333,60.603666],[-140.166667,60.603666],[-140.166667,60.620022],[-140.233333,60.620022]]}},{"type":"Feature","properties":{"id":"3500"},"geometry":{"type":"LineString","coordinates":[[-140.733333,60.603666],[-140.733333,60.587302],[-140.683333,60.587302],[-140.683333,60.603666],[-140.733333,60.603666]]}},{"type":"Feature","properties":{"id":"3500"},"geometry":{"type":"LineString","coordinates":[[-140.333333,60.603666],[-140.333333,60.587302],[-140.316667,60.587302],[-140.316667,60.603666],[-140.333333,60.603666]]}},{"type":"Feature","properties":{"id":"3500"},"geometry":{"type":"LineString","coordinates":[[-140.633333,60.587302],[-140.633333,60.562741],[-140.583333,60.562741],[-140.583333,60.587302],[-140.633333,60.587302]]}},{"type":"Feature","properties":{"id":"3500"},"geometry":{"type":"LineString","coordinates":[[-140.55,60.587302],[-140.55,60.562741],[-140.533333,60.562741],[-140.533333,60.587302],[-140.55,60.587302]]}},{"type":"Feature","properties":{"id":"3500"},"geometry":{"type":"LineString","coordinates":[[-140.283333,60.587302],[-140.283333,60.562741],[-140.266667,60.562741],[-140.266667,60.587302],[-140.283333,60.587302]]}},{"type":"Feature","properties":{"id":"3500"},"geometry":{"type":"LineString","coordinates":[[-140.683333,60.587302],[-140.683333,60.546356],[-140.633333,60.546356],[-140.633333,60.562741],[-140.666667,60.562741],[-140.666667,60.587302],[-140.683333,60.587302]]}},{"type":"Feature","properties":{"id":"3500"},"geometry":{"type":"LineString","coordinates":[[-140.466667,60.562741],[-140.466667,60.546356],[-140.433333,60.546356],[-140.433333,60.562741],[-140.466667,60.562741]]}},{"type":"Feature","properties":{"id":"3500"},"geometry":{"type":"LineString","coordinates":[[-140.333333,60.562741],[-140.333333,60.546356],[-140.316667,60.546356],[-140.316667,60.562741],[-140.333333,60.562741]]}},{"type":"Feature","properties":{"id":"3500"},"geometry":{"type":"LineString","coordinates":[[-140.483333,60.546356],[-140.483333,60.529963],[-140.466667,60.529963],[-140.466667,60.546356],[-140.483333,60.546356]]}},{"type":"Feature","properties":{"id":"3500"},"geometry":{"type":"LineString","coordinates":[[-140.416667,60.546356],[-140.416667,60.529963],[-140.383333,60.529963],[-140.383333,60.546356],[-140.416667,60.546356]]}},{"type":"Feature","properties":{"id":"3500"},"geometry":{"type":"LineString","coordinates":[[-140.35,60.546356],[-140.35,60.529963],[-140.333333,60.529963],[-140.333333,60.546356],[-140.35,60.546356]]}},{"type":"Feature","properties":{"id":"3500"},"geometry":{"type":"LineString","coordinates":[[-139.75,60.382051],[-139.75,60.365575],[-139.733333,60.365575],[-139.733333,60.382051],[-139.75,60.382051]]}},{"type":"Feature","properties":{"id":"3500"},"geometry":{"type":"LineString","coordinates":[[-139.733333,60.365575],[-139.733333,60.349091],[-139.716667,60.349091],[-139.716667,60.365575],[-139.733333,60.365575]]}},{"type":"Feature","properties":{"id":"3500"},"geometry":{"type":"LineString","coordinates":[[-139.1,60.365575],[-139.1,60.349091],[-139.066667,60.349091],[-139.066667,60.357334],[-139.05,60.357334],[-139.05,60.365575],[-139.1,60.365575]]}},{"type":"Feature","properties":{"id":"3500"},"geometry":{"type":"LineString","coordinates":[[-139.716667,60.382051],[-139.716667,60.365575],[-139.683333,60.365575],[-139.683333,60.332598],[-139.666667,60.332598],[-139.666667,60.382051],[-139.716667,60.382051]]}},{"type":"Feature","properties":{"id":"3500"},"geometry":{"type":"LineString","coordinates":[[-140.983333,60.349091],[-140.983333,60.332598],[-140.966667,60.332598],[-140.966667,60.316097],[-140.95,60.316097],[-140.95,60.349091],[-140.983333,60.349091]]}},{"type":"Feature","properties":{"id":"3500"},"geometry":{"type":"LineString","coordinates":[[-140.883333,60.332598],[-140.883333,60.316097],[-140.85,60.316097],[-140.85,60.332598],[-140.883333,60.332598]]}},{"type":"Feature","properties":{"id":"3500"},"geometry":{"type":"LineString","coordinates":[[-138.983333,60.349091],[-138.983333,60.332598],[-139.0,60.332598],[-139.0,60.316097],[-138.966667,60.316097],[-138.966667,60.349091],[-138.983333,60.349091]]}},{"type":"Feature","properties":{"id":"3500"},"geometry":{"type":"LineString","coordinates":[[-140.916667,60.316097],[-140.916667,60.299587],[-140.9,60.299587],[-140.9,60.316097],[-140.916667,60.316097]]}},{"type":"Feature","properties":{"id":"3500"},"geometry":{"type":"LineString","coordinates":[[-140.483333,60.316097],[-140.483333,60.299587],[-140.45,60.299587],[-140.45,60.316097],[-140.483333,60.316097]]}},{"type":"Feature","properties":{"id":"3500"},"geometry":{"type":"LineString","coordinates":[[-139.05,60.349091],[-139.05,60.340845],[-139.066667,60.340845],[-139.066667,60.332598],[-139.05,60.332598],[-139.05,60.316097],[-139.066667,60.316097],[-139.066667,60.307843],[-139.083333,60.307843],[-139.083333,60.299587],[-139.033333,60.299587],[-139.033333,60.316097],[-139.016667,60.316097],[-139.016667,60.349091],[-139.05,60.349091]]}},{"type":"Feature","properties":{"id":"3500"},"geometry":{"type":"LineString","coordinates":[[-140.9,60.299587],[-140.9,60.291329],[-140.883333,60.291329],[-140.883333,60.299587],[-140.9,60.299587]]}},{"type":"Feature","properties":{"id":"3500"},"geometry":{"type":"LineString","coordinates":[[-140.0,60.200354],[-140.0,60.192071],[-139.983333,60.192071],[-139.983333,60.183786],[-139.966667,60.183786],[-139.966667,60.200354],[-140.0,60.200354]]}},{"type":"Feature","properties":{"id":"3500"},"geometry":{"type":"LineString","coordinates":[[-137.516667,58.917149],[-137.516667,58.908544],[-137.433333,58.908544],[-137.433333,58.917149],[-137.516667,58.917149]]}}]}
