{"type":"FeatureCollection","features":[{"type":"Feature","properties":{"id":"precipitation-line-500","value":500,"label":"500 mm/年"},"geometry":{"type":"LineString","coordinates":[]}},{"type":"Feature","properties":{"id":"precipitation-line-750","value":750,"label":"750 mm/年"},"geometry":{"type":"LineString","coordinates":[]}},{"type":"Feature","properties":{"id":"precipitation-line-1000","value":1000,"label":"1,000 mm/年"},"geometry":{"type":"LineString","coordinates":[[142.83131348500245,44.70993943531234],[142.7402851452399,44.625],[142.6670795470958,44.375],[142.76764030208466,44.125],[142.875,43.9569814366157],[142.9343142020702,43.875],[143.06109023172544,43.62499999999999],[143.01827827605248,43.375],[142.875,43.14949884659917],[142.8656356559383,43.125],[142.875,43.111604449250954],[143.125,42.90407820218211],[143.375,42.98529299708245],[143.57197137481992,43.125],[143.625,43.186968438941975],[143.875,43.302220009670826],[144.125,43.361315286182915],[144.17432997684813,43.375],[144.375,43.42412047279048],[144.625,43.521340187915605],[144.7473671815959,43.625],[144.85800408933,43.875],[144.8634211467654,43.96762269048509]]}},{"type":"Feature","properties":{"id":"precipitation-line-1250","value":1250,"label":"1,250 mm/年"},"geometry":{"type":"MultiLineString","coordinates":[[[141.7795750803201,44.54970321379085],[141.875,44.450759972186766],[141.90642185650697,44.375],[141.875,44.32941723176981],[141.65730495442267,44.25039865093847]],[[141.14225134677721,43.14939274331496],[141.1460231558027,43.125],[141.2264782731422,42.875],[141.22188090299892,42.625],[141.125,42.56296648190865],[140.875,42.44892229545948],[140.86984057336142,42.44779066037606]],[[140.29406006085227,42.36540233533857],[140.13970476036604,42.375],[140.125,42.378041080811165],[139.875,42.41129898410736],[139.83414763004623,42.41849651059929]],[[140.00369783537707,41.63570938667435],[140.03146763695327,41.625],[140.125,41.608178226403005],[140.375,41.56435949361745],[140.44099602533234,41.55699052350331]],[[142.9059280902969,42.11948920003493],[142.90634100555224,42.125],[142.8761855296662,42.375],[143.125,42.59055486131931],[143.28330773922178,42.625],[143.375,42.64142846264693],[143.625,42.6529895536219],[143.62889898652006,42.6520540858543]],[[141.3878744276537,40.9921456962781],[141.375,40.986348424977415],[141.22823162880815,40.875],[141.125,40.75750048755543],[141.04448861959463,40.625],[141.0189532510055,40.375],[141.125,40.142253555667196],[141.14155698871312,40.125],[141.375,39.95984430225161],[141.625,39.9695463676549],[141.875,40.01034567503852],[141.90975273244615,40.01589388890477]],[[141.52685187011343,38.61638768532554],[141.5088356585228,38.625],[141.375,38.66542442686047],[141.22310887506165,38.625],[141.125,38.569719713121415],[140.9834049061436,38.375],[140.9192806733321,38.125],[140.875,37.99305557544366],[140.625,38.049513492184104],[140.43087923258383,38.125],[140.37500000000003,38.12809559107296],[140.3658796809136,38.125],[140.2276984030659,37.875],[140.375,37.68045204911306],[140.625,37.711652561995656],[140.875,37.82287870963924],[140.9848051249978,37.81245410187893]],[[138.125,36.6473276781081],[138.05342919780054,36.625],[137.875,36.4545531227335],[137.82681706245086,36.375],[137.8461408575046,36.125],[137.875,36.09048844904405],[138.125,36.02150192953266],[138.375,35.936032849369056],[138.51289492699223,36.125],[138.625,36.23757646525287],[138.73136101527183,36.375],[138.625,36.40500585433956],[138.37592135662368,36.625],[138.375,36.62515823478368],[138.125,36.6473276781081]],[[133.125,34.66550180039454],[133.06183956833286,34.625],[133.08062926689203,34.383112244154]],[[133.11191370528837,34.35044912581199],[133.11586496814778,34.34728457767875]],[[133.14045155065088,34.33511147792089],[133.20651563919242,34.314345513983056]],[[133.63120533850872,34.1975515695919],[133.875,34.13775400731439],[134.125,34.25486387473157],[134.18274502321844,34.32101643599256]],[[134.25869978720718,34.42023551457301],[134.34209621461312,34.55107838934474]],[[134.25279391241597,34.717655266848716],[134.125,34.76809798992252],[133.875,34.804297472221776],[133.625,34.780906343628416],[133.375,34.73136459514902],[133.125,34.66550180039454]]]}},{"type":"Feature","properties":{"id":"precipitation-line-1500","value":1500,"label":"1,500 mm/年"},"geometry":{"type":"MultiLineString","coordinates":[[[143.32535525365142,42.090127699734055],[143.29623741502797,42.125],[143.321958097622,42.375],[143.375,42.39654381279283],[143.40172937191386,42.3914775594382]],[[139.933936499224,40.66140465065166],[139.99406408108257,40.625],[140.125,40.537171591209436],[140.25099351942745,40.375],[140.375,40.274472824433005],[140.47841946072316,40.125],[140.62072995701917,39.875],[140.625,39.86373321426232],[140.70122235109315,39.625],[140.84022206593622,39.375],[140.875,39.30744747638677],[141.00786553267324,39.125],[140.92994708596393,38.875],[140.875,38.82076571118626],[140.74092723671856,38.625],[140.625,38.53154279359255],[140.375,38.44837655855426],[140.125,38.39024422190646],[140.08431741641556,38.375],[139.875,38.238775088722164],[139.7374453442245,38.125],[139.625,37.9206859264555],[139.60487750626802,37.875],[139.5165001088148,37.625],[139.55072934384245,37.375],[139.625,37.311344556599856],[139.875,37.140622208684725],[139.91060186181028,37.125],[140.125,36.90403605902716],[140.15747822339412,36.875],[140.125,36.71040001483158],[140.1161557806097,36.625],[139.875,36.42159327537375],[139.67883942177312,36.375],[139.625,36.35895016764662],[139.58979413673003,36.375],[139.375,36.408223249215396],[139.125,36.552496052365115],[139.01994480449713,36.625],[138.875,36.677874540417704],[138.625,36.6963954165656],[138.375,36.72659293149245],[138.125,36.74561821230492],[137.875,36.679765322766514],[137.80467412259094,36.625],[137.6445269192496,36.375],[137.625,36.29179095487193],[137.5717375801225,36.125],[137.625,35.972655825750856],[137.69412970755496,35.875],[137.875,35.742929220831044],[138.04991295253296,35.625],[138.125,35.59043053281857],[138.375,35.49987158422347],[138.625,35.50305233243265],[138.875,35.58226533167884],[139.02051082672875,35.625],[139.125,35.67257349494798],[139.375,35.76601321853772],[139.625,35.84284955678531],[139.875,35.787572676538375],[140.125,35.66521964887871],[140.375,35.785008111171294],[140.4657439502959,35.875],[140.625,36.03568644913787],[140.63308609451772,36.041575195166295]],[[133.875,35.13855084722664],[133.82106928876703,35.125],[133.625,35.08035714767032],[133.375,34.999687663068585],[133.125,34.94239450045317],[132.8923050108888,34.875],[132.875,34.866185998168596],[132.63326565229502,34.625],[132.625,34.60210923686065],[132.45496636901757,34.375],[132.43566340527389,34.352967025987915]],[[132.30171428176538,33.92618162083093],[132.30562634391887,33.879542657196325]],[[132.6962390138171,33.773532728066456],[132.875,33.856760429589656],[132.8923627304171,33.875],[133.06582499791364,33.983203759446205]],[[133.6218548117461,34.04671447589315],[133.625,34.04654156978972],[133.875,34.007737982512154],[134.125,33.99369406963929],[134.375,34.0701900323992],[134.5237876194128,34.125],[134.625,34.199204767710356],[134.62719243293265,34.19850987637827]],[[135.10322138848255,34.08221871420416],[135.125,34.078686416137536],[135.1943898473544,34.125],[135.375,34.24719294847352],[135.49156711891789,34.375],[135.625,34.496862889557995],[135.875,34.615640395975795],[135.9153021645567,34.625],[136.1017784581741,34.875],[135.875,34.954837293021555],[135.625,34.97254205236549],[135.375,34.99124775923757],[135.125,35.02358036814316],[134.875,35.07602032959169],[134.625,35.10235293880928],[134.375,35.098720574806265],[134.125,35.119905427442966],[134.05648748969065,35.125],[133.875,35.13855084722664]]]}},{"type":"Feature","properties":{"id":"precipitation-line-1750","value":1750,"label":"1,750 mm/年"},"geometry":{"type":"MultiLineString","coordinates":[[[140.05541339386127,39.646782039645565],[140.11860333031336,39.625],[140.125,39.62259431378005],[140.35476137663784,39.375],[140.375,39.35835140230536],[140.528679907104,39.125],[140.57801090059056,38.875],[140.375,38.65262112696637],[140.29901697898475,38.625],[140.125,38.593608667203],[139.875,38.55352326374445],[139.625,38.46757857583725],[139.4672816021244,38.39297721858161]],[[139.22929758818424,37.997773218032464],[139.21155538850553,37.875],[139.17025057516042,37.625],[139.24721338792406,37.375],[139.375,37.21135294161059],[139.47717149014844,37.125],[139.625,37.02229208832539],[139.7723807785414,36.875],[139.69063328778387,36.625],[139.625,36.58404110209856],[139.375,36.59420193429183],[139.32941733702623,36.625],[139.125,36.7710096263964],[138.875,36.8267833309115],[138.625,36.81985708057729],[138.375,36.82802762820122],[138.125,36.843908746501725],[137.875,36.80604581458401],[137.64251336212982,36.625],[137.625,36.598023739241185],[137.46371387550676,36.375],[137.375,36.19909740433121],[137.28885743775106,36.125],[137.20711029619437,35.875],[137.1672034061204,35.625],[137.125,35.58345008497703],[136.88635397856427,35.375],[136.875,35.365706246847445],[136.625,35.21653343250875],[136.375,35.33039708044132],[136.125,35.32772168169895],[135.875,35.30304932014403],[135.625,35.285874933899734],[135.375,35.24790221663639],[135.125,35.237696841992005],[134.875,35.25951041144384],[134.625,35.28707663568769],[134.375,35.31458791374035],[134.125,35.36616505951179],[134.08677377809727,35.375],[133.875,35.473670140246675],[133.625,35.480290348337036],[133.46256917617524,35.375],[133.375,35.336752641582905],[133.125,35.251489531307264],[132.875,35.2511917142258],[132.65658446651784,35.31997091342119]],[[138.28350660413562,37.84913490761143],[138.375,37.8513421140161],[138.42942300091912,37.86079107495882]],[[137.42996434365554,34.667938339987984],[137.45413143369788,34.875],[137.57557134033277,35.125],[137.625,35.186538477072],[137.875,35.34683433508649],[138.125,35.345603087026504],[138.375,35.31946372992622],[138.625,35.29705736809603],[138.875,35.30383894017446],[139.099317710644,35.375],[139.125,35.38233522771296],[139.375,35.42093597153777],[139.61018614142267,35.375],[139.625,35.37198176880107],[139.65530346234922,35.35978304742737]],[[139.8487915510719,35.281894017578],[139.875,35.27134375231701],[140.125,35.28899817024834],[140.375,35.370580375858495],[140.38929363823067,35.37109237932902]],[[130.87456310968327,34.076253342642495],[130.875,34.07637015548194],[130.8933640296321,34.125],[131.125,34.374102484307],[131.12723977428954,34.37500000000001],[131.1418816506503,34.37771343197202]],[[131.18601226122811,34.385891715051024],[131.21460514476507,34.39119054714395]],[[131.3332516157708,34.413178106652076],[131.34800046401364,34.41591136264922]],[[131.38664785282202,34.419300983205716],[131.625,34.386274788105595],[131.63641100843364,34.375],[131.82855570223037,34.125],[131.84662156276147,33.99727496285519]],[[132.4846117178629,33.28008012321594],[132.625,33.307071151082525],[132.69650588035546,33.375],[132.875,33.52033645817602],[132.93602999155758,33.625],[133.125,33.81938830201496],[133.20787375787648,33.875],[133.375,33.94279302425644],[133.625,33.94418490823995],[133.875,33.88705831408927],[133.93720119554268,33.875],[134.125,33.83603613810584],[134.375,33.82402733519555],[134.625,33.78394346848644],[134.6265322607508,33.783668313403425]],[[135.1677686360647,33.848496328501],[135.1998217137933,33.875],[135.375,34.018267811900394],[135.4473459926833,34.125],[135.625,34.30915814219091],[135.7016118932155,34.375],[135.875,34.5076117055495],[136.125,34.58229924807727],[136.375,34.607651045016716],[136.5502235617583,34.60301010573537]],[[136.89034795668277,34.53139451512039],[136.9014563575983,34.52471516315243]]]}},{"type":"Feature","properties":{"id":"precipitation-line-2000","value":2000,"label":"2,000 mm/年"},"geometry":{"type":"MultiLineString","coordinates":[[[138.72464318272517,37.57204999648345],[138.875,37.51907309365556],[138.99496407406565,37.375],[139.11113706954507,37.12499999999999],[138.875,36.995474630348426],[138.625,36.945025711378975],[138.375,36.925797756880996],[138.125,36.93625990003144],[137.875,36.93327532113595],[137.71629046263052,36.875],[137.625,36.818388378352665],[137.46463757074116,36.625],[137.375,36.501275451824355],[137.19983339139662,36.375],[137.125,36.309031666598756],[136.89256808407865,36.125],[136.875,36.098693851008356],[136.72028798355768,35.875],[136.625,35.766809088598656],[136.375,35.64297266973393],[136.32449926345157,35.625],[136.125,35.57596759625126],[135.875,35.56721743431538],[135.83947497245413,35.57391821949797]],[[135.30051719627792,35.69585781199916],[135.125,35.63068189086051],[135.11930325020043,35.625],[134.875,35.56476789717897],[134.62830055561344,35.625],[134.625,35.63922724893126],[134.62219240334048,35.662130814947375]],[[129.30776731153935,34.60040523953917],[129.375,34.62011100253564],[129.39761333118295,34.625],[129.48811566080536,34.639200351265295]],[[137.99304646652422,34.662736059714284],[137.95985595946567,34.875],[138.10154567236964,35.125],[138.125,35.13526452564675],[138.375,35.16440381906011],[138.54799311850365,35.125],[138.5689785498787,35.10440048219886]],[[138.7733860349936,34.93376876488735],[138.848796168909,34.875],[138.75384516003305,34.796805720725224]],[[138.8911380624256,34.626897358909304],[138.88395660603854,34.875],[139.07873352658586,35.052816589807264]],[[139.75273055006602,34.9742875585229],[139.78124020764986,34.95333520934817]],[[139.82492073102588,34.921233470657754],[139.85179843586388,34.90148047800516]],[[129.84818129365846,33.52578710165158],[129.854022978383,33.47045823589967]],[[129.8573495905122,33.438950599903464],[129.86130575296974,33.401480248142406]],[[129.86244599986514,33.390680526765],[129.86261597410206,33.389070634725705]],[[129.86493565265454,33.37277425529732],[129.875,33.34591767525574],[130.125,33.257785089719775],[130.375,33.233392032052976],[130.625,33.22670709324384],[130.875,33.30243696029381],[131.125,33.334197179240654],[131.375,33.26854670939531],[131.56653863063445,33.125],[131.625,33.080932285650974],[131.875,33.00090523053583],[131.90448722469972,32.99359084710367]],[[132.4743941445022,32.92988808949217],[132.625,32.968983245384855],[132.83197584117917,33.125],[132.875,33.1658652461287],[132.9941739925567,33.375],[133.12497730706298,33.625],[133.125,33.62502334360638],[133.375,33.81948119498689],[133.625,33.8381103458713],[133.875,33.772106429214745],[134.125,33.706879890002455],[134.375,33.64627357423452],[134.38636826301916,33.64254633828722]],[[135.28442033381583,33.7694098847837],[135.375,33.84381119672415],[135.39455537981445,33.875],[135.56444858800816,34.125],[135.625,34.187768274737394],[135.84285802253575,34.375],[135.875,34.39958301512321],[136.125,34.50454842045023],[136.375,34.52279022029133],[136.625,34.47148786804291],[136.79339392609182,34.375],[136.875,34.329139816011136],[136.89379567550208,34.31124967121024]]]}},{"type":"Feature","properties":{"id":"precipitation-line-2250","value":2250,"label":"2,250 mm/年"},"geometry":{"type":"MultiLineString","coordinates":[[[136.71898806736428,37.0702523231614],[136.875,37.01729015073521],[137.04995400553562,37.03525568663471]],[[138.59027776386569,37.423507898826266],[138.625,37.41280551444984],[138.69312831971683,37.375],[138.77682681179664,37.125],[138.625,37.07157210655151],[138.375,37.020407288722026],[138.125,37.0258630659633],[137.89826262380484,37.058316686310924]],[[137.2268487420821,36.76277328174743],[137.1314505955281,36.625],[137.125,36.62082852685699],[136.875,36.517088213637436],[136.73427461287872,36.375],[136.625,36.27236749181211],[136.422791934431,36.125],[136.375,36.08380737573546],[136.125,36.03755063426545],[136.0321229720536,36.083182042940194]],[[129.17668458155737,34.201031006931],[129.32108998067315,34.26356465862419]],[[135.3629829616283,33.65128045965441],[135.375,33.66112142705687],[135.39988945304248,33.70081752408749]],[[135.4010354697827,33.702645301967586],[135.5091018663359,33.875],[135.625,34.04422902075715],[135.66555261240742,34.125],[135.875,34.31588421604903],[136.00923094586813,34.375],[136.125,34.42679759282318],[136.375,34.43792939556593],[136.56100009846753,34.375],[136.625,34.35225717681123],[136.67164211481943,34.32424057347826]],[[136.70570757958816,34.30377840924164],[136.7267324117636,34.29114938533304]],[[136.77512448965803,34.26208162851981],[136.77653128044147,34.26123660895959]],[[128.98548597758403,32.89410085081185],[128.99819518491583,32.875],[129.00171001496187,32.865669897978954]],[[129.6952593476436,31.621848695529824],[129.69869282465626,31.625],[129.70448463414917,31.62725722222488]],[[130.19717652294733,31.97861196258821],[130.26566821357383,32.11473780874705]],[[130.1700999469047,32.31524393566292],[130.1384598891561,32.375],[130.125,32.385073846759845],[130.0499849055147,32.52103393694874]],[[130.01040854937855,32.755012843163826],[130.02682324026807,32.875],[130.125,32.98963933484387],[130.19775841737146,33.000600863244415]],[[130.42705188462992,33.00117777351489],[130.625,32.90182440069997],[130.875,33.12243266340625],[130.88041612106267,33.125],[131.125,33.19289357762021],[131.284632191995,33.125],[131.375,33.078064617788506],[131.625,32.882607735901814],[131.6432139470984,32.875],[131.8627662633228,32.72030738216312]],[[132.7664904719542,32.74930963260751],[132.875,32.86261326198669],[132.8875706966798,32.875],[133.0000150432929,32.97817066107453]],[[133.06162665112657,33.03470094028844],[133.125,33.092847663487184],[133.15611067323107,33.125],[133.2062763607164,33.375],[133.2937116841942,33.625],[133.375,33.68823106966681],[133.625,33.724281516654095],[133.875,33.65779039917268],[133.9848363900929,33.625],[134.125,33.53326983279419],[134.25474051373106,33.4774653127244]],[[129.02895961624077,27.77116938554179],[128.89050640368833,27.865752488446628]],[[123.79560526854834,24.407356068974764],[123.78527972487996,24.375],[123.73670459489828,24.28182832485296]]]}},{"type":"Feature","properties":{"id":"precipitation-line-2500","value":2500,"label":"2,500 mm/年"},"geometry":{"type":"MultiLineString","coordinates":[[[138.08159838900346,37.125],[138.10176611107596,37.17046268320104]],[[138.29445156283668,37.212984913378754],[138.375,37.208301644555995],[138.41360557369825,37.125],[138.375,37.11501682056306],[138.125,37.11546623189516],[138.08159838900346,37.125]],[[139.35123256392367,34.722203717916194],[139.375,34.75767924843623],[139.45717506455097,34.71810460662091]],[[133.59438743582746,33.50576513284563],[133.625,33.54066365875729],[133.64915179958152,33.52423350177952]],[[135.49766118669834,33.53903638630342],[135.54373336196784,33.625],[135.62364835285732,33.875],[135.625,33.87697361178419],[135.7495263841347,34.125],[135.875,34.23935297940252],[136.125,34.35231645919789],[136.375,34.35624049288496],[136.61269338645624,34.26770924937054]],[[130.27314194524644,32.65050209417756],[130.37224452135686,32.79339935237203]],[[130.4541506690578,32.630617503586734],[130.4568170307573,32.625],[130.45188549730508,32.61965133295554]],[[130.44790988172022,32.615339440059266],[130.41081517009897,32.57510707349515]],[[130.48884217183416,31.230263461317893],[130.60803490956854,31.295455718655024]],[[130.72532785977154,31.447421896607914],[130.72523405192896,31.562662809683527]],[[130.73078690456637,31.71080206568215],[130.7415104097529,31.875],[130.7882189490499,32.125],[130.83061847344453,32.375],[130.875,32.56265913831635],[130.87946471430075,32.625],[130.875,32.720180628017495],[130.8683064133299,32.875],[130.875,32.881138501965026],[131.125,33.04487861456388],[131.375,32.90550799777922],[131.413825046328,32.875],[131.50488690739377,32.625],[131.53419305569827,32.375],[131.60145413675386,32.32095398060547]]]}},{"type":"Feature","properties":{"id":"precipitation-line-2750","value":2750,"label":"2,750 mm/年"},"geometry":{"type":"MultiLineString","coordinates":[[[135.8329960944744,33.514983196519005],[135.77178298824,33.625],[135.7339458533355,33.875],[135.83350015586197,34.125],[135.875,34.162821742756016],[136.125,34.284360996836284],[136.375,34.28365300970504],[136.49036318281185,34.2330505061874]],[[131.10141439082557,32.875],[131.125,32.890656619909464],[131.15244614838713,32.875],[131.125,32.769863247963734],[131.10141439082557,32.875]],[[131.00653606729574,30.786076427780426],[131.07112019251758,30.757555636701905]],[[129.4003929831326,28.16327243267507],[129.375,28.176692748452243],[129.27297920986564,28.258497554698152]]]}},{"type":"Feature","properties":{"id":"precipitation-line-3000","value":3000,"label":"3,000 mm/年"},"geometry":{"type":"MultiLineString","coordinates":[[[139.58111010010222,33.8648226061336],[139.5937947384428,33.875],[139.6153437154058,33.89169771155637]],[[135.98887893506728,33.67744580520184],[135.875,33.79261397672933],[135.84419261713813,33.875],[135.875,33.96396648951158],[135.94331884591423,34.125],[136.125,34.21640553447469],[136.375,34.21106552652512],[136.38934809961762,34.20425]],[[130.94125030482004,30.669694287188598],[131.01053783966873,30.625],[131.05277236175408,30.600364603174636]]]}},{"type":"Feature","properties":{"id":"precipitation-line-3250","value":3250,"label":"3,250 mm/年"},"geometry":{"type":"MultiLineString","coordinates":[[[136.05836706081953,33.82416657265321],[136.00789363818018,33.875],[136.07838973521257,34.125],[136.125,34.148450072113086],[136.29813126075433,34.14154419246164]],[[130.93631766452037,30.556803673813043],[130.98745176200705,30.52490841496689]]]}},{"type":"Feature","properties":{"id":"precipitation-line-3500","value":3500,"label":"3,500 mm/年"},"geometry":{"type":"MultiLineString","coordinates":[[[130.89141485516987,30.494700289590128],[130.9772704259472,30.435588801732454]],[[129.613074452807,29.45968667504919],[129.59043322355703,29.465757629823862]]]}},{"type":"Feature","properties":{"id":"precipitation-line-3750","value":3750,"label":"3,750 mm/年"},"geometry":{"type":"MultiLineString","coordinates":[[[130.17102802506344,30.457403243801142],[130.21105672916852,30.47681673616987]],[[130.86238264808716,30.424295486777474],[130.875,30.416952801584536],[130.9359337009825,30.375],[130.93758876990896,30.373266174890418]]]}},{"type":"Feature","properties":{"id":"precipitation-line-4000","value":4000,"label":"4,000 mm/年"},"geometry":{"type":"LineString","coordinates":[[130.46379994642228,30.448233870020122],[130.5173202705619,30.454367507296055]]}},{"type":"Feature","properties":{"id":"precipitation-line-4250","value":4250,"label":"4,250 mm/年"},"geometry":{"type":"LineString","coordinates":[[130.45135252430077,30.23524162597174],[130.625,30.347644449450396],[130.65018296287863,30.297207720303877]]}}]}
