{"type":"FeatureCollection","features":[{"type":"Feature","properties":{"id":"river-ishikari","name":"石狩川","sourceName":"Ishikari","source":"Natural Earth v5.1.2 1:10m","sourceUrl":"https://www.naturalearthdata.com/downloads/10m-physical-vectors/10m-rivers-lake-centerlines/","point":[142.0555042444385,43.69995996132133]},"geometry":{"type":"LineString","coordinates":[[143.065929,43.69953],[143.052257,43.708767],[142.983002,43.739773],[142.944021,43.749335],[142.927989,43.758612],[142.91684,43.771918],[142.899669,43.798367],[142.884532,43.809638],[142.865245,43.817328],[142.808116,43.825222],[142.789236,43.830268],[142.709076,43.869005],[142.677989,43.895941],[142.667979,43.900662],[142.643891,43.904853],[142.619314,43.902696],[142.524425,43.877061],[142.483409,43.855984],[142.373464,43.772773],[142.35255,43.76378],[142.315033,43.772569],[142.292491,43.765408],[142.214122,43.723985],[142.172781,43.710639],[142.083995,43.696397],[142.073985,43.697089],[142.064708,43.699286],[142.054698,43.700019],[142.042491,43.696397],[142.030365,43.688096],[142.024669,43.68122],[142.017589,43.676459],[141.981293,43.670925],[141.95989,43.6612],[141.902761,43.620714],[141.892182,43.609565],[141.886811,43.594346],[141.885346,43.569159],[141.888764,43.548896],[141.900971,43.510443],[141.899018,43.489691],[141.893321,43.480007],[141.886974,43.478583],[141.879893,43.477973],[141.871755,43.470486],[141.870046,43.460273],[141.870616,43.446153],[141.868907,43.433661],[141.861095,43.42829],[141.852306,43.425076],[141.842296,43.417182],[141.833995,43.407294],[141.825776,43.386786],[141.813975,43.380683],[141.789154,43.373603],[141.78183,43.367703],[141.768077,43.351426],[141.761974,43.346381],[141.75058,43.343207],[141.728282,43.341498],[141.67685,43.310248],[141.659434,43.295925],[141.652192,43.278022],[141.654552,43.252712],[141.658946,43.236151],[141.657644,43.220771],[141.629324,43.180365],[141.61085,43.142198],[141.597341,43.127265],[141.561127,43.116156],[141.518647,43.122626],[141.47755,43.138129],[141.420339,43.167914],[141.411713,43.174994],[141.406749,43.182196],[141.401459,43.196967],[141.398041,43.202338],[141.370046,43.218126],[141.359793,43.229682],[141.357595,43.237901]]}},{"type":"Feature","properties":{"id":"river-tone","name":"利根川","sourceName":"Tone","source":"Natural Earth v5.1.2 1:10m","sourceUrl":"https://www.naturalearthdata.com/downloads/10m-physical-vectors/10m-rivers-lake-centerlines/","point":[139.69491256536287,36.142232549518035]},"geometry":{"type":"LineString","coordinates":[[139.067149,36.906684],[139.067882,36.869818],[139.064708,36.853217],[139.055186,36.838813],[139.024099,36.81863],[138.991466,36.802436],[138.968761,36.779731],[138.968272,36.739936],[138.983165,36.705634],[139.024913,36.643337],[139.041433,36.609931],[139.044932,36.585028],[139.039561,36.565294],[139.031749,36.546576],[139.020925,36.483425],[139.023448,36.474066],[139.036143,36.455837],[139.041433,36.446153],[139.061046,36.384874],[139.072032,36.35989],[139.089285,36.33629],[139.103526,36.324286],[139.133067,36.308905],[139.147227,36.298122],[139.170502,36.27265],[139.181814,36.263129],[139.198416,36.25434],[139.232188,36.242051],[139.303966,36.228135],[139.378347,36.222439],[139.412364,36.211697],[139.443858,36.196234],[139.472748,36.178005],[139.513927,36.192694],[139.562673,36.190863],[139.60963,36.179307],[139.769216,36.109931],[139.801768,36.081814],[139.865733,36.004991],[139.932058,35.938422],[139.96933,35.913886],[140.127045,35.854315],[140.169444,35.844102],[140.189464,35.842841],[140.319591,35.850613],[140.345225,35.855333],[140.367442,35.878363],[140.392507,35.884792],[140.461192,35.892361],[140.551199,35.888454],[140.569347,35.883734],[140.625418,35.853583],[140.670502,35.841579],[140.692393,35.832587],[140.710541,35.819648],[140.755056,35.773953],[140.776541,35.756863],[140.798839,35.74372],[140.824474,35.735297],[140.856944,35.732367]]}},{"type":"Feature","properties":{"id":"river-mogami","name":"最上川","sourceName":"Mogami","source":"Natural Earth v5.1.2 1:10m","sourceUrl":"https://www.naturalearthdata.com/downloads/10m-physical-vectors/10m-rivers-lake-centerlines/","point":[140.3374135827849,38.41005447374462]},"geometry":{"type":"LineString","coordinates":[[140.038666,37.76614],[140.045095,37.841132],[140.055431,37.875434],[140.123953,37.993923],[140.125092,38.010443],[140.087413,38.033515],[140.060476,38.064399],[140.049571,38.102118],[140.060476,38.145697],[140.065684,38.153388],[140.086925,38.173936],[140.0949,38.188544],[140.098155,38.221015],[140.102061,38.237331],[140.113292,38.256903],[140.15089,38.3039],[140.188975,38.335517],[140.203054,38.350531],[140.218842,38.3581],[140.244314,38.352362],[140.281749,38.333564],[140.296153,38.337958],[140.314952,38.36046],[140.328136,38.385281],[140.339854,38.416571],[140.348155,38.448676],[140.351085,38.47602],[140.349132,38.482856],[140.341563,38.499701],[140.340017,38.504259],[140.342703,38.508734],[140.350352,38.511054],[140.373546,38.541124],[140.37851,38.555976],[140.369884,38.571112],[140.361827,38.578559],[140.356293,38.585639],[140.352306,38.593777],[140.349132,38.604356],[140.348888,38.616523],[140.350597,38.628852],[140.349864,38.639716],[140.342459,38.647284],[140.322276,38.652289],[140.279796,38.655951],[140.257823,38.665635],[140.241954,38.680609],[140.230479,38.695746],[140.217214,38.707221],[140.174734,38.714219],[139.99879,38.783637],[139.961681,38.808214],[139.921886,38.850531],[139.903738,38.861151],[139.853933,38.876654],[139.834972,38.888739],[139.815929,38.913642]]}}]}
