{"type":"FeatureCollection","features":[{"type":"Feature","properties":{"id":"california-current","kind":"current","nameJa":"カリフォルニア海流（寒流）","temperature":"cold"},"geometry":{"type":"LineString","coordinates":[[-129,47],[-126.5,42],[-124,36],[-121.5,29]]}},{"type":"Feature","properties":{"id":"gulf-stream","kind":"current","nameJa":"メキシコ湾流（暖流）","temperature":"warm"},"geometry":{"type":"LineString","coordinates":[[-84,23.5],[-81.3,24.1],[-80,25],[-79.5,28],[-78,31],[-75,35],[-70,39],[-65,41]]}},{"type":"Feature","properties":{"id":"california-upwelling","kind":"upwelling","nameJa":"沿岸湧昇の生じやすい海域"},"geometry":{"type":"LineString","coordinates":[[-124.3,43],[-123,38],[-120.2,33]]}},{"type":"Feature","properties":{"id":"lake-mead","kind":"reservoir","nameJa":"ミード湖"},"geometry":{"type":"Point","coordinates":[-114.74,36.1]}},{"type":"Feature","properties":{"id":"lake-powell","kind":"reservoir","nameJa":"パウエル湖"},"geometry":{"type":"Point","coordinates":[-111.48,37.02]}},{"type":"Feature","properties":{"id":"shasta-lake","kind":"reservoir","nameJa":"シャスタ湖"},"geometry":{"type":"Point","coordinates":[-122.2,40.72]}},{"type":"Feature","properties":{"id":"california-current-arrow","kind":"current","nameJa":"カリフォルニア海流（寒流）","temperature":"cold","arrowhead":true},"geometry":{"type":"LineString","coordinates":[[-122.01795805137715,29.55831841901694],[-121.5,29],[-121.45291290442026,29.760120257215835]]}},{"type":"Feature","properties":{"id":"gulf-stream-arrow","kind":"current","nameJa":"メキシコ湾流（暖流）","temperature":"warm","arrowhead":true},"geometry":{"type":"LineString","coordinates":[[-65.53851648071345,40.46148351928655],[-65,41],[-65.7613508865259,41.018569533817704]]}}]}